,full,name,address,street,no,street_clean,num_clean
0,Abbott Charles W. 548 W 39th,Abbott Charles W ,548 W 39th ,W 39th ,548,W 39th Street,548.0
1,"Abeles Aaron, 113 Eldridge",Abeles Aaron ,113 Eldridge  ,Eldridge  ,113,Eldridge Street,113.0
2,"Abelmont Eugenia, 486, 6th av",Abelmont Eugenia ,486 6th av ,6th av ,486,6th Avenue,486.0
3,"Abrahams Anna, 292 Cherry",Abrahams Anna ,292 Cherry  ,Cherry  ,292,Cherry Street,292.0
4,"Abramowitz Louis, 155 Allen",Abramowitz Louis ,155 Allen st  ,Allen st  ,155,Allen Street,155.0
5,"+ Abrams William, 130, 7th",+ Abrams William ,130 7th  ,7th  ,130,7th Avenue,130.0
6,"Abramson Dora, 18 Bleecker",Abramson Dora ,18 Bleecker  ,Bleecker  ,18,Bleecker Street,18.0
7,"Abromowitch Joseph, 2924, 8th av",Abromowitch Joseph ,2924 8th av ,8th av ,2924,8th Avenue,2924.0
8,Achorn John E. 142 Fulton,Achorn John E ,142 Fulton  ,Fulton  ,142,Fulton Street,142.0
9,Acierno Giacchino. 209 Mulberry,Acierno Giacchino ,209 Mulberry  ,Mulberry  ,209,Mulberry Street,209.0
10,Adams Joseph T. 373 West,Adams Joseph T ,373 West st  ,West st  ,373,West Street,373.0
11,"Adler & Lesser, 204 Wooster",Adler & Lesser ,204 Wooster  ,Wooster  ,204,Wooster Street,204.0
12,"Afternoon Tea Room, 291, 5th av",Afternoon Tea Room ,291 5th av ,5th av ,291,5th Avenue,291.0
13,Ahnert Louis H. 111 E 125th,Ahnert Louis H ,111 E 125th ,E 125th ,111,E 125th Street,111.0
14,"Ahrens Henry, 951 Amsterdam av",Ahrens Henry ,951 Amsterdam av ,Amsterdam av ,951,Amsterdam Avenue,951.0
15,"Ahrens Henry, 730, 2d av",Ahrens Henry ,730 2nd av ,2nd av ,730,2nd Avenue,730.0
16,Ahrens Herman F. 40 Franklin,Ahrens Herman F ,40 Franklin  ,Franklin  ,40,Franklin Street,40.0
17,"Aird Henry F. 606, 8th av",Aird Henry F ,606 8th av ,8th av ,606,8th Avenue,606.0
18,"Albert Samuel, 214 Broome",Albert Samuel ,214 Broome  ,Broome  ,214,Broome Street,214.0
19,Albietz Minnie. 112 W 20th,Albietz Minnie ,112 W 20th ,W 20th ,112,W 20th Street,112.0
20,"Alder Emil, 317 W Bway",Alder Emil ,317 W Broadway,W Broadway,317,Broadway W,317.0
21,"Alessandro Michael, 20 Mulberry",Alessandro Michael ,20 Mulberry  ,Mulberry  ,20,Mulberry Street,20.0
22,Allabough Frank T. 53 Vesey,Allabough Frank T ,53 Vesey  ,Vesey  ,53,Vesey Street,53.0
23,"Allen Adolph, 88 Lewis",Allen Adolph ,88 Lewis  ,Lewis  ,88,Lewis Street,88.0
24,Allen Ethan. Sedgwick av n Depot pl,Allen Ethan Sedgwick av n Depot pl,   ,  ,,,
25,"+ Allen Brothers, 1278, 3d av",+ Allen Brothers ,1278 3rd av ,3rd av ,1278,3rd Avenue,1278.0
26,"Allweier John, 63 E 4th",Allweier John ,63 E 4th ,E 4th ,63,E 4th Street,63.0
27,Alperstein S. 215 Rivington,Alperstein S ,215 Rivington  ,Rivington  ,215,Rivington Street,215.0
28,Alt Charles. 205 E 127th,Alt Charles ,205 E 127th ,E 127th ,205,E 127th Street,205.0
29,Alten Henry. 227 W Bway,Alten Henry ,227 W Broadway,W Broadway,227,Broadway W,227.0
30,"Altman Benjamin, 322 Canal",Altman Benjamin ,322 Canal  ,Canal  ,322,Canal Street,322.0
31,"Amster Wolf, 9 1/2 Essex",Amster Wolf ,9 Essex  ,Essex  ,9,Essex Street,9.0
32,Anderson Henry C. 87 Dey,Anderson Henry C ,87 Dey  ,Dey  ,87,Dey Street,87.0
33,"Anderson James, 227 10th av",Anderson James ,227 10th av ,10th av ,227,10th Avenue,227.0
34,Anderson James F. 274 W 69th,Anderson James F ,274 W 69th ,W 69th ,274,W 69th Street,274.0
35,Anderson John R. 36 Pine,Anderson John R ,36 Pine  ,Pine  ,36,Pine Street,36.0
36,"Anderson William C. Jr, 511, 3d av",Anderson William C Jr ,511 3rd av ,3rd av ,511,3rd Avenue,511.0
37,Andrea William. 245 E 59th,Andrea William ,245 E 59th ,E 59th ,245,E 59th Street,245.0
38,"Andrews Charles, 31 11th av",Andrews Charles ,31 11th av ,11th av ,31,11th Avenue,31.0
39,Appel Charles E. 137 Cedar,Appel Charles E ,137 Cedar  ,Cedar  ,137,Cedar Street,137.0
40,Appelt Gustav. 393 Bowery,Appelt Gustav ,393 Bowery  ,Bowery  ,393,Bowery Street,393.0
41,"Applesdorf Morris, 132 E Houston",Applesdorf Morris ,132 E Houston ,E Houston ,132,Houston Street E,132.0
42,"Apprisdorf Joseph, 7 2d av",Apprisdorf Joseph ,7 2nd av ,2nd av ,7,2nd Avenue,7.0
43,Archer James E. 106 W 42d,Archer James E ,106 W 42nd ,W 42nd ,106,W 42nd Street,106.0
44,Archibald Joseph. 39 Cherry,Archibald Joseph ,39 Cherry  ,Cherry  ,39,Cherry Street,39.0
45,"Arendt William, 87 E 4th",Arendt William ,87 E 4th ,E 4th ,87,E 4th Street,87.0
46,"Arfmann & Flink, 178 Franklin",Arfmann & Flink ,178 Franklin  ,Franklin  ,178,Franklin Street,178.0
47,"Argiro Domenica, 95 Park",Argiro Domenica ,95 Park  ,Park  ,95,Park Street,95.0
48,Asbyll Barnett. 74 Monroe,Asbyll Barnett ,74 Monroe  ,Monroe  ,74,Monroe Street,74.0
49,Assy Habib. 30 Rector,Assy Habib ,30 Rector  ,Rector  ,30,Rector Street,30.0
50,"Astrof Frances, 176 Clinton",Astrof Frances ,176 Clinton  ,Clinton  ,176,Clinton Street,176.0
51,"Atah Lattfalla, 71 Washn",Atah Lattfalla ,71 Washington,Washington,71,Washington Street,71.0
52,"Aueringer Erhard, 151 E 4th",Aueringer Erhard ,151 E 4th ,E 4th ,151,E 4th Street,151.0
53,"Autenrieth Herman, 34 Bond",Autenrieth Herman ,34 Bond  ,Bond  ,34,Bond Street,34.0
54,"Avellanet Joseph, 44 W 28th",Avellanet Joseph ,44 W 28th ,W 28th ,44,W 28th Street,44.0
55,"Aymer Louis, 156, 3d av",Aymer Louis ,156 3rd av ,3rd av ,156,3rd Avenue,156.0
56,"Baab Carl, 113, 2d av",Baab Carl ,113 2nd av ,2nd av ,113,2nd Avenue,113.0
57,"Bach B. & Son, 173 Gwich",Bach B & Son ,173 Greenwich,Greenwich,173,Greenwich Street,173.0
58,"Bachareli Luigi, 54 Spring",Bachareli Luigi ,54 Spring  ,Spring  ,54,Spring Street,54.0
59,"Bacon William. 288, 8th av",Bacon William ,288 8th av ,8th av ,288,8th Avenue,288.0
60,Bader Valentine. 52 Trinity pl,Bader Valentine ,52 Trinity pl ,Trinity pl ,52,Trinity Place,52.0
61,"Baedecker & Wellenkamp, 2, 13th av, W Washn mkt",Baedecker & Wellenkamp ,2 13th av ,13th av ,2,13th Avenue,2.0
62,"Bahruth Anne, 466 1/2 Pearl",Bahruth Anne ,466 Pearl  ,Pearl  ,466,Pearl Street,466.0
63,Bailey Robert A. 538 E 14th,Bailey Robert A ,538 E 14th ,E 14th ,538,E 14th Street,538.0
64,"Bailey W. M. & Co. 124 Chamber, 51 Maiden la & 1233 Bway",Bailey W M & Co ,124 Chambers  ,Chambers  ,124,Chambers Street,124.0
65,"Bailey W. M. & Co. 124 Chamber, 51 Maiden la & 1233 Bway",Bailey W M & Co ,51 Maiden ln ,Maiden ln ,51,Maiden Lane,51.0
66,"Bailey W. M. & Co. 124 Chamber, 51 Maiden la & 1233 Bway",Bailey W M & Co ,1233 Broadway,Broadway,1233,Broadway,1233.0
67,Baker Albert. 360 Hudson,Baker Albert ,360 Hudson  ,Hudson  ,360,Hudson Street,360.0
68,"Baker Henry, 336, 1st av",Baker Henry ,336 1st av ,1st av ,336,1st Avenue,336.0
69,"Baldauf Andrew. 67, 2d av",Baldauf Andrew ,67 2nd av ,2nd av ,67,2nd Avenue,67.0
70,Balestrieri Michael. 248 Mott,Balestrieri Michael ,248 Mott  ,Mott  ,248,Mott Street,248.0
71,Ball Leroy D. 488 Columbus av,Ball Leroy D ,488 Columbus av ,Columbus av ,488,Columbus Avenue,488.0
72,"Ball Thomas, 137 W 32d",Ball Thomas ,137 W 32nd ,W 32nd ,137,W 32nd Street,137.0
73,"Balz George T. 1006, 2d av",Balz George T ,1006 2nd av ,2nd av ,1006,2nd Avenue,1006.0
74,"Balzarini Joseph, 159 South &  7   &  323, 3d av",Balzarini Joseph ,159 South  ,South  ,159,South Street,159.0
75,"Balzarini Joseph, 159 South &  7   &  323, 3d av",Balzarini Joseph ,7 3rd av ,3rd av ,7,3rd Avenue,7.0
76,"Balzarini Joseph, 159 South &  7   &  323, 3d av",Balzarini Joseph ,323 3rd av ,3rd av ,323,3rd Avenue,323.0
77,"Bancel & Pastorini, 1140, 3d av",Bancel & Pastorini ,1140 3rd av ,3rd av ,1140,3rd Avenue,1140.0
78,"Bancell Louis, 164 Maiden la",Bancell Louis ,164 Maiden ln ,Maiden ln ,164,Maiden Lane,164.0
79,"Bantle Conrad, 124 E Houston",Bantle Conrad ,124 E Houston ,E Houston ,124,Houston Street E,124.0
80,"Baracca Victor, 39 S William & 29 Stone",Baracca Victor ,39 S William ,S William ,39,William Street S,39.0
81,"Baracca Victor, 39 S William & 29 Stone",Baracca Victor ,29 Stone William ,Stone William ,29,Stone Street,29.0
82,Barbiery John B. Aqueduct av n E 170th,Barbiery John B Aqueduct av n E ,170th   ,  ,170th,,170.0
83,"Barbour John H. Main, Westchester",Barbour John H Main Westchester,   ,  ,,,
84,Barder Paul. 437 E 10th,Barder Paul ,437 E 10th ,E 10th ,437,E 10th Street,437.0
85,"Baresel Paul, 96 Gansevoort",Baresel Paul ,96 Gansevoort  ,Gansevoort  ,96,Gansevoort Street,96.0
86,Barion E. 16 West,Barion E ,16 West st  ,West st  ,16,West Street,16.0
87,"Baro Christian, 76 E 4th",Baro Christian ,76 E 4th ,E 4th ,76,E 4th Street,76.0
88,Barron Samuel H. 36. 156 & 298 Bway,Barron Samuel H ,36 Broadway,Broadway,36,Broadway,36.0
89,Barron Samuel H. 36. 156 & 298 Bway,Barron Samuel H ,156 Broadway,Broadway,156,Broadway,156.0
90,Barron Samuel H. 36. 156 & 298 Bway,Barron Samuel H ,298 Broadway,Broadway,298,Broadway,298.0
91,Barrow Prank. 21 Beaver,Barrow Prank ,21 Beaver  ,Beaver  ,21,Beaver Street,21.0
92,"Barry Catharine, 579, 1st av",Barry Catharine ,579 1st av ,1st av ,579,1st Avenue,579.0
93,"Barry Joseph, 16 West",Barry Joseph ,16 West st  ,West st  ,16,West Street,16.0
94,"Barson John J. 119, 3d av",Barson John J ,119 3rd av ,3rd av ,119,3rd Avenue,119.0
95,"Bart Wenzel, 631, 1st av",Bart Wenzel ,631 1st av ,1st av ,631,1st Avenue,631.0
96,"Bartel Brothers, 170 1/2 Wooster",Bartel Brothers ,170 Wooster  ,Wooster  ,170,Wooster Street,170.0
97,"Bartell Samuel, 200 Mercer",Bartell Samuel ,200 Mercer  ,Mercer  ,200,Mercer Street,200.0
98,"Bartels Ludwig, 90, 6th av",Bartels Ludwig ,90 6th av ,6th av ,90,6th Avenue,90.0
99,Barto Christina H. 551 Grand,Barto Christina H ,551 Grand st  ,Grand st  ,551,Grand Street,551.0
100,"Baruch Nicholas, 158 Greene",Baruch Nicholas ,158 Greene  ,Greene  ,158,Greene Street,158.0
101,"Basch Isidor, 96. 3d av",Basch Isidor ,96 3rd av ,3rd av ,96,3rd Avenue,96.0
102,"Baudino Emilie. 749, 1st av",Baudino Emilie ,749 1st av ,1st av ,749,1st Avenue,749.0
103,"Bauer Henry, 416 E 17th",Bauer Henry ,416 E 17th ,E 17th ,416,E 17th Street,416.0
104,"Bauman George, 42 Delancey",Bauman George ,42 Delancey  ,Delancey  ,42,Delancey Street,42.0
105,"Baussmann John, 2016, 1st av",Baussmann John ,2016 1st av ,1st av ,2016,1st Avenue,2016.0
106,+Bear Henry. 311 W 125th,+Bear Henry ,311 W 125th ,W 125th ,311,W 125th Street,311.0
107,"Beattie James, 533 Canal",Beattie James ,533 Canal  ,Canal  ,533,Canal Street,533.0
108,"Becker Daniel, 3 Abingdon sq",Becker Daniel ,3 Abingdon sq ,Abingdon sq ,3,Abingdon Square,3.0
109,"Becker Henry, 38 Ann & 336, 1st av",Becker Henry ,38 Ann  ,Ann  ,38,Ann Street,38.0
110,"Becker Henry, 38 Ann & 336, 1st av",Becker Henry ,336 1st av ,1st av ,336,1st Avenue,336.0
111,"+Beckhardt Samuel, 1048, 2d av",+Beckhardt Samuel ,1048 2nd av ,2nd av ,1048,2nd Avenue,1048.0
112,"Beckmann Henry, 228 Willis av",Beckmann Henry ,228 Willis av ,Willis av ,228,Willis Avenue,228.0
113,"Beethoven Maennerchor Restaurant, 212, 5th",Beethoven Maennerchor Restaurant ,212 5th  ,5th  ,212,5th Avenue,212.0
114,Begiebing Emil F. 285 Canal,Begiebing Emil F ,285 Canal  ,Canal  ,285,Canal Street,285.0
115,Beitz Joseph. 195 Orchard,Beitz Joseph ,195 Orchard  ,Orchard  ,195,Orchard Street,195.0
116,"+Bender Edward, 1356, 1st av",+Bender Edward ,1356 1st av ,1st av ,1356,1st Avenue,1356.0
117,"Bergamo Joseph, 206 Mulberry",Bergamo Joseph ,206 Mulberry  ,Mulberry  ,206,Mulberry Street,206.0
118,Berger Anna. 241 E 111th,Berger Anna ,241 E 111th ,E 111th ,241,E 111th Street,241.0
119,"Berger Samuel, 189 Chrystie",Berger Samuel ,189 Chrystie  ,Chrystie  ,189,Chrystie Street,189.0
120,"Berger & Theodore, 57 E Houston",Berger & Theodore ,57 E Houston ,E Houston ,57,Houston Street E,57.0
121,Bergin Michael J. 380 Bowery,Bergin Michael J ,380 Bowery  ,Bowery  ,380,Bowery Street,380.0
122,"Bergmann Carl, 45 Liberty",Bergmann Carl ,45 Liberty  ,Liberty  ,45,Liberty Street,45.0
123,"Beresford William, 2141 Lex av",Beresford William ,2141 Lexington av ,Lexington av ,2141,Lexington Avenue,2141.0
124,"Berkowitz William, 1760. 3d av",Berkowitz William ,1760 3rd av ,3rd av ,1760,3rd Avenue,1760.0
125,Bernard Gustave. 161 Lex av,Bernard Gustave ,161 Lexington av ,Lexington av ,161,Lexington Avenue,161.0
126,"Bernard Rose, 561 W 57th",Bernard Rose ,561 W 57th ,W 57th ,561,W 57th Street,561.0
127,"Bernardoni Julia, 29 Mulberry",Bernardoni Julia ,29 Mulberry  ,Mulberry  ,29,Mulberry Street,29.0
128,Bernhard Valerian. 77 Grand,Bernhard Valerian ,77 Grand st  ,Grand st  ,77,Grand Street,77.0
129,"Bernstein & Segal, 103 Forsyth",Bernstein & Segal ,103 Forsyth  ,Forsyth  ,103,Forsyth Street,103.0
130,Berrums Henry S. 51 E 9th,Berrums Henry S ,51 E 9th ,E 9th ,51,E 9th Street,51.0
131,Berry Jane A. 513 W 43d,Berry Jane A ,513 W 43rd ,W 43rd ,513,W 43rd Street,513.0
132,"Berse Aaron, 25 Rutgers pl",Berse Aaron ,25 Rutgers pl ,Rutgers pl ,25,Rutgers Place,25.0
133,Berwind Michael P. 74 West,Berwind Michael P ,74 West st  ,West st  ,74,West Street,74.0
134,"Beshawte K. 434, 6th av",Beshawte K ,434 6th av ,6th av ,434,6th Avenue,434.0
135,Besler W. F. 3 W End av,Besler W F ,3 W End av,W End av,3,West Avenue,3.0
136,Beste & Dede. 127 Lincoln av,Beste & Dede ,127 Lincoln av ,Lincoln av ,127,Lincoln Avenue,127.0
137,"Besthoff Rosa, 797. 1st av",Besthoff Rosa ,797 1st av ,1st av ,797,1st Avenue,797.0
138,"Bette Brothers, 20 Spring",Bette Brothers ,20 Spring  ,Spring  ,20,Spring Street,20.0
139,Bianchi Santo. 12 Stone & 29 Bridge,Bianchi Santo ,12 Stone  ,Stone  ,12,Stone Street,12.0
140,Bianchi Santo. 12 Stone & 29 Bridge,Bianchi Santo ,29 Bridge  ,Bridge  ,29,Bridge Street,29.0
141,Biebergal Joseph. 119 Broome,Biebergal Joseph ,119 Broome  ,Broome  ,119,Broome Street,119.0
142,"Bihlman Matthew, 976. 8th av",Bihlman Matthew ,976 8th av ,8th av ,976,8th Avenue,976.0
143,Beneakowsky Meyer. 5 Ludlow,Beneakowsky Meyer ,5 Ludlow  ,Ludlow  ,5,Ludlow Street,5.0
144,Bing Charles S. 41 Rose,Bing Charles S ,41 Rose  ,Rose  ,41,Rose Street,41.0
145,Bird Thomas. 209 W 126th,Bird Thomas ,209 W 126th ,W 126th ,209,W 126th Street,209.0
146,Bishop Thomas. 13th av c W 20th,Bishop Thomas ,13th av c W,av c W,13th,C Avenue,13.0
147,Bittner John. 2273. 8th av,Bittner John ,2273 8th av ,8th av ,2273,8th Avenue,2273.0
148,Bittong Louis. 173 Spring,Bittong Louis ,173 Spring  ,Spring  ,173,Spring Street,173.0
149,Blackhall Matilda R. 407 W 59th,Blackhall Matilda R ,407 W 59th ,W 59th ,407,W 59th Street,407.0
150,+Blake Francis. 1786. 1st av,+Blake Francis ,1786 1st av ,1st av ,1786,1st Avenue,1786.0
151,Blanc Andre. 1877 Amsterdam av,Blanc Andre ,1877 Amsterdam av ,Amsterdam av ,1877,Amsterdam Avenue,1877.0
152,"Blass Jacob, 562 W 35th",Blass Jacob ,562 W 35th ,W 35th ,562,W 35th Street,562.0
153,+ Blatt Charles H. 2 Goerck,+ Blatt Charles H ,2 Goerck  ,Goerck  ,2,Goerck Street,2.0
154,"Blau & Chasis, 275 E Houston",Blau & Chasis ,275 E Houston ,E Houston ,275,Houston Street E,275.0
155,"Bleyert Charles, 180 6th av",Bleyert Charles ,180 6th av ,6th av ,180,6th Avenue,180.0
156,"Block Samuel, 248 E 80th",Block Samuel ,248 E 80th ,E 80th ,248,E 80th Street,248.0
157,"Block & Botzet, 263 W 125th",Block & Botzet ,263 W 125th ,W 125th ,263,W 125th Street,263.0
158,"Bloom Joseph, 23 Old sl",Bloom Joseph ,23 Old slip ,Old slip ,23,Old Slip,23.0
159,"Bloom Sarah, 185 Chrystie",Bloom Sarah ,185 Chrystie  ,Chrystie  ,185,Chrystie Street,185.0
160,"Bloom & Fledderman, 15 Gwich av",Bloom & Fledderman ,15 Greenwich av ,Greenwich av ,15,Greenwich Avenue,15.0
161,"Blottner Morris, 178 Bway",Blottner Morris ,178 Broadway,Broadway,178,Broadway,178.0
162,"Blumberg Gustav, 135 E 13th",Blumberg Gustav ,135 E 13th ,E 13th ,135,E 13th Street,135.0
163,"Bock Christian, 74 Laight",Bock Christian ,74 Laight  ,Laight  ,74,Laight Street,74.0
164,"Boeckel George W, 68 White",Boeckel George W ,68 White  ,White  ,68,White Street,68.0
165,"Boedeker Henrietta S, 324 Gwich",Boedeker Henrietta S ,324 Greenwich,Greenwich,324,Greenwich Street,324.0
166,"Boesch John, 64 Prince",Boesch John ,64 Prince  ,Prince  ,64,Prince Street,64.0
167,Boettcher William. 121 Water,Boettcher William ,121 Water st  ,Water st  ,121,Water Street,121.0
168,"Bohling Charles, 301 E 57th",Bohling Charles ,301 E 57th ,E 57th ,301,E 57th Street,301.0
169,"Bohrer Frederick, 111 W 24th",Bohrer Frederick ,111 W 24th ,W 24th ,111,W 24th Street,111.0
170,"Bolger Michael, 360 Amsterdam av",Bolger Michael ,360 Amsterdam av ,Amsterdam av ,360,Amsterdam Avenue,360.0
171,"Bolliger Louise, 12 Stuyvesant",Bolliger Louise ,12 Stuyvesant  ,Stuyvesant  ,12,Stuyvesant Street,12.0
172,"Bolsarini Joseph, 84 & 300 Bowery",Bolsarini Joseph ,84 Bowery  ,Bowery  ,84,Bowery Street,84.0
173,"Bolsarini Joseph, 84 & 300 Bowery",Bolsarini Joseph ,300 Bowery  ,Bowery  ,300,Bowery Street,300.0
174,"Bonn Robert L, 22 1st av",Bonn Robert L ,22 1st av ,1st av ,22,1st Avenue,22.0
175,"Bonwoll Abraham, 132 Allen",Bonwoll Abraham ,132 Allen st  ,Allen st  ,132,Allen Street,132.0
176,"Booras John, 5 Battery pl",Booras John ,5 Battery pl ,Battery pl ,5,Battery Place,5.0
177,"Bormann George, 342 9th av",Bormann George ,342 9th av ,9th av ,342,9th Avenue,342.0
178,"Borras Ventura, 173 Pearl",Borras Ventura ,173 Pearl  ,Pearl  ,173,Pearl Street,173.0
179,"Bossert Frederick, 293 Spring",Bossert Frederick ,293 Spring  ,Spring  ,293,Spring Street,293.0
180,+ Bossert William A. 419 Hudson,+ Bossert William A ,419 Hudson  ,Hudson  ,419,Hudson Street,419.0
181,"Bott Caspar, 51 Gwich & 8 Trinity pl",Bott Caspar ,51 Greenwich,Greenwich,51,Greenwich Street,51.0
182,"Bott Caspar, 51 Gwich & 8 Trinity pl",Bott Caspar ,8 Trinity pl ,Trinity pl ,8,Trinity Place,8.0
183,"Bousquet Alexis, 105 W 29th",Bousquet Alexis ,105 W 29th ,W 29th ,105,W 29th Street,105.0
184,"Bowron George, 706 Columbus av & 2337, 8th av",Bowron George ,706 Columbus av ,Columbus av ,706,Columbus Avenue,706.0
185,"Bowron George, 706 Columbus av & 2337, 8th av",Bowron George ,2337 8th av ,8th av ,2337,8th Avenue,2337.0
186,"Bowyer Henry M, 57 Bway",Bowyer Henry M ,57 Broadway,Broadway,57,Broadway,57.0
187,"Bowyer Rose A, 57 W 21st",Bowyer Rose A ,57 W 21st ,W 21st ,57,W 21st Street,57.0
188,"Boyer Peter F, 466, 8th av",Boyer Peter F ,466 8th av ,8th av ,466,8th Avenue,466.0
189,"Boyle Peter Jr, 4440 Boulevard",Boyle Peter Jr ,4440 Boulevard  ,Boulevard  ,4440,Boulevard Street,4440.0
190,"Bozzo Louis, 127 Church",Bozzo Louis ,127 Church  ,Church  ,127,Church Street,127.0
191,"+Bradley Henry, 436 Grand",+Bradley Henry ,436 Grand st  ,Grand st  ,436,Grand Street,436.0
192,"Bradley John, 273 West",Bradley John ,273 West st  ,West st  ,273,West Street,273.0
193,"Bradley Joseph, 143 W 53d",Bradley Joseph ,143 W 53rd ,W 53rd ,143,W 53rd Street,143.0
194,"Bradley Mary, 394 Canal",Bradley Mary ,394 Canal  ,Canal  ,394,Canal Street,394.0
195,"Brady Edward, 356 E 89th",Brady Edward ,356 E 89th ,E 89th ,356,E 89th Street,356.0
196,"Bragugila & Carreno, 13 Bway",Bragugila & Carreno ,13 Broadway,Broadway,13,Broadway,13.0
197,"Braibanti Antonio, 2207 1st av",Braibanti Antonio ,2207 1st av ,1st av ,2207,1st Avenue,2207.0
198,"Braibanti Thomas, 53 1/2 Spring",Braibanti Thomas ,53 Spring  ,Spring  ,53,Spring Street,53.0
199,"Brand Anton, 656 2d av",Brand Anton ,656 2nd av ,2nd av ,656,2nd Avenue,656.0
200,"Brandamour John, 15 E Houston",Brandamour John ,15 E Houston ,E Houston ,15,Houston Street E,15.0
201,"Brandstaedter Herman, 175 E Houston",Brandstaedter Herman ,175 E Houston ,E Houston ,175,Houston Street E,175.0
202,"Brandt Frederick F. A, 124 6th av",Brandt Frederick F A ,124 6th av ,6th av ,124,6th Avenue,124.0
203,"+Braun Charles, 441 5th",+Braun Charles ,441 5th  ,5th  ,441,5th Avenue,441.0
204,"Braunberg Delia, 20 Stanton",Braunberg Delia ,20 Stanton  ,Stanton  ,20,Stanton Street,20.0
205,"Braunstein Max, 87 Ridge",Braunstein Max ,87 Ridge  ,Ridge  ,87,Ridge Street,87.0
206,"+Breen James, 2268 2d av",+Breen James ,2268 2nd av ,2nd av ,2268,2nd Avenue,2268.0
207,Breiner Mary A. 503 Gwich,Breiner Mary A ,503 Greenwich,Greenwich,503,Greenwich Street,503.0
208,"Breiser George, 163 3d av & 202 E 16th",Breiser George ,163 3rd av ,3rd av ,163,3rd Avenue,163.0
209,"Breiser George, 163 3d av & 202 E 16th",Breiser George ,202 E 16th ,E 16th ,202,E 16th Street,202.0
210,"Breitenbach John, 201 E 4th",Breitenbach John ,201 E 4th ,E 4th ,201,E 4th Street,201.0
211,Brennan Francis J. 1460 Bway,Brennan Francis J ,1460 Broadway,Broadway,1460,Broadway,1460.0
212,"Breslin Patrick, 202 W 17th",Breslin Patrick ,202 W 17th ,W 17th ,202,W 17th Street,202.0
213,"Breuer Sisters, 298 Av A",Breuer Sisters ,298 Av A ,Av A ,298,Av A,298.0
214,"Briggs Thomas D, 35 E 19th",Briggs Thomas D ,35 E 19th ,E 19th ,35,E 19th Street,35.0
215,"Brindisi Francesco, 58 Thompson",Brindisi Francesco ,58 Thompson  ,Thompson  ,58,Thompson Street,58.0
216,"Brindze Bernard, 8 Wooster",Brindze Bernard ,8 Wooster  ,Wooster  ,8,Wooster Street,8.0
217,"Bristol Henry D, 362 6th av",Bristol Henry D ,362 6th av ,6th av ,362,6th Avenue,362.0
218,"Britting Charles H, 126 Gwich av",Britting Charles H ,126 Greenwich av ,Greenwich av ,126,Greenwich Avenue,126.0
219,"+Brophy & Kernell, 47 E 105th",+Brophy & Kernell ,47 E 105th ,E 105th ,47,E 105th Street,47.0
220,"Brower William H, 1092 2d av",Brower William H ,1092 2nd av ,2nd av ,1092,2nd Avenue,1092.0
221,"Brown Alexander T, 31 Pearl & 20 Bridge",Brown Alexander T ,31 Pearl  ,Pearl  ,31,Pearl Street,31.0
222,"Brown Alexander T, 31 Pearl & 20 Bridge",Brown Alexander T ,20 Bridge  ,Bridge  ,20,Bridge Street,20.0
223,"+Brown Charles, 449 W 54th",+Brown Charles ,449 W 54th ,W 54th ,449,W 54th Street,449.0
224,"Brown Eliza, 25 Gwich av",Brown Eliza ,25 Greenwich av ,Greenwich av ,25,Greenwich Avenue,25.0
225,"Brown Eliza A, 111 W 27th",Brown Eliza A ,111 W 27th ,W 27th ,111,W 27th Street,111.0
226,"Brown George W, 22 Minetta la",Brown George W ,22 Minetta ln ,Minetta ln ,22,Minetta Lane,22.0
227,"Browne George W, 123 Water",Browne George W ,123 Water st  ,Water st  ,123,Water Street,123.0
228,"Browning James W, 733 Columbus av",Browning James W ,733 Columbus av ,Columbus av ,733,Columbus Avenue,733.0
229,"Bruccellaria Luigi, 157 Bleecker",Bruccellaria Luigi ,157 Bleecker  ,Bleecker  ,157,Bleecker Street,157.0
230,"Bruckel Christian, 14 1st av",Bruckel Christian ,14 1st av ,1st av ,14,1st Avenue,14.0
231,"Buckborg & Salzman, 203 Stanton",Buckborg & Salzman ,203 Stanton  ,Stanton  ,203,Stanton Street,203.0
232,"Buckley Henry, 284 Gwich",Buckley Henry ,284 Greenwich,Greenwich,284,Greenwich Street,284.0
233,"Buckley Thomas M, 69 Liberty",Buckley Thomas M ,69 Liberty  ,Liberty  ,69,Liberty Street,69.0
234,"Buechler Louis, 80 E 4th",Buechler Louis ,80 E 4th ,E 4th ,80,E 4th Street,80.0
235,"+Bugue Giacomo, 119 1/2 Macdougal",+Bugue Giacomo ,119 Macdougal  ,Macdougal  ,119,Mac Dougal Street,119.0
236,"Bull James F, 1744 1st av",Bull James F ,1744 1st av ,1st av ,1744,1st Avenue,1744.0
237,"Burger Joseph, 20 Av C",Burger Joseph ,20 Av C ,Av C ,20,C Avenue,20.0
238,"Burkaw Morris, 327 Broome",Burkaw Morris ,327 Broome  ,Broome  ,327,Broome Street,327.0
239,"Burke Henry, 527 6th av",Burke Henry ,527 6th av ,6th av ,527,6th Avenue,527.0
240,"Burke Joseph L, 122 Water",Burke Joseph L ,122 Water st  ,Water st  ,122,Water Street,122.0
241,"Burns Samuel F, 783 6th av & 102 W 45th",Burns Samuel F ,783 6th av ,6th av ,783,6th Avenue,783.0
242,"Burns Samuel F, 783 6th av & 102 W 45th",Burns Samuel F ,102 W 45th ,W 45th ,102,W 45th Street,102.0
243,"Burrell Thomas, 32 Desbrosses",Burrell Thomas ,32 Desbrosses  ,Desbrosses  ,32,Desbrosses Street,32.0
244,"Buschner Bernard, 84 Jeff",Buschner Bernard ,84 Jefferson,Jefferson,84,Jefferson Street,84.0
245,"Busse Reinhard, 101 W 67th",Busse Reinhard ,101 W 67th ,W 67th ,101,W 67th Street,101.0
246,"Byrne Thomas J, 87 E Houston",Byrne Thomas J ,87 E Houston ,E Houston ,87,Houston Street E,87.0
247,"Byrnes Cornelius, 287 Front",Byrnes Cornelius ,287 Front  ,Front  ,287,Front Street,287.0
248,"Cabassud Alfred, 31 Bway",Cabassud Alfred ,31 Broadway,Broadway,31,Broadway,31.0
249,"Cafe Savarin Co, 120 Bway",Cafe Savarin Co ,120 Broadway,Broadway,120,Broadway,120.0
250,"+Cahill John, 317 Av A",+Cahill John ,317 Av A ,Av A ,317,Av A,317.0
251,"Calama Sarando G, 14 Chatham sq",Calama Sarando G ,14 Chatham sq ,Chatham sq ,14,Chatham Street,14.0
252,"Calera & Alvarez, 102 W 24th",Calera & Alvarez ,102 W 24th ,W 24th ,102,W 24th Street,102.0
253,"Callahan John J, 359 W 39th",Callahan John J ,359 W 39th ,W 39th ,359,W 39th Street,359.0
254,"Callahan Michael J, 82 Elm",Callahan Michael J ,82 Elm  ,Elm  ,82,Elm Street,82.0
255,"+Calayerakas Giuseppe, 333 3d av",+Calayerakas Giuseppe ,333 3rd av ,3rd av ,333,3rd Avenue,333.0
256,"Cambria Giuseppe, 118 Mulberry",Cambria Giuseppe ,118 Mulberry  ,Mulberry  ,118,Mulberry Street,118.0
257,"Camera Brothers, 219 Mott",Camera Brothers ,219 Mott  ,Mott  ,219,Mott Street,219.0
258,"Campbell Catharine, 2454 2d av",Campbell Catharine ,2454 2nd av ,2nd av ,2454,2nd Avenue,2454.0
259,"Campiglia Richard, 163 Bleecker",Campiglia Richard ,163 Bleecker  ,Bleecker  ,163,Bleecker Street,163.0
260,"Campus Jacob J, 64 Delancey",Campus Jacob J ,64 Delancey  ,Delancey  ,64,Delancey Street,64.0
261,"Campus Leon, 47 Delancey",Campus Leon ,47 Delancey  ,Delancey  ,47,Delancey Street,47.0
262,"Cantner Frieda, 591 Columbus av",Cantner Frieda ,591 Columbus av ,Columbus av ,591,Columbus Avenue,591.0
263,"Capen & Conklin, 6 E 23d",Capen & Conklin ,6 E 23rd ,E 23rd ,6,E 23rd Street,6.0
264,"Capone Pasquale, 190 Hester",Capone Pasquale ,190 Hester  ,Hester  ,190,Hester Street,190.0
265,"Caramella Sander, 250 Gwich",Caramella Sander ,250 Greenwich,Greenwich,250,Greenwich Street,250.0
266,"Cararo & Barrone, 7 3d av",Cararo & Barrone ,7 3rd av ,3rd av ,7,3rd Avenue,7.0
267,"Carbade John, 487 W Bway",Carbade John ,487 W Broadway,W Broadway,487,Broadway W,487.0
268,"+Carhulas Costas, 176 E 106th",+Carhulas Costas ,176 E 106th ,E 106th ,176,E 106th Street,176.0
269,"Cariboni Salvador, 338 E 115th",Cariboni Salvador ,338 E 115th ,E 115th ,338,E 115th Street,338.0
270,"Carlson Alfred, 511 Canal",Carlson Alfred ,511 Canal  ,Canal  ,511,Canal Street,511.0
271,"Carlson & Laubenheimer, 811 1st av",Carlson & Laubenheimer ,811 1st av ,1st av ,811,1st Avenue,811.0
272,"Carr Michael, 424 West",Carr Michael ,424 West st  ,West st  ,424,West Street,424.0
273,"Carradine & Doty, 45 W 20th",Carradine & Doty ,45 W 20th ,W 20th ,45,W 20th Street,45.0
274,"Carreno & Palos, 192 Pearl",Carreno & Palos ,192 Pearl  ,Pearl  ,192,Pearl Street,192.0
275,"Carroll James J, 86 Gansevoort",Carroll James J ,86 Gansevoort  ,Gansevoort  ,86,Gansevoort Street,86.0
276,"Carroll Michael J, 1606 Bway",Carroll Michael J ,1606 Broadway,Broadway,1606,Broadway,1606.0
277,"Casey & Doody, 136 Broad",Casey & Doody ,136 Broad  ,Broad  ,136,Broad Street,136.0
278,"Cashau Augusta, 445 6th av",Cashau Augusta ,445 6th av ,6th av ,445,6th Avenue,445.0
279,"Cashau William, 2360 3d av",Cashau William ,2360 3rd av ,3rd av ,2360,3rd Avenue,2360.0
280,"Cass F. G., Co, 1164 Bway",Cass F G Co ,1164 Broadway,Broadway,1164,Broadway,1164.0
281,"Cassidy Jane, 167 Lincoln av",Cassidy Jane ,167 Lincoln av ,Lincoln av ,167,Lincoln Avenue,167.0
282,"Cassinelli & Boggio, 415 6th av",Cassinelli & Boggio ,415 6th av ,6th av ,415,6th Avenue,415.0
283,"Casteran Blaise & Brother, 88 University pl",Casteran Blaise & Brother ,88 University pl ,University pl ,88,University Place,88.0
284,"Cavanagh John J, 258 W 23d",Cavanagh John J ,258 W 23rd ,W 23rd ,258,W 23rd Street,258.0
285,Cavezzi Nicola. 33 Oak,Cavezzi Nicola ,33 Oak  ,Oak  ,33,Oak Street,33.0
286,"Cavil Andrew, 7 1/2 Mulberry",Cavil Andrew ,7 Mulberry  ,Mulberry  ,7,Mulberry Street,7.0
287,"Chacon Eduard, 69 W 3d",Chacon Eduard ,69 W 3rd ,W 3rd ,69,W 3rd Street,69.0
288,"Chandler William H. G, 338 E 23d",Chandler William H G ,338 E 23rd ,E 23rd ,338,E 23rd Street,338.0
289,"Chapman Patrick, 559 Gwich",Chapman Patrick ,559 Greenwich,Greenwich,559,Greenwich Street,559.0
290,Charlon Pasquale J. 111 Broad,Charlon Pasquale J ,111 Broad  ,Broad  ,111,Broad Street,111.0
291,"Chatain John, 158 W 36th",Chatain John ,158 W 36th ,W 36th ,158,W 36th Street,158.0
292,"Checketts George, 22 Ann",Checketts George ,22 Ann  ,Ann  ,22,Ann Street,22.0
293,"Chellini Anna, 9 Mulberry",Chellini Anna ,9 Mulberry  ,Mulberry  ,9,Mulberry Street,9.0
294,Chelsea (The) 224 W 23d,Chelsea (The) ,224 W 23rd ,W 23rd ,224,W 23rd Street,224.0
295,"Cherones George, 34 Madison",Cherones George ,34 Madison  ,Madison  ,34,Madison Street,34.0
296,"Child Julius P, 139 Bway",Child Julius P ,139 Broadway,Broadway,139,Broadway,139.0
297,"Childs Ellsworth, 285, 391 & 625 Bway",Childs Ellsworth ,285 Broadway,Broadway,285,Broadway,285.0
298,"Childs Ellsworth, 285, 391 & 625 Bway",Childs Ellsworth ,285 Broadway,Broadway,285,Broadway,285.0
299,"Childs Ellsworth, 285, 391 & 625 Bway",Childs Ellsworth ,625 Broadway,Broadway,625,Broadway,625.0
300,"Childs S. S. (firm of) 45 Cortlandt, 54 Beaver, 130, 815 & 1305 Bway, 90 Fulton. 12 E 23d, 122 W 23d & 221, 6th av",Childs S S (firm of) ,45 Cortlandt  ,Cortlandt  ,45,Cortlandt Street,45.0
301,"Childs S. S. (firm of) 45 Cortlandt, 54 Beaver, 130, 815 & 1305 Bway, 90 Fulton. 12 E 23d, 122 W 23d & 221, 6th av",Childs S S (firm of) ,54 Beaver  ,Beaver  ,54,Beaver Street,54.0
302,"Childs S. S. (firm of) 45 Cortlandt, 54 Beaver, 130, 815 & 1305 Bway, 90 Fulton. 12 E 23d, 122 W 23d & 221, 6th av",Childs S S (firm of) ,130 Broadway,Broadway,130,Broadway,130.0
303,"Childs S. S. (firm of) 45 Cortlandt, 54 Beaver, 130, 815 & 1305 Bway, 90 Fulton. 12 E 23d, 122 W 23d & 221, 6th av",Childs S S (firm of) ,815 Broadway,Broadway,815,Broadway,815.0
304,"Childs S. S. (firm of) 45 Cortlandt, 54 Beaver, 130, 815 & 1305 Bway, 90 Fulton. 12 E 23d, 122 W 23d & 221, 6th av",Childs S S (firm of) ,1305 Broadway,Broadway,1305,Broadway,1305.0
305,"Childs S. S. (firm of) 45 Cortlandt, 54 Beaver, 130, 815 & 1305 Bway, 90 Fulton. 12 E 23d, 122 W 23d & 221, 6th av",Childs S S (firm of) ,90 Fulton  ,Fulton  ,90,Fulton Street,90.0
306,"Childs S. S. (firm of) 45 Cortlandt, 54 Beaver, 130, 815 & 1305 Bway, 90 Fulton. 12 E 23d, 122 W 23d & 221, 6th av",Childs S S (firm of) ,12 E 23rd ,E 23rd ,12,E 23rd Street,12.0
307,"Childs S. S. (firm of) 45 Cortlandt, 54 Beaver, 130, 815 & 1305 Bway, 90 Fulton. 12 E 23d, 122 W 23d & 221, 6th av",Childs S S (firm of) ,122 W 23rd ,W 23rd ,122,W 23rd Street,122.0
308,"Childs S. S. (firm of) 45 Cortlandt, 54 Beaver, 130, 815 & 1305 Bway, 90 Fulton. 12 E 23d, 122 W 23d & 221, 6th av",Childs S S (firm of) ,221 6th av ,6th av ,221,6th Avenue,221.0
309,"+Chotis John, 284 3d av",+Chotis John ,284 3rd av ,3rd av ,284,3rd Avenue,284.0
310,"Christensen Thorvald T. C, 279 West",Christensen Thorvald T C ,279 West st  ,West st  ,279,West Street,279.0
311,"Christgau Henry, 10 Spring",Christgau Henry ,10 Spring  ,Spring  ,10,Spring Street,10.0
312,"Christie George, 509 10th av",Christie George ,509 10th av ,10th av ,509,10th Avenue,509.0
313,"Christian Herald, 55 & 262 Bowery",Christian Herald ,55 Bowery  ,Bowery  ,55,Bowery Street,55.0
314,"Christian Herald, 55 & 262 Bowery",Christian Herald ,262 Bowery  ,Bowery  ,262,Bowery Street,262.0
315,"Christin George, 509 10th av",Christin George ,509 10th av ,10th av ,509,10th Avenue,509.0
316,"Citrenbaum Morris, 137 Delancey",Citrenbaum Morris ,137 Delancey  ,Delancey  ,137,Delancey Street,137.0
317,"Clarisi Elizabeth, 1 W 3d",Clarisi Elizabeth ,1 W 3rd ,W 3rd ,1,W 3rd Street,1.0
318,"Clark Nathan, 22 W 23d & 11 W 22d",Clark Nathan ,22 W 23rd ,W 23rd ,22,W 23rd Street,22.0
319,"Clark Nathan, 22 W 23d & 11 W 22d",Clark Nathan ,11 W 22nd ,W 22nd ,11,W 22nd Street,11.0
320,Clearwater Mary J. 474 Canal,Clearwater Mary J ,474 Canal  ,Canal  ,474,Canal Street,474.0
321,"Clifford David, 90 Cath",Clifford David ,90 Catherine,Catherine,90,Catherine Street,90.0
322,"Close Stewart B, 100 Duane",Close Stewart B ,100 Duane  ,Duane  ,100,Duane Street,100.0
323,"Cohen Aaron, 49 E Houston",Cohen Aaron ,49 E Houston ,E Houston ,49,Houston Street E,49.0
324,"Cohen Abraham, 49 Bayard",Cohen Abraham ,49 Bayard  ,Bayard  ,49,Bayard Street,49.0
325,"Cohen Abraham, 235 Broome",Cohen Abraham ,235 Broome  ,Broome  ,235,Broome Street,235.0
326,"Cohen Benjamin, 176 Chrystie",Cohen Benjamin ,176 Chrystie  ,Chrystie  ,176,Chrystie Street,176.0
327,"Cohen Bernhard, 2 W 3d",Cohen Bernhard ,2 W 3rd ,W 3rd ,2,W 3rd Street,2.0
328,"Cohen Isidor, 122 Bleecker",Cohen Isidor ,122 Bleecker  ,Bleecker  ,122,Bleecker Street,122.0
329,"Cohen Israel, 196 Wooster",Cohen Israel ,196 Wooster  ,Wooster  ,196,Wooster Street,196.0
330,"+Cohn Alexander, 246 E 59th",+Cohn Alexander ,246 E 59th ,E 59th ,246,E 59th Street,246.0
331,"Collins Brothers, 145 8th av",Collins Brothers ,145 8th av ,8th av ,145,8th Avenue,145.0
332,"Colorbrace Nicholas, 201 W 40th",Colorbrace Nicholas ,201 W 40th ,W 40th ,201,W 40th Street,201.0
333,"Conaty James, 53 Cedar & 26 Liberty",Conaty James ,53 Cedar  ,Cedar  ,53,Cedar Street,53.0
334,"Conaty James, 53 Cedar & 26 Liberty",Conaty James ,26 Liberty  ,Liberty  ,26,Liberty Street,26.0
335,"Congdon Stewart, 883 7th av",Congdon Stewart ,883 7th av ,7th av ,883,7th Avenue,883.0
336,"Conklin Alvin S, 67 Stone",Conklin Alvin S ,67 Stone  ,Stone  ,67,Stone Street,67.0
337,"Conkllng William, 756 7th av",Conkllng William ,756 7th av ,7th av ,756,7th Avenue,756.0
338,"Conlon John A, 242 Centre",Conlon John A ,242 Centre  ,Centre  ,242,Centre Street,242.0
339,"+Connolly Thomas, 200 W 17th",+Connolly Thomas ,200 W 17th ,W 17th ,200,W 17th Street,200.0
340,"Cooney James, 76 10th av",Cooney James ,76 10th av ,10th av ,76,10th Avenue,76.0
341,"Cooper John J, 389 E 10th",Cooper John J ,389 E 10th ,E 10th ,389,E 10th Street,389.0
342,"Corbett & McGillen, 114 Pearl",Corbett & McGillen ,114 Pearl  ,Pearl  ,114,Pearl Street,114.0
343,"Cormier Joseph E, 324 West",Cormier Joseph E ,324 West st  ,West st  ,324,West Street,324.0
344,"Cornell Charles Y, 2333 3d av",Cornell Charles Y ,2333 3rd av ,3rd av ,2333,3rd Avenue,2333.0
345,"Corpeul Max, 117 Bleecker",Corpeul Max ,117 Bleecker  ,Bleecker  ,117,Bleecker Street,117.0
346,"Corr Mary, 445 E 52d",Corr Mary ,445 E 52nd ,E 52nd ,445,E 52nd Street,445.0
347,"Costink Brothers, 209 E Houston",Costink Brothers ,209 E Houston ,E Houston ,209,Houston Street E,209.0
348,"Cotton Frank, 48 E 4th",Cotton Frank ,48 E 4th ,E 4th ,48,E 4th Street,48.0
349,"Courser Daniel C, 119 5th av & 1 E 19th",Courser Daniel C ,119 5th av ,5th av ,119,5th Avenue,119.0
350,"Courser Daniel C, 119 5th av & 1 E 19th",Courser Daniel C ,1 E 19th ,E 19th ,1,E 19th Street,1.0
351,"Cowan Hannah, 522 1st av",Cowan Hannah ,522 1st av ,1st av ,522,1st Avenue,522.0
352,"Cowan Joseph J, 150 Nassau",Cowan Joseph J ,150 Nassau,Nassau,150,Nassau Street,150.0
353,"Cox Charles, 158 1/2 Bowery",Cox Charles ,158 Bowery  ,Bowery  ,158,Bowery Street,158.0
354,"Coy James J, 804 10th av",Coy James J ,804 10th av ,10th av ,804,10th Avenue,804.0
355,"Cramer Ernest A, 311 W Bway",Cramer Ernest A ,311 W Broadway,W Broadway,311,Broadway W,311.0
356,"Cranides Charles, 133, 7th av",Cranides Charles ,133 7th av ,7th av ,133,7th Avenue,133.0
357,"Crawford William J, 1171 Madison av",Crawford William J ,1171 Madison av ,Madison av ,1171,Madison Avenue,1171.0
358,"Creighton James, 1847 1st av",Creighton James ,1847 1st av ,1st av ,1847,1st Avenue,1847.0
359,"+Crickellon Anthony, 135 Park row",+Crickellon Anthony ,135 Park row ,Park row ,135,Park Row,135.0
360,"Culhane & Thompson, 490 6th av",Culhane & Thompson ,490 6th av ,6th av ,490,6th Avenue,490.0
361,"+Cullen Thomas P, 1365 Amsterdam av",+Cullen Thomas P ,1365 Amsterdam av ,Amsterdam av ,1365,Amsterdam Avenue,1365.0
362,"Cullis Emma A, 26 Beaver",Cullis Emma A ,26 Beaver  ,Beaver  ,26,Beaver Street,26.0
363,Cullum Francis J. 150 E 125th,Cullum Francis J ,150 E 125th ,E 125th ,150,E 125th Street,150.0
364,"Cunneen Richard P, 317 Bowery",Cunneen Richard P ,317 Bowery  ,Bowery  ,317,Bowery Street,317.0
365,"Cuno Emil, 226 William",Cuno Emil ,226 William  ,William  ,226,William Street,226.0
366,"Cupi Eduardo, 17 E 22d",Cupi Eduardo ,17 E 22nd ,E 22nd ,17,E 22nd Street,17.0
367,"Curren Joseph A, 2005 1st av",Curren Joseph A ,2005 1st av ,1st av ,2005,1st Avenue,2005.0
368,"Currier Edwin A, 144 Fulton",Currier Edwin A ,144 Fulton  ,Fulton  ,144,Fulton Street,144.0
369,"Cusick J. & T, 37 1/2 Desbrosses",Cusick J & T ,37 Desbrosses  ,Desbrosses  ,37,Desbrosses Street,37.0
370,"Custer Edward, 212 Bway",Custer Edward ,212 Broadway,Broadway,212,Broadway,212.0
371,"Dabritz & Zimmermann, 699 Bway",Dabritz & Zimmermann ,699 Broadway,Broadway,699,Broadway,699.0
372,"Dale George F, 95 8th av",Dale George F ,95 8th av ,8th av ,95,8th Avenue,95.0
373,"Dallera & Gillio Tos, 59 W 24th",Dallera & Gillio Tos ,59 W 24th ,W 24th ,59,W 24th Street,59.0
374,"Dalmato Vincenzo, 122 Mott",Dalmato Vincenzo ,122 Mott  ,Mott  ,122,Mott Street,122.0
375,"Damaszek Louis, 55 Walker",Damaszek Louis ,55 Walker  ,Walker  ,55,Walker Street,55.0
376,"+Danahar Hugh, 460 W 14th",+Danahar Hugh ,460 W 14th ,W 14th ,460,W 14th Street,460.0
377,"Daniel John F, 318 10th av",Daniel John F ,318 10th av ,10th av ,318,10th Avenue,318.0
378,"Danker Charles H, 503 W 23d",Danker Charles H ,503 W 23rd ,W 23rd ,503,W 23rd Street,503.0
379,"Dannbacher, Stimis & Co, 191 & 192 William",Dannbacher Stimis & Co ,191 William  ,William  ,191,William Street,191.0
380,"Dannbacher, Stimis & Co, 191 & 192 William",Dannbacher Stimis & Co ,192 William  ,William  ,192,William Street,192.0
381,"+Dannhauser Paul, 2781 3d av",+Dannhauser Paul ,2781 3rd av ,3rd av ,2781,3rd Avenue,2781.0
382,"Dauger August, 105 W 25th",Dauger August ,105 W 25th ,W 25th ,105,W 25th Street,105.0
383,"Davidson & Silverman, 103 Hester",Davidson & Silverman ,103 Hester  ,Hester  ,103,Hester Street,103.0
384,"Davidson’s John S., Sons, 98 Broad & 18 Stone",Davidson’s John S Sons ,98 Broad  ,Broad  ,98,Broad Street,98.0
385,"Davidson’s John S., Sons, 98 Broad & 18 Stone",Davidson’s John S Sons ,18 Stone  ,Stone  ,18,Stone Street,18.0
386,"Davis Robert, 671 6th av",Davis Robert ,671 6th av ,6th av ,671,6th Avenue,671.0
387,"Davis William, 44 Maiden la",Davis William ,44 Maiden ln ,Maiden ln ,44,Maiden Lane,44.0
388,Davis William L. 135 Liberty,Davis William L ,135 Liberty  ,Liberty  ,135,Liberty Street,135.0
389,"DeBauwers Edward, 38 Bway",DeBauwers Edward ,38 Broadway,Broadway,38,Broadway,38.0
390,DeBoer Christian A. 21 Little W 12th,DeBoer Christian A ,21 Little W 12th,Little W 12th,21,W 12th Street,21.0
391,"Degnan John, 126 West & 483 3d av",Degnan John ,126 West st  ,West st  ,126,West Street,126.0
392,"Degnan John, 126 West & 483 3d av",Degnan John ,483 3rd av ,3rd av ,483,3rd Avenue,483.0
393,"Degregori Marco, 134 Sullivan",Degregori Marco ,134 Sullivan  ,Sullivan  ,134,Sullivan Street,134.0
394,"Degrushe Jessie, 25 Old sl",Degrushe Jessie ,25 Old slip ,Old slip ,25,Old Slip,25.0
395,Deichsler Emil C. 25 Bloomfield,Deichsler Emil C ,25 Bloomfield  ,Bloomfield  ,25,Bloomfield Street,25.0
396,"Deixler Max, 96 Allen",Deixler Max ,96 Allen st  ,Allen st  ,96,Allen Street,96.0
397,"Delanca Gerade, 64 Madison",Delanca Gerade ,64 Madison  ,Madison  ,64,Madison Street,64.0
398,"Delaurier Napoleon B, 29 Duane",Delaurier Napoleon B ,29 Duane  ,Duane  ,29,Duane Street,29.0
399,"Delljo John, 604 7th av",Delljo John ,604 7th av ,7th av ,604,7th Avenue,604.0
400,"Delmonico’s, 2 S William & 212 & 531 5th av",Delmonico’s ,2 S William ,S William ,2,William Street S,2.0
401,"Delmonico’s, 2 S William & 212 & 531 5th av",Delmonico’s ,212 5th av ,5th av ,212,5th Avenue,212.0
402,"Delmonico’s, 2 S William & 212 & 531 5th av",Delmonico’s ,531 5th av ,5th av ,531,5th Avenue,531.0
403,De Long Louis H. 163 W 34th,De Long Louis H ,163 W 34th ,W 34th ,163,W 34th Street,163.0
404,Delora John M. 430 7th av,Delora John M ,430 7th av ,7th av ,430,7th Avenue,430.0
405,Delvilani & Robart. 51 W 24th,Delvilani & Robart ,51 W 24th ,W 24th ,51,W 24th Street,51.0
406,"DeMaria Enrico, 148 Mulberry",DeMaria Enrico ,148 Mulberry  ,Mulberry  ,148,Mulberry Street,148.0
407,"Demetre George, 82 Oliver",Demetre George ,82 Oliver  ,Oliver  ,82,Oliver Street,82.0
408,Demorest William H. 391 1/2 West,Demorest William H ,391 West st  ,West st  ,391,West Street,391.0
409,"Demos Emanuel, 1226, 3d av",Demos Emanuel ,1226 3rd av ,3rd av ,1226,3rd Avenue,1226.0
410,"DENNETT SURPASSING COFFEE CO, main office 25 Park row, 4 & 6 Beekman, 140 E 14th, 40 Broad, 21 & 23 Ann, 109, 143 & 145 Nassau, N. Y.; 12 Myrtle av, 195, 353, 355 Fulton, 30 Liberty, B'klyn; 13 S 9th, 529 Chestnut, Phila.; 306 E Baltimore & 312 W Baltimore, Balto.; 241 Wash’n, Boston. S. S. Swaim, Gen’l Manager & Treasurer.",DENNETT SURPASSING COFFEE CO main office ,25 Park row ,Park row ,25,Park Row,25.0
411,"DENNETT SURPASSING COFFEE CO, main office 25 Park row, 4 & 6 Beekman, 140 E 14th, 40 Broad, 21 & 23 Ann, 109, 143 & 145 Nassau, N. Y.; 12 Myrtle av, 195, 353, 355 Fulton, 30 Liberty, B'klyn; 13 S 9th, 529 Chestnut, Phila.; 306 E Baltimore & 312 W Baltimore, Balto.; 241 Wash’n, Boston. S. S. Swaim, Gen’l Manager & Treasurer.",DENNETT SURPASSING COFFEE CO main office ,4 Beekman  ,Beekman  ,4,Beekman Street,4.0
412,"DENNETT SURPASSING COFFEE CO, main office 25 Park row, 4 & 6 Beekman, 140 E 14th, 40 Broad, 21 & 23 Ann, 109, 143 & 145 Nassau, N. Y.; 12 Myrtle av, 195, 353, 355 Fulton, 30 Liberty, B'klyn; 13 S 9th, 529 Chestnut, Phila.; 306 E Baltimore & 312 W Baltimore, Balto.; 241 Wash’n, Boston. S. S. Swaim, Gen’l Manager & Treasurer.",DENNETT SURPASSING COFFEE CO main office ,6 Beekman  ,Beekman  ,6,Beekman Street,6.0
413,"DENNETT SURPASSING COFFEE CO, main office 25 Park row, 4 & 6 Beekman, 140 E 14th, 40 Broad, 21 & 23 Ann, 109, 143 & 145 Nassau, N. Y.; 12 Myrtle av, 195, 353, 355 Fulton, 30 Liberty, B'klyn; 13 S 9th, 529 Chestnut, Phila.; 306 E Baltimore & 312 W Baltimore, Balto.; 241 Wash’n, Boston. S. S. Swaim, Gen’l Manager & Treasurer.",DENNETT SURPASSING COFFEE CO main office ,140 E 14th ,E 14th ,140,E 14th Street,140.0
414,"DENNETT SURPASSING COFFEE CO, main office 25 Park row, 4 & 6 Beekman, 140 E 14th, 40 Broad, 21 & 23 Ann, 109, 143 & 145 Nassau, N. Y.; 12 Myrtle av, 195, 353, 355 Fulton, 30 Liberty, B'klyn; 13 S 9th, 529 Chestnut, Phila.; 306 E Baltimore & 312 W Baltimore, Balto.; 241 Wash’n, Boston. S. S. Swaim, Gen’l Manager & Treasurer.",DENNETT SURPASSING COFFEE CO main office ,40 Broad  ,Broad  ,40,Broad Street,40.0
415,"DENNETT SURPASSING COFFEE CO, main office 25 Park row, 4 & 6 Beekman, 140 E 14th, 40 Broad, 21 & 23 Ann, 109, 143 & 145 Nassau, N. Y.; 12 Myrtle av, 195, 353, 355 Fulton, 30 Liberty, B'klyn; 13 S 9th, 529 Chestnut, Phila.; 306 E Baltimore & 312 W Baltimore, Balto.; 241 Wash’n, Boston. S. S. Swaim, Gen’l Manager & Treasurer.",DENNETT SURPASSING COFFEE CO main office ,21 Ann  ,Ann  ,21,Ann Street,21.0
416,"DENNETT SURPASSING COFFEE CO, main office 25 Park row, 4 & 6 Beekman, 140 E 14th, 40 Broad, 21 & 23 Ann, 109, 143 & 145 Nassau, N. Y.; 12 Myrtle av, 195, 353, 355 Fulton, 30 Liberty, B'klyn; 13 S 9th, 529 Chestnut, Phila.; 306 E Baltimore & 312 W Baltimore, Balto.; 241 Wash’n, Boston. S. S. Swaim, Gen’l Manager & Treasurer.",DENNETT SURPASSING COFFEE CO main office ,23 Ann  ,Ann  ,23,Ann Street,23.0
417,"DENNETT SURPASSING COFFEE CO, main office 25 Park row, 4 & 6 Beekman, 140 E 14th, 40 Broad, 21 & 23 Ann, 109, 143 & 145 Nassau, N. Y.; 12 Myrtle av, 195, 353, 355 Fulton, 30 Liberty, B'klyn; 13 S 9th, 529 Chestnut, Phila.; 306 E Baltimore & 312 W Baltimore, Balto.; 241 Wash’n, Boston. S. S. Swaim, Gen’l Manager & Treasurer.",DENNETT SURPASSING COFFEE CO main office ,109 Nassau,Nassau,109,Nassau Street,109.0
418,"DENNETT SURPASSING COFFEE CO, main office 25 Park row, 4 & 6 Beekman, 140 E 14th, 40 Broad, 21 & 23 Ann, 109, 143 & 145 Nassau, N. Y.; 12 Myrtle av, 195, 353, 355 Fulton, 30 Liberty, B'klyn; 13 S 9th, 529 Chestnut, Phila.; 306 E Baltimore & 312 W Baltimore, Balto.; 241 Wash’n, Boston. S. S. Swaim, Gen’l Manager & Treasurer.",DENNETT SURPASSING COFFEE CO main office ,143 Nassau,Nassau,143,Nassau Street,143.0
419,"DENNETT SURPASSING COFFEE CO, main office 25 Park row, 4 & 6 Beekman, 140 E 14th, 40 Broad, 21 & 23 Ann, 109, 143 & 145 Nassau, N. Y.; 12 Myrtle av, 195, 353, 355 Fulton, 30 Liberty, B'klyn; 13 S 9th, 529 Chestnut, Phila.; 306 E Baltimore & 312 W Baltimore, Balto.; 241 Wash’n, Boston. S. S. Swaim, Gen’l Manager & Treasurer.",DENNETT SURPASSING COFFEE CO main office ,145 Nassau,Nassau,145,Nassau Street,145.0
420,"De Pasquale Magdalena, 112 Mulberry",De Pasquale Magdalena ,112 Mulberry  ,Mulberry  ,112,Mulberry Street,112.0
421,"Deutermann & Keil, 147 Grand",Deutermann & Keil ,147 Grand st  ,Grand st  ,147,Grand Street,147.0
422,"Devall Benjamin, 252 W 14th",Devall Benjamin ,252 W 14th ,W 14th ,252,W 14th Street,252.0
423,"Devall Molly, 220 9th av",Devall Molly ,220 9th av ,9th av ,220,9th Avenue,220.0
424,"De Vall William M. 1005, 3d av",De Vall William M ,1005 3rd av ,3rd av ,1005,3rd Avenue,1005.0
425,"Devenport James, 107 Broad",Devenport James ,107 Broad  ,Broad  ,107,Broad Street,107.0
426,"Devereux & O'Hara, 634 Columbus av",Devereux & O'Hara ,634 Columbus av ,Columbus av ,634,Columbus Avenue,634.0
427,Devoe N. 54 E 10th,Devoe N ,54 E 10th ,E 10th ,54,E 10th Street,54.0
428,"+Dew John, 151 Stanton",+Dew John ,151 Stanton  ,Stanton  ,151,Stanton Street,151.0
429,"Dewey & Diaz, 93 3d av",Dewey & Diaz ,93 3rd av ,3rd av ,93,3rd Avenue,93.0
430,"Dibs & Tahhan, 81 Washn",Dibs & Tahhan ,81 Washington,Washington,81,Washington Street,81.0
431,"Dick Jacob, 69 Suffolk",Dick Jacob ,69 Suffolk  ,Suffolk  ,69,Suffolk Street,69.0
432,"Dickerson Samuel, 153 W 30th",Dickerson Samuel ,153 W 30th ,W 30th ,153,W 30th Street,153.0
433,"Diercksen William, 319 West",Diercksen William ,319 West st  ,West st  ,319,West Street,319.0
434,"Dietrich Ferdinand, 47 E 19th",Dietrich Ferdinand ,47 E 19th ,E 19th ,47,E 19th Street,47.0
435,"+Dietrich Gustav, 261 Av B",+Dietrich Gustav ,261 Av B ,Av B ,261,B Avenue,261.0
436,"Di Gristofolo Angelo, 3 State",Di Gristofolo Angelo ,3 State  ,State  ,3,State Street,3.0
437,"Dillon & Butler, 925 3d av",Dillon & Butler ,925 3rd av ,3rd av ,925,3rd Avenue,925.0
438,"Dintenfass Max, 101 Clinton",Dintenfass Max ,101 Clinton  ,Clinton  ,101,Clinton Street,101.0
439,"Ditorino Contine, 240 Mulberry",Ditorino Contine ,240 Mulberry  ,Mulberry  ,240,Mulberry Street,240.0
440,"Dobbins George H. 317 Bowery, 466, 685 & 1485, 3d av, 528 & 534, 6th av, 348, 632 & 837, 8th av",Dobbins George H ,317 Bowery  ,Bowery  ,317,Bowery Street,317.0
441,"Dobbins George H. 317 Bowery, 466, 685 & 1485, 3d av, 528 & 534, 6th av, 348, 632 & 837, 8th av",Dobbins George H ,466 3rd av ,3rd av ,466,3rd Avenue,466.0
442,"Dobbins George H. 317 Bowery, 466, 685 & 1485, 3d av, 528 & 534, 6th av, 348, 632 & 837, 8th av",Dobbins George H ,685 3rd av ,3rd av ,685,3rd Avenue,685.0
443,"Dobbins George H. 317 Bowery, 466, 685 & 1485, 3d av, 528 & 534, 6th av, 348, 632 & 837, 8th av",Dobbins George H ,1485 3rd av ,3rd av ,1485,3rd Avenue,1485.0
444,"Dobbins George H. 317 Bowery, 466, 685 & 1485, 3d av, 528 & 534, 6th av, 348, 632 & 837, 8th av",Dobbins George H ,528 6th av ,6th av ,528,6th Avenue,528.0
445,"Dobbins George H. 317 Bowery, 466, 685 & 1485, 3d av, 528 & 534, 6th av, 348, 632 & 837, 8th av",Dobbins George H ,534 6th av ,6th av ,534,6th Avenue,534.0
446,"Dobbins George H. 317 Bowery, 466, 685 & 1485, 3d av, 528 & 534, 6th av, 348, 632 & 837, 8th av",Dobbins George H ,348 8th av ,8th av ,348,8th Avenue,348.0
447,"Dobbins George H. 317 Bowery, 466, 685 & 1485, 3d av, 528 & 534, 6th av, 348, 632 & 837, 8th av",Dobbins George H ,632 8th av ,8th av ,632,8th Avenue,632.0
448,"Dobbins George H. 317 Bowery, 466, 685 & 1485, 3d av, 528 & 534, 6th av, 348, 632 & 837, 8th av",Dobbins George H ,837 8th av ,8th av ,837,8th Avenue,837.0
449,"Dochtermann Paul, 104 Spring",Dochtermann Paul ,104 Spring  ,Spring  ,104,Spring Street,104.0
450,"Doehle Gerhard, 48 Nassau",Doehle Gerhard ,48 Nassau,Nassau,48,Nassau Street,48.0
451,"Dolan P. & Nephew, 33 Park row",Dolan P & Nephew ,33 Park row ,Park row ,33,Park Row,33.0
452,"Domergue Louis, 159 Gwich",Domergue Louis ,159 Greenwich,Greenwich,159,Greenwich Street,159.0
453,"Domosky Joseph, 138 Eldridge",Domosky Joseph ,138 Eldridge  ,Eldridge  ,138,Eldridge Street,138.0
454,"Dondero John, 149 Bowery",Dondero John ,149 Bowery  ,Bowery  ,149,Bowery Street,149.0
455,"+Donnelly John, 400 W 13th",+Donnelly John ,400 W 13th ,W 13th ,400,W 13th Street,400.0
456,"Donner Adolph, 43 Canal",Donner Adolph ,43 Canal  ,Canal  ,43,Canal Street,43.0
457,"Dooling William, 38 Front",Dooling William ,38 Front  ,Front  ,38,Front Street,38.0
458,"+Doran Charles, 635, 1st av",+Doran Charles ,635 1st av ,1st av ,635,1st Avenue,635.0
459,+Dorlon A. & P. 187 Fulton mkt,+Dorlon A & P ,187 Fulton mkt ,Fulton mkt ,187,Fulton Street,187.0
460,"Doscher John, 27 Barclay",Doscher John ,27 Barclay  ,Barclay  ,27,Barclay Street,27.0
461,"Doscher & Mindermann, 255 Washn & 16 W 4th",Doscher & Mindermann ,255 Washington,Washington,255,Washington Street,255.0
462,"Doscher & Mindermann, 255 Washn & 16 W 4th",Doscher & Mindermann ,16 W 4th ,W 4th ,16,W 4th Street,16.0
463,Dowd John J. 321 & 437 Bway,Dowd John J ,321 Broadway,Broadway,321,Broadway,321.0
464,Dowd John J. 321 & 437 Bway,Dowd John J ,437 Broadway,Broadway,437,Broadway,437.0
465,"Drake & McGrane, 61 E 59th",Drake & McGrane ,61 E 59th ,E 59th ,61,E 59th Street,61.0
466,"+Drenan Joseph, 1553 Lex av",+Drenan Joseph ,1553 Lexington av ,Lexington av ,1553,Lexington Avenue,1553.0
467,"Dresel & Blau, 85 2d av",Dresel & Blau ,85 2nd av ,2nd av ,85,2nd Avenue,85.0
468,Drew Henry H. 351 W 37th,Drew Henry H ,351 W 37th ,W 37th ,351,W 37th Street,351.0
469,"Dreyer August, 125 Pearl & 78 Beaver",Dreyer August ,125 Pearl  ,Pearl  ,125,Pearl Street,125.0
470,"Dreyer August, 125 Pearl & 78 Beaver",Dreyer August ,78 Beaver  ,Beaver  ,78,Beaver Street,78.0
471,"Dreyer William, 356 W 146th",Dreyer William ,356 W 146th ,W 146th ,356,W 146th Street,356.0
472,"Drisbach Oscar, 526 W 27th",Drisbach Oscar ,526 W 27th ,W 27th ,526,W 27th Street,526.0
473,"Droege August, 37 Clinton pl",Droege August ,37 Clinton pl ,Clinton pl ,37,Clinton Place,37.0
474,"Droppman Charles, 4 James sl",Droppman Charles ,4 James slip ,James slip ,4,James Slip,4.0
475,"+Drottleff, Martin, 388 1st av",+Drottleff Martin ,388 1st av ,1st av ,388,1st Avenue,388.0
476,"Dublin Julius, 34 Canal",Dublin Julius ,34 Canal  ,Canal  ,34,Canal Street,34.0
477,"Dubuis Oscar, 203 W 103d",Dubuis Oscar ,203 W 103rd ,W 103rd ,203,W 103rd Street,203.0
478,Duffy Anthony J. ft W 23d,Duffy Anthony J ft W ,23d   ,  ,23d,,23.0
479,"+Duffy James, 334 Delancey",+Duffy James ,334 Delancey  ,Delancey  ,334,Delancey Street,334.0
480,"Dukoff Harris, 5 Essex",Dukoff Harris ,5 Essex  ,Essex  ,5,Essex Street,5.0
481,"Dull Daniel, 176, 6th av",Dull Daniel ,176 6th av ,6th av ,176,6th Avenue,176.0
482,"Dunklin William B, 564 7th av",Dunklin William B ,564 7th av ,7th av ,564,7th Avenue,564.0
483,"Dunn Patrick, 86 South",Dunn Patrick ,86 South  ,South  ,86,South Street,86.0
484,"Dunne & Kirkland, 141 Fulton",Dunne & Kirkland ,141 Fulton  ,Fulton  ,141,Fulton Street,141.0
485,"Dunning William, 2 Chambers",Dunning William ,2 Chambers  ,Chambers  ,2,Chambers Street,2.0
486,"Dunston & Kennelly, 761 6th av & 306 Columbus av",Dunston & Kennelly ,761 6th av ,6th av ,761,6th Avenue,761.0
487,"Dunston & Kennelly, 761 6th av & 306 Columbus av",Dunston & Kennelly ,306 Columbus av ,Columbus av ,306,Columbus Avenue,306.0
488,"Dun worth Thomas, 172 W Bway",Dun worth Thomas ,172 W Broadway,W Broadway,172,Broadway W,172.0
489,"Dupuy John. 91, 6th av",Dupuy John ,91 6th av ,6th av ,91,6th Avenue,91.0
490,"Durain August, 348 Washn",Durain August ,348 Washington,Washington,348,Washington Street,348.0
491,"Dushin Frederick, 607 Hudson",Dushin Frederick ,607 Hudson  ,Hudson  ,607,Hudson Street,607.0
492,"Dwyer Brothers, 131 E 24th",Dwyer Brothers ,131 E 24th ,E 24th ,131,E 24th Street,131.0
493,"Earl A Coffey, 46 New",Earl A Coffey ,46 New  ,New  ,46,New Street,46.0
494,"Eastman & Rigby, 738, 6th av",Eastman & Rigby ,738 6th av ,6th av ,738,6th Avenue,738.0
495,Ebeling Ernst D. 170 E 91st,Ebeling Ernst D ,170 E 91st ,E 91st ,170,E 91st Street,170.0
496,"Ebenhack Brothers, 206 Washn",Ebenhack Brothers ,206 Washington,Washington,206,Washington Street,206.0
497,"Eberhardt Oscar, 802 Washn",Eberhardt Oscar ,802 Washington,Washington,802,Washington Street,802.0
498,"Eberson Isaac, 13 Clinton",Eberson Isaac ,13 Clinton  ,Clinton  ,13,Clinton Street,13.0
499,"Echardt Andre, 134 W 26th",Echardt Andre ,134 W 26th ,W 26th ,134,W 26th Street,134.0
500,"Eckstein Victor, 62 E 4th",Eckstein Victor ,62 E 4th ,E 4th ,62,E 4th Street,62.0
501,"Edelstein Samuel, 50 E 9th",Edelstein Samuel ,50 E 9th ,E 9th ,50,E 9th Street,50.0
502,"Edwards E. 53, 8th av",Edwards E ,53 8th av ,8th av ,53,8th Avenue,53.0
503,"Egan Alexander, 397, 1st av",Egan Alexander ,397 1st av ,1st av ,397,1st Avenue,397.0
504,"Egger Catharine, 107 Park pl",Egger Catharine ,107 Park pl ,Park pl ,107,Park Place,107.0
505,"Egstein Charles, 46, 1st av",Egstein Charles ,46 1st av ,1st av ,46,1st Avenue,46.0
506,"Ehrenrlch Morris, 111 W 21st",Ehrenrlch Morris ,111 W 21st ,W 21st ,111,W 21st Street,111.0
507,"Ehrler Dominick, 6 Chatham sq",Ehrler Dominick ,6 Chatham sq ,Chatham sq ,6,Chatham Street,6.0
508,Eichhorn Gaza. 36 Clinton pl,Eichhorn Gaza ,36 Clinton pl ,Clinton pl ,36,Clinton Place,36.0
509,"Eisele Theodore, 1093, 3d av",Eisele Theodore ,1093 3rd av ,3rd av ,1093,3rd Avenue,1093.0
510,Eisengart George J. 373 Bowery,Eisengart George J ,373 Bowery  ,Bowery  ,373,Bowery Street,373.0
511,"Elsengart George J. Jr, 492, 8th av",Elsengart George J Jr ,492 8th av ,8th av ,492,8th Avenue,492.0
512,Eisner Max. 153 E Bway,Eisner Max ,153 E Broadway,E Broadway,153,Broadway E,153.0
513,"Eiten Joseph, 13 Pike",Eiten Joseph ,13 Pike st  ,Pike st  ,13,Pike Street,13.0
514,"Elbert Herman, 1637 Av A",Elbert Herman ,1637 Av A ,Av A ,1637,Av A,1637.0
515,"Elbow Max, 361 West",Elbow Max ,361 West st  ,West st  ,361,West Street,361.0
516,"Eller Rose, 442 Amsterdam av",Eller Rose ,442 Amsterdam av ,Amsterdam av ,442,Amsterdam Avenue,442.0
517,"Elmiger Elizabeth, 53 Rose",Elmiger Elizabeth ,53 Rose  ,Rose  ,53,Rose Street,53.0
518,"Elters Abraham, 214 Mercer",Elters Abraham ,214 Mercer  ,Mercer  ,214,Mercer Street,214.0
519,"Emde Henry, 229 Grand",Emde Henry ,229 Grand st  ,Grand st  ,229,Grand Street,229.0
520,"Emmerich John, 56 W Houston",Emmerich John ,56 W Houston ,W Houston ,56,Houston Street W,56.0
521,"Emmerich Otto, 73 Chambers",Emmerich Otto ,73 Chambers  ,Chambers  ,73,Chambers Street,73.0
522,Engel Adam. 71 W 35th,Engel Adam ,71 W 35th ,W 35th ,71,W 35th Street,71.0
523,"Engel Samuel, 52 W Houston",Engel Samuel ,52 W Houston ,W Houston ,52,Houston Street W,52.0
524,"Engelman Emil, 486 Columbus av",Engelman Emil ,486 Columbus av ,Columbus av ,486,Columbus Avenue,486.0
525,Engels William I. 282 Av B,Engels William I ,282 Av B ,Av B ,282,B Avenue,282.0
526,"Engelson Harry, 3 Pelham",Engelson Harry ,3 Pelham  ,Pelham  ,3,Pelham Street,3.0
527,Ennis John W. 142 E 14th,Ennis John W ,142 E 14th ,E 14th ,142,E 14th Street,142.0
528,"Ennis William, 3 Cornelia",Ennis William ,3 Cornelia  ,Cornelia  ,3,Cornelia Street,3.0
529,"Eppenstein Ida, 55 New",Eppenstein Ida ,55 New  ,New  ,55,New Street,55.0
530,"Epstein Moritz, 92 Prince",Epstein Moritz ,92 Prince  ,Prince  ,92,Prince Street,92.0
531,"Erckmann Gustave, 631, 2d av",Erckmann Gustave ,631 2nd av ,2nd av ,631,2nd Avenue,631.0
532,"Erdmann Frank Garrett, 430 Pearl",Erdmann Frank Garrett ,430 Pearl  ,Pearl  ,430,Pearl Street,430.0
533,"Erdmann Lina, 318 Pearl",Erdmann Lina ,318 Pearl  ,Pearl  ,318,Pearl Street,318.0
534,Ericsson Alfred E. 42 E 43d,Ericsson Alfred E ,42 E 43rd ,E 43rd ,42,E 43rd Street,42.0
535,"Eschenbach Henry E. 850, 8th av",Eschenbach Henry E ,850 8th av ,8th av ,850,8th Avenue,850.0
536,"Escolle Henry, 57 W 10th",Escolle Henry ,57 W 10th ,W 10th ,57,W 10th Street,57.0
537,"Escudero Juan, 137, 3d av",Escudero Juan ,137 3rd av ,3rd av ,137,3rd Avenue,137.0
538,"Esposito Antonio, 2217, 1st av",Esposito Antonio ,2217 1st av ,1st av ,2217,1st Avenue,2217.0
539,"Eustice Thomas, 123 Water",Eustice Thomas ,123 Water st  ,Water st  ,123,Water Street,123.0
540,Evans Armida M. 1484 Bway,Evans Armida M ,1484 Broadway,Broadway,1484,Broadway,1484.0
541,"Ewald Emeline, 2029, 2d av",Ewald Emeline ,2029 2nd av ,2nd av ,2029,2nd Avenue,2029.0
542,"Ewers Louis J, 94 Water & 128 Pearl",Ewers Louis J ,94 Water st  ,Water st  ,94,Water Street,94.0
543,"Ewers Louis J, 94 Water & 128 Pearl",Ewers Louis J ,128 Pearl  ,Pearl  ,128,Pearl Street,128.0
544,"Excelsior Lunch Co, 142 Fulton",Excelsior Lunch Co ,142 Fulton  ,Fulton  ,142,Fulton Street,142.0
545,"Facompre Frederick, 584 Grand",Facompre Frederick ,584 Grand st  ,Grand st  ,584,Grand Street,584.0
546,"Farfaro Lawrence. 604, 3d av",Farfaro Lawrence ,604 3rd av ,3rd av ,604,3rd Avenue,604.0
547,Farmer Orvel B. 541 Hudson,Farmer Orvel B ,541 Hudson  ,Hudson  ,541,Hudson Street,541.0
548,Farrington J. M. 1424 Bway,Farrington J M ,1424 Broadway,Broadway,1424,Broadway,1424.0
549,"Faughnan Patrick C. 959, 1st av",Faughnan Patrick C ,959 1st av ,1st av ,959,1st Avenue,959.0
550,"Fay Thomas, 1537 Bway",Fay Thomas ,1537 Broadway,Broadway,1537,Broadway,1537.0
551,"+Fay & Kane, 69 W 125th",+Fay & Kane ,69 W 125th ,W 125th ,69,W 125th Street,69.0
552,"Feaster Frank, 2391, 2d av",Feaster Frank ,2391 2nd av ,2nd av ,2391,2nd Avenue,2391.0
553,"+Feaster George, 1489, 2d av",+Feaster George ,1489 2nd av ,2nd av ,1489,2nd Avenue,1489.0
554,"Feaster Henry, 2237, 2d av",Feaster Henry ,2237 2nd av ,2nd av ,2237,2nd Avenue,2237.0
555,"Feaster John, 1598, 3d av",Feaster John ,1598 3rd av ,3rd av ,1598,3rd Avenue,1598.0
556,"+Feaster William, 1955, 3d av",+Feaster William ,1955 3rd av ,3rd av ,1955,3rd Avenue,1955.0
557,Feinler John. 32 Harrison,Feinler John ,32 Harrison  ,Harrison  ,32,Harrison Street,32.0
558,"Feldmann & Bile, 1529, 2d av",Feldmann & Bile ,1529 2nd av ,2nd av ,1529,2nd Avenue,1529.0
559,"Feldmaus Abraham, 83 Columbia",Feldmaus Abraham ,83 Columbia  ,Columbia  ,83,Columbia Street,83.0
560,"Felix Julius, 88, 2d av",Felix Julius ,88 2nd av ,2nd av ,88,2nd Avenue,88.0
561,Feratti Michael A. 80 Mulberry,Feratti Michael A ,80 Mulberry  ,Mulberry  ,80,Mulberry Street,80.0
562,"Ferris John, 1852, 2d av",Ferris John ,1852 2nd av ,2nd av ,1852,2nd Avenue,1852.0
563,Ferris Joseph A. 104 W 34th,Ferris Joseph A ,104 W 34th ,W 34th ,104,W 34th Street,104.0
564,"Ferris William, 560, 10th av",Ferris William ,560 10th av ,10th av ,560,10th Avenue,560.0
565,"Ferro Abraham, 280 Delancey",Ferro Abraham ,280 Delancey  ,Delancey  ,280,Delancey Street,280.0
566,Fields Emma. 356 Bleecker,Fields Emma ,356 Bleecker  ,Bleecker  ,356,Bleecker Street,356.0
567,Fields William T. 154 W 10th,Fields William T ,154 W 10th ,W 10th ,154,W 10th Street,154.0
568,"Finkenstein Julius, 152 W 23d",Finkenstein Julius ,152 W 23rd ,W 23rd ,152,W 23rd Street,152.0
569,"Finley Sarah, 132, 3d av",Finley Sarah ,132 3rd av ,3rd av ,132,3rd Avenue,132.0
570,Finn James. 52 Broad,Finn James ,52 Broad  ,Broad  ,52,Broad Street,52.0
571,Fischer Carl H. 308 Pearl,Fischer Carl H ,308 Pearl  ,Pearl  ,308,Pearl Street,308.0
572,"Fischer Frederick, 302, 8th av",Fischer Frederick ,302 8th av ,8th av ,302,8th Avenue,302.0
573,"Fischer Jacob, 345 Canal",Fischer Jacob ,345 Canal  ,Canal  ,345,Canal Street,345.0
574,"Fischer Joseph, 1012, 2d av",Fischer Joseph ,1012 2nd av ,2nd av ,1012,2nd Avenue,1012.0
575,"Fischler Moses, 119 Orchard",Fischler Moses ,119 Orchard  ,Orchard  ,119,Orchard Street,119.0
576,Fitter John F. 686. 8th av,Fitter John F ,686 8th av ,8th av ,686,8th Avenue,686.0
577,"Fitzgerald John, 465 W 26th",Fitzgerald John ,465 W 26th ,W 26th ,465,W 26th Street,465.0
578,"Fitzpatrick Patrick. 841, 10th av",Fitzpatrick Patrick ,841 10th av ,10th av ,841,10th Avenue,841.0
579,"Flagg Jared, 111 W 33d",Flagg Jared ,111 W 33rd ,W 33rd ,111,W 33rd Street,111.0
580,Flauti Alfonso. 174 Thompson,Flauti Alfonso ,174 Thompson  ,Thompson  ,174,Thompson Street,174.0
581,"Fleischer Joseph, 4 Chatham sq",Fleischer Joseph ,4 Chatham sq ,Chatham sq ,4,Chatham Street,4.0
582,Fleischmann’s Vienna Model Bakery. 788 Bway,Fleischmann’s Vienna Model Bakery ,788 Broadway,Broadway,788,Broadway,788.0
583,"Flight Margaret, 117 Leonard",Flight Margaret ,117 Leonard  ,Leonard  ,117,Leonard Street,117.0
584,"Flisser Adolph, 38 W Houston & 217 Grand",Flisser Adolph ,38 W Houston ,W Houston ,38,Houston Street W,38.0
585,"Flisser Adolph, 38 W Houston & 217 Grand",Flisser Adolph ,217 Grand st  ,Grand st  ,217,Grand Street,217.0
586,"Flouret Leon. 128, 5th av",Flouret Leon ,128 5th av ,5th av ,128,5th Avenue,128.0
587,"Flugrath Joanna. 2904, 3d av",Flugrath Joanna ,2904 3rd av ,3rd av ,2904,3rd Avenue,2904.0
588,"Flynn Thomas, 77 Tomp mkt",Flynn Thomas ,77 Tompkins mkt ,Tompkins mkt ,77,Tompkins Street,77.0
589,"Fopiano Stephen, 148 & 156 Church",Fopiano Stephen ,148 Church  ,Church  ,148,Church Street,148.0
590,"Fopiano Stephen, 148 & 156 Church",Fopiano Stephen ,156 Church  ,Church  ,156,Church Street,156.0
591,"Forbes Robert, 480, 3d av",Forbes Robert ,480 3rd av ,3rd av ,480,3rd Avenue,480.0
592,"Forlenza Giusseppe, 40 Mulberry",Forlenza Giusseppe ,40 Mulberry  ,Mulberry  ,40,Mulberry Street,40.0
593,Forney John A. 192 Park row,Forney John A ,192 Park row ,Park row ,192,Park Row,192.0
594,"Forshay & Gilbert, 102 University pl",Forshay & Gilbert ,102 University pl ,University pl ,102,University Place,102.0
595,"Forst Morris, 116 Suffolk",Forst Morris ,116 Suffolk  ,Suffolk  ,116,Suffolk Street,116.0
596,"Fortunate Frederick, 211 Mott",Fortunate Frederick ,211 Mott  ,Mott  ,211,Mott Street,211.0
597,Fortwengler Jules. 3 William,Fortwengler Jules ,3 William  ,William  ,3,William Street,3.0
598,"Fossa James, 505 Pearl",Fossa James ,505 Pearl  ,Pearl  ,505,Pearl Street,505.0
599,"Foster George, 118 Park row & 26 Bowery",Foster George ,118 Park row ,Park row ,118,Park Row,118.0
600,"Foster George, 118 Park row & 26 Bowery",Foster George ,26 Bowery  ,Bowery  ,26,Bowery Street,26.0
601,Fox Hubert F. 296. 10th av,Fox Hubert F ,296 10th av ,10th av ,296,10th Avenue,296.0
602,"Fox William, 36 W 13th",Fox William ,36 W 13th ,W 13th ,36,W 13th Street,36.0
603,"Foy Brothers, 1482. 3d av",Foy Brothers ,1482 3rd av ,3rd av ,1482,3rd Avenue,1482.0
604,"Foy & Crook, 22 Beekman",Foy & Crook ,22 Beekman  ,Beekman  ,22,Beekman Street,22.0
605,Francfort Francois. 58 W 57th,Francfort Francois ,58 W 57th ,W 57th ,58,W 57th Street,58.0
606,Franchini John. 878. 6th av,Franchini John ,878 6th av ,6th av ,878,6th Avenue,878.0
607,"Franchini Joseph, 103 W 38th",Franchini Joseph ,103 W 38th ,W 38th ,103,W 38th Street,103.0
608,"Frank Charles, 206 Forsyth",Frank Charles ,206 Forsyth  ,Forsyth  ,206,Forsyth Street,206.0
609,"Frank & Arnold, 512, 6th av",Frank & Arnold ,512 6th av ,6th av ,512,6th Avenue,512.0
610,"Frankl Jacob, 248, 2d",Frankl Jacob ,248 2nd  ,2nd  ,248,2nd Avenue,248.0
611,+Fransioli John B. 201 W 61st,+Fransioli John B ,201 W 61st ,W 61st ,201,W 61st Street,201.0
612,Freda Mary. 62 Baxter,Freda Mary ,62 Baxter  ,Baxter  ,62,Baxter Street,62.0
613,"Frederick Catharine, 412 Pearl",Frederick Catharine ,412 Pearl  ,Pearl  ,412,Pearl Street,412.0
614,"Freedman Frederick. 86, 2d av",Freedman Frederick ,86 2nd av ,2nd av ,86,2nd Avenue,86.0
615,Freind Adolph. 122 Greene,Freind Adolph ,122 Greene  ,Greene  ,122,Greene Street,122.0
616,Freund Edward. 149 E Houston,Freund Edward ,149 E Houston ,E Houston ,149,Houston Street E,149.0
617,Freyder Michael. 5 Clinton pl,Freyder Michael ,5 Clinton pl ,Clinton pl ,5,Clinton Place,5.0
618,"Fricke Justina, 477 Canal",Fricke Justina ,477 Canal  ,Canal  ,477,Canal Street,477.0
619,Friedheim Leopold. 724 Bway,Friedheim Leopold ,724 Broadway,Broadway,724,Broadway,724.0
620,"Friedman Bernard, 235 Stanton",Friedman Bernard ,235 Stanton  ,Stanton  ,235,Stanton Street,235.0
621,"Friedman Clara, 33 Stanton",Friedman Clara ,33 Stanton  ,Stanton  ,33,Stanton Street,33.0
622,Friedman Jacob. 117 Av C,Friedman Jacob ,117 Av C ,Av C ,117,C Avenue,117.0
623,Friend Charles N. 374 W Bway,Friend Charles N ,374 W Broadway,W Broadway,374,Broadway W,374.0
624,"Fries Henry, 241 Canal",Fries Henry ,241 Canal  ,Canal  ,241,Canal Street,241.0
625,"Friob & Suesena, 7 Rivington",Friob & Suesena ,7 Rivington  ,Rivington  ,7,Rivington Street,7.0
626,"Frisch Adolph, 20, 2d av",Frisch Adolph ,20 2nd av ,2nd av ,20,2nd Avenue,20.0
627,Fritzel William & Son. 146 Av C,Fritzel William & Son ,146 Av C ,Av C ,146,C Avenue,146.0
628,"Froehlich Anton, 284 E Houston",Froehlich Anton ,284 E Houston ,E Houston ,284,Houston Street E,284.0
629,Froehlich Charles. 96 E Houston,Froehlich Charles ,96 E Houston ,E Houston ,96,Houston Street E,96.0
630,Frost A. L. 10 E 18th,Frost A L ,10 E 18th ,E 18th ,10,E 18th Street,10.0
631,"Frucht David, 63 Elizabeth",Frucht David ,63 Elizabeth  ,Elizabeth  ,63,Elizabeth Street,63.0
632,"Fuchs Dezso, 1, 2d av",Fuchs Dezso ,1 2nd av ,2nd av ,1,2nd Avenue,1.0
633,"Furey George, 199 Bleecker",Furey George ,199 Bleecker  ,Bleecker  ,199,Bleecker Street,199.0
634,"Gaebler Helen, 1959, 3d av",Gaebler Helen ,1959 3rd av ,3rd av ,1959,3rd Avenue,1959.0
635,"Galilee Mission, 338 E 23d",Galilee Mission ,338 E 23rd ,E 23rd ,338,E 23rd Street,338.0
636,"Gallat Armand, 3291, 3d av",Gallat Armand ,3291 3rd av ,3rd av ,3291,3rd Avenue,3291.0
637,Garbades Emily C. C. 82 W Houston,Garbades Emily C C ,82 W Houston ,W Houston ,82,Houston Street W,82.0
638,"Garbarino Antonio, 336 Bowery",Garbarino Antonio ,336 Bowery  ,Bowery  ,336,Bowery Street,336.0
639,Gardella John. 36 1/2 Baxter,Gardella John ,36 Baxter  ,Baxter  ,36,Baxter Street,36.0
640,"Garfunkel Herman, 54 Ridge",Garfunkel Herman ,54 Ridge  ,Ridge  ,54,Ridge Street,54.0
641,"Garfinkel Hirsch, 54 Ridge",Garfinkel Hirsch ,54 Ridge  ,Ridge  ,54,Ridge Street,54.0
642,"Garten Moritz, 177 Rivington",Garten Moritz ,177 Rivington  ,Rivington  ,177,Rivington Street,177.0
643,"Gathmann John, 24 E 4th",Gathmann John ,24 E 4th ,E 4th ,24,E 4th Street,24.0
644,"Gazzello & Babzarini, 2110 & 2184, 3d av",Gazzello & Babzarini ,2110 3rd av ,3rd av ,2110,3rd Avenue,2110.0
645,"Gazzello & Babzarini, 2110 & 2184, 3d av",Gazzello & Babzarini ,2184 3rd av ,3rd av ,2184,3rd Avenue,2184.0
646,Gazzo Virgil R. 1425 Bway,Gazzo Virgil R ,1425 Broadway,Broadway,1425,Broadway,1425.0
647,"Gebhardt Henry, 544, 11th av",Gebhardt Henry ,544 11th av ,11th av ,544,11th Avenue,544.0
648,Gee George W. 443 W 13th,Gee George W ,443 W 13th ,W 13th ,443,W 13th Street,443.0
649,Gehben Ernest J. 26 Ann,Gehben Ernest J ,26 Ann  ,Ann  ,26,Ann Street,26.0
650,"Geneva Herman, 49 Church",Geneva Herman ,49 Church  ,Church  ,49,Church Street,49.0
651,"Genteman Catharine, 2333, 1st av",Genteman Catharine ,2333 1st av ,1st av ,2333,1st Avenue,2333.0
652,"Georgi Max, 640 Hudson",Georgi Max ,640 Hudson  ,Hudson  ,640,Hudson Street,640.0
653,"Gerich Emil, 375, 7th av",Gerich Emil ,375 7th av ,7th av ,375,7th Avenue,375.0
654,Gerken John H. 166 West,Gerken John H ,166 West st  ,West st  ,166,West Street,166.0
655,"Gerstenberger Richard G. 406, 7th av",Gerstenberger Richard G ,406 7th av ,7th av ,406,7th Avenue,406.0
656,"Gesing Charles, 56 West",Gesing Charles ,56 West st  ,West st  ,56,West Street,56.0
657,Getgood Brothers. 249 W 125th,Getgood Brothers ,249 W 125th ,W 125th ,249,W 125th Street,249.0
658,"Geyer George, 73 Nassau",Geyer George ,73 Nassau,Nassau,73,Nassau Street,73.0
659,"Gianchetta Giuseppe, 98 Bayard",Gianchetta Giuseppe ,98 Bayard  ,Bayard  ,98,Bayard Street,98.0
660,"Giardini Deidue, 32 Baxter",Giardini Deidue ,32 Baxter  ,Baxter  ,32,Baxter Street,32.0
661,"Gibbons Joseph L. 577, 8th av",Gibbons Joseph L ,577 8th av ,8th av ,577,8th Avenue,577.0
662,"Gibbs Catharine. 338, 4th av",Gibbs Catharine ,338 4th av ,4th av ,338,4th Avenue,338.0
663,"Gibson James Jr, 63 Maiden la & 87 William",Gibson James Jr ,63 Maiden ln ,Maiden ln ,63,Maiden Lane,63.0
664,"Gibson James Jr, 63 Maiden la & 87 William",Gibson James Jr ,87 William  ,William  ,87,William Street,87.0
665,"Giglio Silvestro, 2 Cortlandt",Giglio Silvestro ,2 Cortlandt  ,Cortlandt  ,2,Cortlandt Street,2.0
666,"Gilbert Augusta, 67 E 4th",Gilbert Augusta ,67 E 4th ,E 4th ,67,E 4th Street,67.0
667,"Gillespie Mary. 266, 8th av",Gillespie Mary ,266 8th av ,8th av ,266,8th Avenue,266.0
668,"Gilling Charles. 425, 6th",Gilling Charles ,425 6th  ,6th  ,425,6th Avenue,425.0
669,"Gilman John, 219 E 23d",Gilman John ,219 E 23rd ,E 23rd ,219,E 23rd Street,219.0
670,"Glaser Max, 105 E Bway",Glaser Max ,105 E Broadway,E Broadway,105,Broadway E,105.0
671,Glattstein Joseph H. 171 Mercer,Glattstein Joseph H ,171 Mercer  ,Mercer  ,171,Mercer Street,171.0
672,Glogan Joseph. 356 Canal,Glogan Joseph ,356 Canal  ,Canal  ,356,Canal Street,356.0
673,Godchaud Abram. 120 Water,Godchaud Abram ,120 Water st  ,Water st  ,120,Water Street,120.0
674,"Goerz John & Nephew, 605 Hudson & 326 Bowery",Goerz John & Nephew ,605 Hudson  ,Hudson  ,605,Hudson Street,605.0
675,"Goerz John & Nephew, 605 Hudson & 326 Bowery",Goerz John & Nephew ,326 Bowery  ,Bowery  ,326,Bowery Street,326.0
676,Goetz Julius. 17 Howard,Goetz Julius ,17 Howard  ,Howard  ,17,Howard Street,17.0
677,"Gohler Berthold. 681, 11th av",Gohler Berthold ,681 11th av ,11th av ,681,11th Avenue,681.0
678,Gold Joseph. 204 Delancey,Gold Joseph ,204 Delancey  ,Delancey  ,204,Delancey Street,204.0
679,"Goldberg Anne, 166 Allen",Goldberg Anne ,166 Allen st  ,Allen st  ,166,Allen Street,166.0
680,"Goldberg Davis, 165 Allen",Goldberg Davis ,165 Allen st  ,Allen st  ,165,Allen Street,165.0
681,"Goldberg Louis, 118 Spring",Goldberg Louis ,118 Spring  ,Spring  ,118,Spring Street,118.0
682,"Goldberg Samuel, 230 Chrystie",Goldberg Samuel ,230 Chrystie  ,Chrystie  ,230,Chrystie Street,230.0
683,Goldman Samuel. 36 Llspenard,Goldman Samuel ,36 Lispenard  ,Lispenard  ,36,Lispenard Street,36.0
684,Goldmann Abraham. 237 Mercer,Goldmann Abraham ,237 Mercer  ,Mercer  ,237,Mercer Street,237.0
685,Goldmann M. 168 Wooster,Goldmann M ,168 Wooster  ,Wooster  ,168,Wooster Street,168.0
686,"Goldstein John, 36 Peck sl",Goldstein John ,36 Peck slip ,Peck slip ,36,Peck Slip,36.0
687,Goldstein Leopold. 140 Forysth,Goldstein Leopold ,140 Forsyth  ,Forsyth  ,140,Forsyth Street,140.0
688,"Goldstein Louis, 31 Clinton pl",Goldstein Louis ,31 Clinton pl ,Clinton pl ,31,Clinton Place,31.0
689,Goldstone Frances. 63 Walker,Goldstone Frances ,63 Walker  ,Walker  ,63,Walker Street,63.0
690,"Gombossy Lena, 105, 2d av & 112, 3d av",Gombossy Lena ,105 2nd av ,2nd av ,105,2nd Avenue,105.0
691,"Gombossy Lena, 105, 2d av & 112, 3d av",Gombossy Lena ,112 3rd av ,3rd av ,112,3rd Avenue,112.0
692,"Goodman Joseph, 7 Bowery",Goodman Joseph ,7 Bowery  ,Bowery  ,7,Bowery Street,7.0
693,"Goslar August, 120 Centre",Goslar August ,120 Centre  ,Centre  ,120,Centre Street,120.0
694,"Gottlieb Henry, 29 E 20th",Gottlieb Henry ,29 E 20th ,E 20th ,29,E 20th Street,29.0
695,"Gottlieb Joseph, 264 Stanton",Gottlieb Joseph ,264 Stanton  ,Stanton  ,264,Stanton Street,264.0
696,"Goyett & Striem, 148, 3d av",Goyett & Striem ,148 3rd av ,3rd av ,148,3rd Avenue,148.0
697,Graff Charles D. 87 Pike,Graff Charles D ,87 Pike st  ,Pike st  ,87,Pike Street,87.0
698,"Graham Arthur J. 230, 1st av",Graham Arthur J ,230 1st av ,1st av ,230,1st Avenue,230.0
699,Grant James E. 26 Church,Grant James E ,26 Church  ,Church  ,26,Church Street,26.0
700,"Grant John, 102 W 17th",Grant John ,102 W 17th ,W 17th ,102,W 17th Street,102.0
701,Gray John A. 1326 Bway,Gray John A ,1326 Broadway,Broadway,1326,Broadway,1326.0
702,"Green Roderick jr, 49 Cath mkt",Green Roderick jr ,49 Catherine mkt ,Catherine mkt ,49,Catherine Street,49.0
703,"Greenbaum Ludwig, 55 W Houston",Greenbaum Ludwig ,55 W Houston ,W Houston ,55,Houston Street W,55.0
704,"Greenbaum Moritz, 354 E Houston",Greenbaum Moritz ,354 E Houston ,E Houston ,354,Houston Street E,354.0
705,"Greenberg Henry, 132 Bleecker",Greenberg Henry ,132 Bleecker  ,Bleecker  ,132,Bleecker Street,132.0
706,"Greenberg Henry, 111 Eldridge",Greenberg Henry ,111 Eldridge  ,Eldridge  ,111,Eldridge Street,111.0
707,"Greenberg Sarah, 178 Chrystie",Greenberg Sarah ,178 Chrystie  ,Chrystie  ,178,Chrystie Street,178.0
708,"Greene William, 36 Centre",Greene William ,36 Centre  ,Centre  ,36,Centre Street,36.0
709,Greene William J. 474 Grand,Greene William J ,474 Grand st  ,Grand st  ,474,Grand Street,474.0
710,"Greene & Brown, 626, 8th av",Greene & Brown ,626 8th av ,8th av ,626,8th Avenue,626.0
711,"Greenstein Henry, 249 Mercer",Greenstein Henry ,249 Mercer  ,Mercer  ,249,Mercer Street,249.0
712,Greiner Carl. 524 E 13th,Greiner Carl ,524 E 13th ,E 13th ,524,E 13th Street,524.0
713,"Greitner Herman, 1321. 3d av",Greitner Herman ,1321 3rd av ,3rd av ,1321,3rd Avenue,1321.0
714,Grening Mary A. 54 W 23d,Grening Mary A ,54 W 23rd ,W 23rd ,54,W 23rd Street,54.0
715,"Griebel Julius, 534 Pearl",Griebel Julius ,534 Pearl  ,Pearl  ,534,Pearl Street,534.0
716,"Griffin Maurice, 85 E 13th",Griffin Maurice ,85 E 13th ,E 13th ,85,E 13th Street,85.0
717,Gritz M. 6 Bond,Gritz M ,6 Bond  ,Bond  ,6,Bond Street,6.0
718,"Grobholz Frederick, 747, 3d av",Grobholz Frederick ,747 3rd av ,3rd av ,747,3rd Avenue,747.0
719,"Grosjean Mary, 613, 2d av",Grosjean Mary ,613 2nd av ,2nd av ,613,2nd Avenue,613.0
720,"Gross David, 147 Eldridge",Gross David ,147 Eldridge  ,Eldridge  ,147,Eldridge Street,147.0
721,Gross Martha. 183 Gwich,Gross Martha ,183 Greenwich,Greenwich,183,Greenwich Street,183.0
722,"Gross Samuel, 88 Ridge",Gross Samuel ,88 Ridge  ,Ridge  ,88,Ridge Street,88.0
723,"Grosseria Pasquale, 149 Elizabeth",Grosseria Pasquale ,149 Elizabeth  ,Elizabeth  ,149,Elizabeth Street,149.0
724,"Grossman Adolph, 73 Allen",Grossman Adolph ,73 Allen st  ,Allen st  ,73,Allen Street,73.0
725,"Grossman Bernhard, 86 Eldridge",Grossman Bernhard ,86 Eldridge  ,Eldridge  ,86,Eldridge Street,86.0
726,Grote Herman G. 349 Hudson,Grote Herman G ,349 Hudson  ,Hudson  ,349,Hudson Street,349.0
727,"Grube Silber, 551 Pearl",Grube Silber ,551 Pearl  ,Pearl  ,551,Pearl Street,551.0
728,"Gruner Philip, 47 Bond",Gruner Philip ,47 Bond  ,Bond  ,47,Bond Street,47.0
729,"Guckenberger August, 3, 1st av",Guckenberger August ,3 1st av ,1st av ,3,1st Avenue,3.0
730,"Guenter John, 1871, 3d av",Guenter John ,1871 3rd av ,3rd av ,1871,3rd Avenue,1871.0
731,Guerin Michael. 102 Vesey,Guerin Michael ,102 Vesey  ,Vesey  ,102,Vesey Street,102.0
732,Guillon & Bordes. 144 W 26th,Guillon & Bordes ,144 W 26th ,W 26th ,144,W 26th Street,144.0
733,"Guini W. & Greenberg, 3 Wooster",Guini W & Greenberg ,3 Wooster  ,Wooster  ,3,Wooster Street,3.0
734,Guldenkirch George P. 124 W Bway,Guldenkirch George P ,124 W Broadway,W Broadway,124,Broadway W,124.0
735,"Gunther Joseph, 107, 3d av",Gunther Joseph ,107 3rd av ,3rd av ,107,3rd Avenue,107.0
736,Gurney Wolf. 3 Wooster,Gurney Wolf ,3 Wooster  ,Wooster  ,3,Wooster Street,3.0
737,Guttin Jean B. 109 W 25th,Guttin Jean B ,109 W 25th ,W 25th ,109,W 25th Street,109.0
738,"Guttman Adolph, 376 E Houston",Guttman Adolph ,376 E Houston ,E Houston ,376,Houston Street E,376.0
739,"Gutzki Charles, 154 Nassau",Gutzki Charles ,154 Nassau,Nassau,154,Nassau Street,154.0
740,Haag Conrad. 218 Greene,Haag Conrad ,218 Greene  ,Greene  ,218,Greene Street,218.0
741,"Haan R. M. & Co, 323 Columbus av",Haan R M & Co ,323 Columbus av ,Columbus av ,323,Columbus Avenue,323.0
742,"Haas John, 100 Centre",Haas John ,100 Centre  ,Centre  ,100,Centre Street,100.0
743,"Habib Said, 119 1/2 Washn",Habib Said ,119 Washington,Washington,119,Washington Street,119.0
744,+Hackett Margaret. 366 Washn mkt,+Hackett Margaret ,366 Washington mkt ,Washington mkt ,366,Washington Place,366.0
745,Hagen John. 802. 9th av,Hagen John ,802 9th av ,9th av ,802,9th Avenue,802.0
746,"+Haggerty Cornelius, 81 Tomp mkt",+Haggerty Cornelius ,81 Tompkins mkt ,Tompkins mkt ,81,Tompkins Street,81.0
747,Haggerty Frederick F. 118 West,Haggerty Frederick F ,118 West st  ,West st  ,118,West Street,118.0
748,"Halm Louis, 14 & 15 Frankfort, 39 Beekman, 173 Park row, 170 1/2 & 358 Bowery",Halm Louis ,14 Frankfort  ,Frankfort  ,14,Frankfort Street,14.0
749,"Halm Louis, 14 & 15 Frankfort, 39 Beekman, 173 Park row, 170 1/2 & 358 Bowery",Halm Louis ,15 Frankfort  ,Frankfort  ,15,Frankfort Street,15.0
750,"Halm Louis, 14 & 15 Frankfort, 39 Beekman, 173 Park row, 170 1/2 & 358 Bowery",Halm Louis ,39 Beekman  ,Beekman  ,39,Beekman Street,39.0
751,"Halm Louis, 14 & 15 Frankfort, 39 Beekman, 173 Park row, 170 1/2 & 358 Bowery",Halm Louis ,173 Park row ,Park row ,173,Park Row,173.0
752,"Halm Louis, 14 & 15 Frankfort, 39 Beekman, 173 Park row, 170 1/2 & 358 Bowery",Halm Louis ,170 Bowery  ,Bowery  ,170,Bowery Street,170.0
753,"Halm Louis, 14 & 15 Frankfort, 39 Beekman, 173 Park row, 170 1/2 & 358 Bowery",Halm Louis ,358 Bowery  ,Bowery  ,358,Bowery Street,358.0
754,"Haley Peter T. 2920, 8th av",Haley Peter T ,2920 8th av ,8th av ,2920,8th Avenue,2920.0
755,Hall Catharine L. 29 W 20th,Hall Catharine L ,29 W 20th ,W 20th ,29,W 20th Street,29.0
756,"Hall L N, 117 W 21st",Hall L N ,117 W 21st ,W 21st ,117,W 21st Street,117.0
757,"Hall Mary, 102 Bleecker",Hall Mary ,102 Bleecker  ,Bleecker  ,102,Bleecker Street,102.0
758,Hallett George H. 90 W Houston,Hallett George H ,90 W Houston ,W Houston ,90,Houston Street W,90.0
759,"Halloran John H. 213, 6th av",Halloran John H ,213 6th av ,6th av ,213,6th Avenue,213.0
760,Halporn & Freund. 189 E Houston,Halporn & Freund ,189 E Houston ,E Houston ,189,Houston Street E,189.0
761,Hamblen Arthur M. 49 Beaver,Hamblen Arthur M ,49 Beaver  ,Beaver  ,49,Beaver Street,49.0
762,"+Hammerschmidt Peter, 204 Av C",+Hammerschmidt Peter ,204 Av C ,Av C ,204,C Avenue,204.0
763,Handcock George. 26 W 13th,Handcock George ,26 W 13th ,W 13th ,26,W 13th Street,26.0
764,"Handwerker Henry J. 214, 7th av",Handwerker Henry J ,214 7th av ,7th av ,214,7th Avenue,214.0
765,Hanemnayer & Meyer. 130 Liberty,Hanemnayer & Meyer ,130 Liberty  ,Liberty  ,130,Liberty Street,130.0
766,Hanhart Jacob. 214 E 14th,Hanhart Jacob ,214 E 14th ,E 14th ,214,E 14th Street,214.0
767,"Harbonier William, 210 Gwich",Harbonier William ,210 Greenwich,Greenwich,210,Greenwich Street,210.0
768,Harcombe James. 64 Liberty,Harcombe James ,64 Liberty  ,Liberty  ,64,Liberty Street,64.0
769,Harfst Carl B. 205 Hudson,Harfst Carl B ,205 Hudson  ,Hudson  ,205,Hudson Street,205.0
770,Hargreaves John. Kingsbridge av n Riverdale av,Hargreaves John Kingsbridge av n Riverdale av,   ,  ,,,
771,"Harkness Henry, 1027, 6th av",Harkness Henry ,1027 6th av ,6th av ,1027,6th Avenue,1027.0
772,Harlow & Co. 76 Broad,Harlow & Co ,76 Broad  ,Broad  ,76,Broad Street,76.0
773,"+Harrigan Thomas, 130. 1st av",+Harrigan Thomas ,130 1st av ,1st av ,130,1st Avenue,130.0
774,"Harris Harry, 502. 9th av",Harris Harry ,502 9th av ,9th av ,502,9th Avenue,502.0
775,"Hart Michael, 275 West",Hart Michael ,275 West st  ,West st  ,275,West Street,275.0
776,"+Harth Henry R. 2076, 2d av",+Harth Henry R ,2076 2nd av ,2nd av ,2076,2nd Avenue,2076.0
777,Hartmann Julius C. 1 Bway & 15 Broad,Hartmann Julius C ,1 Broadway,Broadway,1,Broadway,1.0
778,Hartmann Julius C. 1 Bway & 15 Broad,Hartmann Julius C ,15 Broad  ,Broad  ,15,Broad Street,15.0
779,Hasemann L. 184 Gwich,Hasemann L ,184 Greenwich,Greenwich,184,Greenwich Street,184.0
780,"Hasey Samuel, 41 E 41st",Hasey Samuel ,41 E 41st ,E 41st ,41,E 41st Street,41.0
781,"Hauck & Colo, 61 Cortlandt",Hauck & Colo ,61 Cortlandt  ,Cortlandt  ,61,Cortlandt Street,61.0
782,"Hauser George, 66 Delancey",Hauser George ,66 Delancey  ,Delancey  ,66,Delancey Street,66.0
783,"Hawkins & Co, 108 E 23d",Hawkins & Co ,108 E 23rd ,E 23rd ,108,E 23rd Street,108.0
784,"Hayes Angeline, 153 W 30th",Hayes Angeline ,153 W 30th ,W 30th ,153,W 30th Street,153.0
785,Hazard Otis L. 112 Fulton & 17 Dutch,Hazard Otis L ,112 Fulton  ,Fulton  ,112,Fulton Street,112.0
786,Hazard Otis L. 112 Fulton & 17 Dutch,Hazard Otis L ,17 Dutch  ,Dutch  ,17,Dutch Street,17.0
787,"Hazeltine George, 38 Broad",Hazeltine George ,38 Broad  ,Broad  ,38,Broad Street,38.0
788,"Healy John, 306, 3d av",Healy John ,306 3rd av ,3rd av ,306,3rd Avenue,306.0
789,"Heesemann Lucy, 300 Pearl",Heesemann Lucy ,300 Pearl  ,Pearl  ,300,Pearl Street,300.0
790,"Held Peter, 756, 1st av",Held Peter ,756 1st av ,1st av ,756,1st Avenue,756.0
791,"Held Reinhard, 895, 2d av",Held Reinhard ,895 2nd av ,2nd av ,895,2nd Avenue,895.0
792,"Heim Charles, 126 University pl",Heim Charles ,126 University pl ,University pl ,126,University Place,126.0
793,"Heimsoth William, 108 W 18th",Heimsoth William ,108 W 18th ,W 18th ,108,W 18th Street,108.0
794,Heinson John S. 113 John,Heinson John S ,113 John  ,John  ,113,John Street,113.0
795,"+Heinz Henry, 97 Av A",+Heinz Henry ,97 Av A ,Av A ,97,Av A,97.0
796,"Heise & Hatesaul, 58 Thomas",Heise & Hatesaul ,58 Thomas  ,Thomas  ,58,Thomas Street,58.0
797,"Hekeler Elizabeth, 1813 Amsterdam av",Hekeler Elizabeth ,1813 Amsterdam av ,Amsterdam av ,1813,Amsterdam Avenue,1813.0
798,"Heller Herman, 60, 9th av",Heller Herman ,60 9th av ,9th av ,60,9th Avenue,60.0
799,"Helper Joseph, 69 Clinton",Helper Joseph ,69 Clinton  ,Clinton  ,69,Clinton Street,69.0
800,Henderson C. 247 W Bway,Henderson C ,247 W Broadway,W Broadway,247,Broadway W,247.0
801,"Henken Henry, 216 Spring",Henken Henry ,216 Spring  ,Spring  ,216,Spring Street,216.0
802,"Hennemann William, 521, 3d av",Hennemann William ,521 3rd av ,3rd av ,521,3rd Avenue,521.0
803,"Herman Kalmen, 136 Rivington",Herman Kalmen ,136 Rivington  ,Rivington  ,136,Rivington Street,136.0
804,+Hermann George. 159 Av B,+Hermann George ,159 Av B ,Av B ,159,B Avenue,159.0
805,"Hermann Israel, 93 Allen",Hermann Israel ,93 Allen st  ,Allen st  ,93,Allen Street,93.0
806,"Herrick Elizabeth, 365 W 23d",Herrick Elizabeth ,365 W 23rd ,W 23rd ,365,W 23rd Street,365.0
807,"Herrick Brothers, 143 Division",Herrick Brothers ,143 Division  ,Division  ,143,Division Street,143.0
808,"Herring Adam, 103 Park row & 751, 6th av",Herring Adam ,103 Park row ,Park row ,103,Park Row,103.0
809,"Herring Adam, 103 Park row & 751, 6th av",Herring Adam ,751 6th av ,6th av ,751,6th Avenue,751.0
810,"Herring Lewis, 83 Park row & 29 N William",Herring Lewis ,83 Park row ,Park row ,83,Park Row,83.0
811,"Herring Lewis, 83 Park row & 29 N William",Herring Lewis ,29 N William ,N William ,29,William Street N,29.0
812,Herman John G. 27 Mercer,Herman John G ,27 Mercer  ,Mercer  ,27,Mercer Street,27.0
813,Herrmann Elizabeth. 219 Grand,Herrmann Elizabeth ,219 Grand st  ,Grand st  ,219,Grand Street,219.0
814,"+Herrmann Mary, 262, 1st av",+Herrmann Mary ,262 1st av ,1st av ,262,1st Avenue,262.0
815,Herskowitz Jos. H. 364 E Houston,Herskowitz Jos H ,364 E Houston ,E Houston ,364,Houston Street E,364.0
816,"Herzog Adolph, 2139, 3d av",Herzog Adolph ,2139 3rd av ,3rd av ,2139,3rd Avenue,2139.0
817,Hesel & Trupin. 79 Clinton,Hesel & Trupin ,79 Clinton  ,Clinton  ,79,Clinton Street,79.0
818,"Hesse Freres, 551 W Bway & 32 W 28th",Hesse Freres ,551 W Broadway,W Broadway,551,Broadway W,551.0
819,"Hesse Freres, 551 W Bway & 32 W 28th",Hesse Freres ,32 W 28th ,W 28th ,32,W 28th Street,32.0
820,"Heumann Henry, 146 E Houston",Heumann Henry ,146 E Houston ,E Houston ,146,Houston Street E,146.0
821,"Heumann Michael, 145 E 58th",Heumann Michael ,145 E 58th ,E 58th ,145,E 58th Street,145.0
822,Heupel August. 9 Thames,Heupel August ,9 Thames  ,Thames  ,9,Thames Street,9.0
823,"Heupel Augustus, 95 Trinity pl",Heupel Augustus ,95 Trinity pl ,Trinity pl ,95,Trinity Place,95.0
824,Hevert William F. 74 Hudson,Hevert William F ,74 Hudson  ,Hudson  ,74,Hudson Street,74.0
825,"Heyermann Adeline, 160, 1st av",Heyermann Adeline ,160 1st av ,1st av ,160,1st Avenue,160.0
826,"Heyl & Noethen, 16 W 3d",Heyl & Noethen ,16 W 3rd ,W 3rd ,16,W 3rd Street,16.0
827,Hickey Charles A. 64 John,Hickey Charles A ,64 John  ,John  ,64,John Street,64.0
828,"Hildred Charles, 228 Hudson",Hildred Charles ,228 Hudson  ,Hudson  ,228,Hudson Street,228.0
829,"Hill William J. 752, 6th av",Hill William J ,752 6th av ,6th av ,752,6th Avenue,752.0
830,"Hillmeyer Frederick, 2267, 1st av",Hillmeyer Frederick ,2267 1st av ,1st av ,2267,1st Avenue,2267.0
831,"Hindes Morris, 85 Rivington",Hindes Morris ,85 Rivington  ,Rivington  ,85,Rivington Street,85.0
832,Hinst Elizabeth. 378 W 12th,Hinst Elizabeth ,378 W 12th ,W 12th ,378,W 12th Street,378.0
833,"Hirsch Isaac, 807, 1st av",Hirsch Isaac ,807 1st av ,1st av ,807,1st Avenue,807.0
834,"Hirsch & Lefkowits, 419, 6th av",Hirsch & Lefkowits ,419 6th av ,6th av ,419,6th Avenue,419.0
835,"Hirt Max, 21 E 15th",Hirt Max ,21 E 15th ,E 15th ,21,E 15th Street,21.0
836,"Hitchcock’s Oliver, Son, 34 Park row",Hitchcock’s Oliver Son ,34 Park row ,Park row ,34,Park Row,34.0
837,"Hochall Thomas, 321 E 73d",Hochall Thomas ,321 E 73rd ,E 73rd ,321,E 73rd Street,321.0
838,"Hoefler George J. 344, 6th av",Hoefler George J ,344 6th av ,6th av ,344,6th Avenue,344.0
839,"Hoehle William, 6 Church",Hoehle William ,6 Church  ,Church  ,6,Church Street,6.0
840,Hoetzer Frederick S. 23 Washn pl,Hoetzer Frederick S ,23 Washington pl,Washington pl,23,Washington Place,23.0
841,"Hoffer Cornelia. 508, 11th av",Hoffer Cornelia ,508 11th av ,11th av ,508,11th Avenue,508.0
842,"Hoffman House (lnc) 60 Bway, 7 Beaver & 21 New",Hoffman House (lnc) ,60 Broadway,Broadway,60,Broadway,60.0
843,"Hoffman House (lnc) 60 Bway, 7 Beaver & 21 New",Hoffman House (lnc) ,7 Beaver  ,Beaver  ,7,Beaver Street,7.0
844,"Hoffman House (lnc) 60 Bway, 7 Beaver & 21 New",Hoffman House (lnc) ,21 New  ,New  ,21,New Street,21.0
845,"Hoffman Simon, 105, 2d av",Hoffman Simon ,105 2nd av ,2nd av ,105,2nd Avenue,105.0
846,"Hoffmann Joseph, 880, 3 av",Hoffmann Joseph ,880 3 av ,3 av ,880,3rd Avenue,880.0
847,"Holder George, 33 Cornelia",Holder George ,33 Cornelia  ,Cornelia  ,33,Cornelia Street,33.0
848,Holland Charles H. 16 Park pl,Holland Charles H ,16 Park pl ,Park pl ,16,Park Place,16.0
849,"Holland David, 141, 4th av",Holland David ,141 4th av ,4th av ,141,4th Avenue,141.0
850,"Holland & Rice, 618, 6th av",Holland & Rice ,618 6th av ,6th av ,618,6th Avenue,618.0
851,"Hollander Adolph, 4 Stuyvesant",Hollander Adolph ,4 Stuyvesant  ,Stuyvesant  ,4,Stuyvesant Street,4.0
852,Hollander Rose. 105 E 4th,Hollander Rose ,105 E 4th ,E 4th ,105,E 4th Street,105.0
853,"Hollender F. & Co, 149 W 125th",Hollender F & Co ,149 W 125th ,W 125th ,149,W 125th Street,149.0
854,"Holsten Henry, 13th av c W 24th",Holsten Henry ,13th av c W,av c W,13th,C Avenue,13.0
855,"Holtz & Freystedt Co, 365 Bway",Holtz & Freystedt Co ,365 Broadway,Broadway,365,Broadway,365.0
856,"Holz Philip, 151 Amsterdam av",Holz Philip ,151 Amsterdam av ,Amsterdam av ,151,Amsterdam Avenue,151.0
857,"Holzkamp L. & Unger, 221 Bleecker",Holzkamp L & Unger ,221 Bleecker  ,Bleecker  ,221,Bleecker Street,221.0
858,"Hopper George W. 730, 8th av",Hopper George W ,730 8th av ,8th av ,730,8th Avenue,730.0
859,"Hore W. J. Jr, 873, 3d av",Hore W J Jr ,873 3rd av ,3rd av ,873,3rd Avenue,873.0
860,"Horgan Daniel, 210 Fulton mkt",Horgan Daniel ,210 Fulton mkt ,Fulton mkt ,210,Fulton Street,210.0
861,"Horn Kong Low & Co, 11 Mott",Horn Kong Low & Co ,11 Mott  ,Mott  ,11,Mott Street,11.0
862,"Horst William, 301 W 52d",Horst William ,301 W 52nd ,W 52nd ,301,W 52nd Street,301.0
863,"Hot E. Jules, 46 Broad",Hot E Jules ,46 Broad  ,Broad  ,46,Broad Street,46.0
864,"Hough Mary, 36 Church",Hough Mary ,36 Church  ,Church  ,36,Church Street,36.0
865,"Huber Anna, 206, 5th",Huber Anna ,206 5th  ,5th  ,206,5th Avenue,206.0
866,"+Huber Anton, 246 Av A",+Huber Anton ,246 Av A ,Av A ,246,Av A,246.0
867,"Huber Louis, 148 Spring",Huber Louis ,148 Spring  ,Spring  ,148,Spring Street,148.0
868,"Hughes Augustus S. 2351, 3d av",Hughes Augustus S ,2351 3rd av ,3rd av ,2351,3rd Avenue,2351.0
869,"Hughes Bernard, 86 Fulton",Hughes Bernard ,86 Fulton  ,Fulton  ,86,Fulton Street,86.0
870,Hughes John. 189 South,Hughes John ,189 South  ,South  ,189,South Street,189.0
871,Hugo Joseph. 475 W Bway,Hugo Joseph ,475 W Broadway,W Broadway,475,Broadway W,475.0
872,"Hulse Charles, 421 Willis av",Hulse Charles ,421 Willis av ,Willis av ,421,Willis Avenue,421.0
873,"Hummer & Grasser, 119 Pearl",Hummer & Grasser ,119 Pearl  ,Pearl  ,119,Pearl Street,119.0
874,Hundertpfund William F. 542 W 55th,Hundertpfund William F ,542 W 55th ,W 55th ,542,W 55th Street,542.0
875,Hunt William E. S. 48 Hudson,Hunt William E S ,48 Hudson  ,Hudson  ,48,Hudson Street,48.0
876,"+Hurley John, 165 W 36th",+Hurley John ,165 W 36th ,W 36th ,165,W 36th Street,165.0
877,"Hutter Joseph, 52 W Bway",Hutter Joseph ,52 W Broadway,W Broadway,52,Broadway W,52.0
878,"Hyman Abraham, 121 W 19th",Hyman Abraham ,121 W 19th ,W 19th ,121,W 19th Street,121.0
879,"Industrial Christian Alliance. 5 E Bway, 170 Bleecker & 57 Av A",Industrial Christian Alliance ,5 E Broadway,E Broadway,5,Broadway E,5.0
880,"Industrial Christian Alliance. 5 E Bway, 170 Bleecker & 57 Av A",Industrial Christian Alliance ,170 Bleecker  ,Bleecker  ,170,Bleecker Street,170.0
881,"Industrial Christian Alliance. 5 E Bway, 170 Bleecker & 57 Av A",Industrial Christian Alliance ,57 Av A ,Av A ,57,Av A,57.0
882,"Ingersoll Harris, 5 Pelham",Ingersoll Harris ,5 Pelham  ,Pelham  ,5,Pelham Street,5.0
883,Iris & Hart. 501. 3d av,Iris & Hart ,501 3rd av ,3rd av ,501,3rd Avenue,501.0
884,+Isaacs L. 1526 Madison av,+Isaacs L ,1526 Madison av ,Madison av ,1526,Madison Avenue,1526.0
885,"Italzi Vincenzo, 185 Hester",Italzi Vincenzo ,185 Hester  ,Hester  ,185,Hester Street,185.0
886,Jackson Charles. 236 W 41st,Jackson Charles ,236 W 41st ,W 41st ,236,W 41st Street,236.0
887,"Jackson & Murray, 887 Columbus av",Jackson & Murray ,887 Columbus av ,Columbus av ,887,Columbus Avenue,887.0
888,"Jacobs John W. 665, 11th av",Jacobs John W ,665 11th av ,11th av ,665,11th Avenue,665.0
889,Jacobs Matilda. 199 Forsyth,Jacobs Matilda ,199 Forsyth  ,Forsyth  ,199,Forsyth Street,199.0
890,"Jacobs Max, 1919, 3d av",Jacobs Max ,1919 3rd av ,3rd av ,1919,3rd Avenue,1919.0
891,"Jacobs Minnie, 2 E Houston",Jacobs Minnie ,2 E Houston ,E Houston ,2,Houston Street E,2.0
892,"Jacobs & Gluck, 138 Crosby",Jacobs & Gluck ,138 Crosby  ,Crosby  ,138,Crosby Street,138.0
893,"Jacobsen James. Dock, Morris hts",Jacobsen James Dock Morris hts,   ,  ,,,
894,"Jacoby Martin, 1395, 2d av",Jacoby Martin ,1395 2nd av ,2nd av ,1395,2nd Avenue,1395.0
895,"Jacquin Charles, 57 W 26th",Jacquin Charles ,57 W 26th ,W 26th ,57,W 26th Street,57.0
896,Jaeger Frederick W. 653 Hudson,Jaeger Frederick W ,653 Hudson  ,Hudson  ,653,Hudson Street,653.0
897,"Jaffee Frank S. 202, 5th av",Jaffee Frank S ,202 5th av ,5th av ,202,5th Avenue,202.0
898,"Janesok John, 404, 2d av",Janesok John ,404 2nd av ,2nd av ,404,2nd Avenue,404.0
899,"Jann Andrew, 969 Amsterdam av",Jann Andrew ,969 Amsterdam av ,Amsterdam av ,969,Amsterdam Avenue,969.0
900,"Jansen Albert, 52 E 4th",Jansen Albert ,52 E 4th ,E 4th ,52,E 4th Street,52.0
901,"Jansen Peter, 437, 1st av",Jansen Peter ,437 1st av ,1st av ,437,1st Avenue,437.0
902,"Jarossi Thomas, 135 Mott",Jarossi Thomas ,135 Mott  ,Mott  ,135,Mott Street,135.0
903,Jarratt James H. 160 W 30th,Jarratt James H ,160 W 30th ,W 30th ,160,W 30th Street,160.0
904,"Jarvis Samuel, 196 South",Jarvis Samuel ,196 South  ,South  ,196,South Street,196.0
905,"Jensen Henry, 83 Allen",Jensen Henry ,83 Allen st  ,Allen st  ,83,Allen Street,83.0
906,"Jensen Martin, 335, 10th av",Jensen Martin ,335 10th av ,10th av ,335,10th Avenue,335.0
907,"Jerkey Emil, 333 W 59th",Jerkey Emil ,333 W 59th ,W 59th ,333,W 59th Street,333.0
908,"Jochim Frederick, 205 Allen",Jochim Frederick ,205 Allen st  ,Allen st  ,205,Allen Street,205.0
909,Johnson Edward. 214 W 29th,Johnson Edward ,214 W 29th ,W 29th ,214,W 29th Street,214.0
910,"Johnson Mary, 52 E 4th",Johnson Mary ,52 E 4th ,E 4th ,52,E 4th Street,52.0
911,"Jones Abraham, 27 E 125th",Jones Abraham ,27 E 125th ,E 125th ,27,E 125th Street,27.0
912,Jones Cornelius A. 742 E 9th,Jones Cornelius A ,742 E 9th ,E 9th ,742,E 9th Street,742.0
913,Jones E. 3 Grand circle,Jones E ,3 Grand st Circle ,Grand st Circle ,3,Grand Street,3.0
914,"Jones Jane & Co, 114 W 26th",Jones Jane & Co ,114 W 26th ,W 26th ,114,W 26th Street,114.0
915,"Jones Josephine, 31 Depeyster",Jones Josephine ,31 Depeyster  ,Depeyster  ,31,Depeyster Street,31.0
916,"Jonson Peter, 131 W 125th",Jonson Peter ,131 W 125th ,W 125th ,131,W 125th Street,131.0
917,Jordan John. 154 E 27th,Jordan John ,154 E 27th ,E 27th ,154,E 27th Street,154.0
918,"Jorgensen Edward, 2605, 3d av",Jorgensen Edward ,2605 3rd av ,3rd av ,2605,3rd Avenue,2605.0
919,"Joy Hit Yen, 13 Doyers",Joy Hit Yen ,13 Doyers  ,Doyers  ,13,Doyers Street,13.0
920,"Joseph F. & R. 45, 3d av",Joseph F & R ,45 3rd av ,3rd av ,45,3rd Avenue,45.0
921,"Judson Thaddeus A. 1118, 3d av",Judson Thaddeus A ,1118 3rd av ,3rd av ,1118,3rd Avenue,1118.0
922,Jung Robert C. 61 Warren,Jung Robert C ,61 Warren,Warren,61,Warren Street,61.0
923,"Junker Gustav, 115 Mercer",Junker Gustav ,115 Mercer  ,Mercer  ,115,Mercer Street,115.0
924,"Kaase Brothers, 79 Franklin",Kaase Brothers ,79 Franklin  ,Franklin  ,79,Franklin Street,79.0
925,"Kahlo William, 32 Clinton pl",Kahlo William ,32 Clinton pl ,Clinton pl ,32,Clinton Place,32.0
926,"Kahn Charles, 2679, 8th av",Kahn Charles ,2679 8th av ,8th av ,2679,8th Avenue,2679.0
927,"Kalkbrenner Henry, 225 Greene",Kalkbrenner Henry ,225 Greene  ,Greene  ,225,Greene Street,225.0
928,"Kammerer Georgia, 1432, 2d av",Kammerer Georgia ,1432 2nd av ,2nd av ,1432,2nd Avenue,1432.0
929,Kammerer Theodore. 300 E 14th,Kammerer Theodore ,300 E 14th ,E 14th ,300,E 14th Street,300.0
930,"Kandel Moritz, 258 E Houston",Kandel Moritz ,258 E Houston ,E Houston ,258,Houston Street E,258.0
931,Kaplan Jacob L. 10 Beach,Kaplan Jacob L ,10 Beach  ,Beach  ,10,Beach Street,10.0
932,"Kaplan Louis & Brother, 329 Broome",Kaplan Louis & Brother ,329 Broome  ,Broome  ,329,Broome Street,329.0
933,"Karden Herman, 830, 3d av",Karden Herman ,830 3rd av ,3rd av ,830,3rd Avenue,830.0
934,"Karp Hyman, 46 Essex",Karp Hyman ,46 Essex  ,Essex  ,46,Essex Street,46.0
935,"Kasner Samuel, 137 E Houston",Kasner Samuel ,137 E Houston ,E Houston ,137,Houston Street E,137.0
936,"Katrine John, 21 Mulberry",Katrine John ,21 Mulberry  ,Mulberry  ,21,Mulberry Street,21.0
937,Katz Berthold. 286 E Houston,Katz Berthold ,286 E Houston ,E Houston ,286,Houston Street E,286.0
938,"Kayser Margaret, 68 W 36th",Kayser Margaret ,68 W 36th ,W 36th ,68,W 36th Street,68.0
939,"Kearney Martin, 632, 10th av",Kearney Martin ,632 10th av ,10th av ,632,10th Avenue,632.0
940,"Keck (refused) 583, 3d av",Keck (refused) ,583 3rd av ,3rd av ,583,3rd Avenue,583.0
941,"Keese Charles, 823, 10th av",Keese Charles ,823 10th av ,10th av ,823,10th Avenue,823.0
942,"Kehoe & Power. 423, 6th av",Kehoe & Power ,423 6th av ,6th av ,423,6th Avenue,423.0
943,"Keith & Co, 163 Bway",Keith & Co ,163 Broadway,Broadway,163,Broadway,163.0
944,"Keller Charles. 393, 2d av",Keller Charles ,393 2nd av ,2nd av ,393,2nd Avenue,393.0
945,"Kelley Patrick, Pelham rd, Throgg’s Neck",Kelley Patrick Pelham rd Throgg’s Neck,   ,  ,,,
946,"Kelling Henry, 828, 2d av",Kelling Henry ,828 2nd av ,2nd av ,828,2nd Avenue,828.0
947,"Kelly Bridget, 6 Cath sl",Kelly Bridget ,6 Catherine slip ,Catherine slip ,6,Catherine Slip,6.0
948,"Kelly Darby, 18 Cath sl",Kelly Darby ,18 Catherine slip ,Catherine slip ,18,Catherine Slip,18.0
949,"Kendall George, 8 Rector",Kendall George ,8 Rector  ,Rector  ,8,Rector Street,8.0
950,"Kennedy Brothers, 454 W 27th",Kennedy Brothers ,454 W 27th ,W 27th ,454,W 27th Street,454.0
951,Kennedy & Davis. 113 W 39th,Kennedy & Davis ,113 W 39th ,W 39th ,113,W 39th Street,113.0
952,Kerr J. M. 344 Bleecker,Kerr J M ,344 Bleecker  ,Bleecker  ,344,Bleecker Street,344.0
953,+Kessler Otto. 239 Av B,+Kessler Otto ,239 Av B ,Av B ,239,B Avenue,239.0
954,"+ Ketcham Henry, 637 E 145th",+ Ketcham Henry ,637 E 145th ,E 145th ,637,E 145th Street,637.0
955,"+Kettler John, 204 Av B",+Kettler John ,204 Av B ,Av B ,204,B Avenue,204.0
956,"Keuling Henry, 64 Wooster",Keuling Henry ,64 Wooster  ,Wooster  ,64,Wooster Street,64.0
957,"Keyes James, 416 E 23d",Keyes James ,416 E 23rd ,E 23rd ,416,E 23rd Street,416.0
958,"+Kief John. 950, 1st av",+Kief John ,950 1st av ,1st av ,950,1st Avenue,950.0
959,Kiefler Henry. 201 W 63d,Kiefler Henry ,201 W 63rd ,W 63rd ,201,W 63rd Street,201.0
960,"Kiehl Lena, 411 Canal",Kiehl Lena ,411 Canal  ,Canal  ,411,Canal Street,411.0
961,"Kiernan Thomas, 34 Sheriff",Kiernan Thomas ,34 Sheriff  ,Sheriff  ,34,Sheriff Street,34.0
962,Kligallon Mary A. 181 Christopher,Kligallon Mary A ,181 Christopher  ,Christopher  ,181,Christopher Street,181.0
963,"Kim Sun Low, 16 Pell",Kim Sun Low ,16 Pell  ,Pell  ,16,Pell Street,16.0
964,"Kimpel John, 805, 3d av",Kimpel John ,805 3rd av ,3rd av ,805,3rd Avenue,805.0
965,"Kingsland Anna, 59 Vesey",Kingsland Anna ,59 Vesey  ,Vesey  ,59,Vesey Street,59.0
966,"Kiniry Frances, 500 Grand",Kiniry Frances ,500 Grand st  ,Grand st  ,500,Grand Street,500.0
967,"Kinober Nathan, 266 Division",Kinober Nathan ,266 Division  ,Division  ,266,Division Street,266.0
968,"Kirschner Anna, 35 Pitt",Kirschner Anna ,35 Pitt  ,Pitt  ,35,Pitt Street,35.0
969,"Kitzing Alfred, 130 Church",Kitzing Alfred ,130 Church  ,Church  ,130,Church Street,130.0
970,Klappert August. 128 Church,Klappert August ,128 Church  ,Church  ,128,Church Street,128.0
971,"Klappert Henry J. & Co, 85 Spring & 22 W Houston",Klappert Henry J & Co ,85 Spring  ,Spring  ,85,Spring Street,85.0
972,"Klappert Henry J. & Co, 85 Spring & 22 W Houston",Klappert Henry J & Co ,22 W Houston ,W Houston ,22,Houston Street W,22.0
973,"Klaus Riedl, 110 W 27th",Klaus Riedl ,110 W 27th ,W 27th ,110,W 27th Street,110.0
974,"Klee Adam, 415 E 34th",Klee Adam ,415 E 34th ,E 34th ,415,E 34th Street,415.0
975,"Kleeman William, 67 Manhattan",Kleeman William ,67 Manhattan  ,Manhattan  ,67,Manhattan Street,67.0
976,Klein Anne. 118 Columbia,Klein Anne ,118 Columbia  ,Columbia  ,118,Columbia Street,118.0
977,"Klein Bernhard, 273 E Houston",Klein Bernhard ,273 E Houston ,E Houston ,273,Houston Street E,273.0
978,"Klein Max, 150 Atty",Klein Max ,150 Attorney,Attorney,150,Attorney Street,150.0
979,Klein Rose. 122 Atty,Klein Rose ,122 Attorney,Attorney,122,Attorney Street,122.0
980,"Klein Samuel, 35 Walker",Klein Samuel ,35 Walker  ,Walker  ,35,Walker Street,35.0
981,"Kleinschmldt Henry, 322 Bowery",Kleinschmldt Henry ,322 Bowery  ,Bowery  ,322,Bowery Street,322.0
982,"Klingel Peter, 2303, 8th av",Klingel Peter ,2303 8th av ,8th av ,2303,8th Avenue,2303.0
983,Kloppenburg Henry G. 88 Dey,Kloppenburg Henry G ,88 Dey  ,Dey  ,88,Dey Street,88.0
984,Klopstock R. 162 Spring,Klopstock R ,162 Spring  ,Spring  ,162,Spring Street,162.0
985,"Klyber Samuel, 442 Broome",Klyber Samuel ,442 Broome  ,Broome  ,442,Broome Street,442.0
986,"Kneib Catherine, 21 N Moore",Kneib Catherine ,21 N Moore ,N Moore ,21,Moore Street N,21.0
987,"Koch Jacob, 23 W 3d",Koch Jacob ,23 W 3rd ,W 3rd ,23,W 3rd Street,23.0
988,"+Koemer Richard, 673, 3d av",+Koemer Richard ,673 3rd av ,3rd av ,673,3rd Avenue,673.0
989,Kohring R. & H. W. 13 E 59th,Kohring R & H W ,13 E 59th ,E 59th ,13,E 59th Street,13.0
990,"Kohn & Weiss, 126, 2d av",Kohn & Weiss ,126 2nd av ,2nd av ,126,2nd Avenue,126.0
991,"Kolb Richard, 164 Pearl",Kolb Richard ,164 Pearl  ,Pearl  ,164,Pearl Street,164.0
992,Kolb Valentine. 28 E 18th,Kolb Valentine ,28 E 18th ,E 18th ,28,E 18th Street,28.0
993,"Kolbe John, 273 W Bway",Kolbe John ,273 W Broadway,W Broadway,273,Broadway W,273.0
994,"Kollesch Charles, 518, 11th av",Kollesch Charles ,518 11th av ,11th av ,518,11th Avenue,518.0
995,"+Kolter John. 1535, 3d av",+Kolter John ,1535 3rd av ,3rd av ,1535,3rd Avenue,1535.0
996,"Komerich Charles, 107 W 44th",Komerich Charles ,107 W 44th ,W 44th ,107,W 44th Street,107.0
997,"Konig & Lentin, 294 Broome & 30 Rivington",Konig & Lentin ,294 Broome  ,Broome  ,294,Broome Street,294.0
998,"Konig & Lentin, 294 Broome & 30 Rivington",Konig & Lentin ,30 Rivington  ,Rivington  ,30,Rivington Street,30.0
999,"Hoppialky Oscar, 114 Centre",Hoppialky Oscar ,114 Centre  ,Centre  ,114,Centre Street,114.0
1000,"Korn Henrietta, 8 Jeff mkt",Korn Henrietta ,8 Jefferson mkt ,Jefferson mkt ,8,Jefferson Street,8.0
1001,"Korn Morris, 254 E Houston",Korn Morris ,254 E Houston ,E Houston ,254,Houston Street E,254.0
1002,"Kraeutner Otto, 13, 2d av",Kraeutner Otto ,13 2nd av ,2nd av ,13,2nd Avenue,13.0
1003,Krahm Bernard. 10 E 15th,Krahm Bernard ,10 E 15th ,E 15th ,10,E 15th Street,10.0
1004,Kramer Charles. 123 & 165 Allen,Kramer Charles ,123 Allen st  ,Allen st  ,123,Allen Street,123.0
1005,Kramer Charles. 123 & 165 Allen,Kramer Charles ,165 Allen st  ,Allen st  ,165,Allen Street,165.0
1006,"Kramer Charles, 45 Exch pl",Kramer Charles ,45 Exchange pl ,Exchange pl ,45,Exchange Place,45.0
1007,"Kramer Theodore, 2625, 3d av",Kramer Theodore ,2625 3rd av ,3rd av ,2625,3rd Avenue,2625.0
1008,Kramer Theodore W. 37 Elm,Kramer Theodore W ,37 Elm  ,Elm  ,37,Elm Street,37.0
1009,"Kraus Charles, 49 Fulton",Kraus Charles ,49 Fulton  ,Fulton  ,49,Fulton Street,49.0
1010,"Kraus Frederick, 473 Amsterdam av",Kraus Frederick ,473 Amsterdam av ,Amsterdam av ,473,Amsterdam Avenue,473.0
1011,"Kraus M. & Co, 106, 2d av",Kraus M & Co ,106 2nd av ,2nd av ,106,2nd Avenue,106.0
1012,"Kraus & Riedl, 110 W 27th",Kraus & Riedl ,110 W 27th ,W 27th ,110,W 27th Street,110.0
1013,Krause August. 60 Harrison,Krause August ,60 Harrison  ,Harrison  ,60,Harrison Street,60.0
1014,"Kreiss Adolph, 376 Canal",Kreiss Adolph ,376 Canal  ,Canal  ,376,Canal Street,376.0
1015,"Kreitzmeyer Henry, 17, 1st",Kreitzmeyer Henry ,17 1st  ,1st  ,17,1st Avenue,17.0
1016,"Krim Abraham, 67 Vesey",Krim Abraham ,67 Vesey  ,Vesey  ,67,Vesey Street,67.0
1017,"Krug Henry, 374 1/2 Grand",Krug Henry ,374 Grand st  ,Grand st  ,374,Grand Street,374.0
1018,"Kruger Frederick, 319, 10th av",Kruger Frederick ,319 10th av ,10th av ,319,10th Avenue,319.0
1019,"Kruger Theodore, 589 Bway & 160 Mercer",Kruger Theodore ,589 Broadway,Broadway,589,Broadway,589.0
1020,"Kruger Theodore, 589 Bway & 160 Mercer",Kruger Theodore ,160 Mercer  ,Mercer  ,160,Mercer Street,160.0
1021,Krull John W. 4 Oliver,Krull John W ,4 Oliver  ,Oliver  ,4,Oliver Street,4.0
1022,"Krumm William, 323 E 26th",Krumm William ,323 E 26th ,E 26th ,323,E 26th Street,323.0
1023,"Kruse Frederick, 250 E 79th",Kruse Frederick ,250 E 79th ,E 79th ,250,E 79th Street,250.0
1024,"Kuenstler Max, 10, 2d av",Kuenstler Max ,10 2nd av ,2nd av ,10,2nd Avenue,10.0
1025,Kull David. 78 E 9th,Kull David ,78 E 9th ,E 9th ,78,E 9th Street,78.0
1026,"+Kummer Richard, 673, 3d av",+Kummer Richard ,673 3rd av ,3rd av ,673,3rd Avenue,673.0
1027,"Kummerle Frederick, 1385, 3d av",Kummerle Frederick ,1385 3rd av ,3rd av ,1385,3rd Avenue,1385.0
1028,Kuntz Felix R. 39 E 4th,Kuntz Felix R ,39 E 4th ,E 4th ,39,E 4th Street,39.0
1029,"Kuntz Joseph, 1641, 3d av",Kuntz Joseph ,1641 3rd av ,3rd av ,1641,3rd Avenue,1641.0
1030,"Kupfrian Matilda, 2028, 3d av",Kupfrian Matilda ,2028 3rd av ,3rd av ,2028,3rd Avenue,2028.0
1031,"Kurtz Michael, 31, 2d av",Kurtz Michael ,31 2nd av ,2nd av ,31,2nd Avenue,31.0
1032,"Kutner Abraham, 175 Allen",Kutner Abraham ,175 Allen st  ,Allen st  ,175,Allen Street,175.0
1033,"Labort John, 170 Mulberry",Labort John ,170 Mulberry  ,Mulberry  ,170,Mulberry Street,170.0
1034,"Lachicotte Brothers, 187 Bway",Lachicotte Brothers ,187 Broadway,Broadway,187,Broadway,187.0
1035,"Lademann William, 767, 9th av",Lademann William ,767 9th av ,9th av ,767,9th Avenue,767.0
1036,"Laesser Martha, 275 W 22d",Laesser Martha ,275 W 22nd ,W 22nd ,275,W 22nd Street,275.0
1037,"Lago Frank, 6 James sl",Lago Frank ,6 James slip ,James slip ,6,James Slip,6.0
1038,Lagrange George C. 117 W 34th,Lagrange George C ,117 W 34th ,W 34th ,117,W 34th Street,117.0
1039,"Lake Charlotte, 997, 3d av",Lake Charlotte ,997 3rd av ,3rd av ,997,3rd Avenue,997.0
1040,Lake Mabel E. 909 Columbus av,Lake Mabel E ,909 Columbus av ,Columbus av ,909,Columbus Avenue,909.0
1041,+Lake William W. 375 Bowery,+Lake William W ,375 Bowery  ,Bowery  ,375,Bowery Street,375.0
1042,"Lampe Edward, 113 Water",Lampe Edward ,113 Water st  ,Water st  ,113,Water Street,113.0
1043,"Landes Victoria, 155 W 27th",Landes Victoria ,155 W 27th ,W 27th ,155,W 27th Street,155.0
1044,"Lane Frederick A. & Co, 15 W Houston",Lane Frederick A & Co ,15 W Houston ,W Houston ,15,Houston Street W,15.0
1045,Lang Edward F. 139. 8th,Lang Edward F ,139 8th  ,8th  ,139,8th Avenue,139.0
1046,"Lang Jacob, 75 Barclay",Lang Jacob ,75 Barclay  ,Barclay  ,75,Barclay Street,75.0
1047,Lang John W. 157 E 42d,Lang John W ,157 E 42nd ,E 42nd ,157,E 42nd Street,157.0
1048,"Lang Louis, 723, 11th av",Lang Louis ,723 11th av ,11th av ,723,11th Avenue,723.0
1049,"Lange Charles, 833 Columbus av",Lange Charles ,833 Columbus av ,Columbus av ,833,Columbus Avenue,833.0
1050,"Langsam Michael, 52 Willett",Langsam Michael ,52 Willett  ,Willett  ,52,Willett Street,52.0
1051,"Langsdorf Anton, 1590 Av A",Langsdorf Anton ,1590 Av A ,Av A ,1590,Av A,1590.0
1052,"Langshore & Dunbar, 220, 3d av",Langshore & Dunbar ,220 3rd av ,3rd av ,220,3rd Avenue,220.0
1053,Lantelme Lucy M. 40 Union sq E,Lantelme Lucy M ,40 Union sq E,Union sq E,40,Union Square E,40.0
1054,"Lantelme Theodore, 5 Barclay",Lantelme Theodore ,5 Barclay  ,Barclay  ,5,Barclay Street,5.0
1055,"Laskaropoulos Lazarus, 35 Madison",Laskaropoulos Lazarus ,35 Madison  ,Madison  ,35,Madison Street,35.0
1056,Laskow Abram. 50 Eldridge,Laskow Abram ,50 Eldridge  ,Eldridge  ,50,Eldridge Street,50.0
1057,Latta Frederick E. 14 Cortlandt,Latta Frederick E ,14 Cortlandt  ,Cortlandt  ,14,Cortlandt Street,14.0
1058,"Laughlin J. Edward, 14 Park pl",Laughlin J Edward ,14 Park pl ,Park pl ,14,Park Place,14.0
1059,Laux Charles. 529 W 36th,Laux Charles ,529 W 36th ,W 36th ,529,W 36th Street,529.0
1060,"Lawlor Dennis, 176 W Bway",Lawlor Dennis ,176 W Broadway,W Broadway,176,Broadway W,176.0
1061,Lawson Samuel Q. 107 Water & 76 Clinton mkt,Lawson Samuel Q ,107 Water st  ,Water st  ,107,Water Street,107.0
1062,Lawson Samuel Q. 107 Water & 76 Clinton mkt,Lawson Samuel Q ,76 Clinton mkt ,Clinton mkt ,76,Clinton Place,76.0
1063,"Layman Newton, 80, 6th av",Layman Newton ,80 6th av ,6th av ,80,6th Avenue,80.0
1064,"Lederer Philip, 738 Lex av",Lederer Philip ,738 Lexington av ,Lexington av ,738,Lexington Avenue,738.0
1065,"Lefkovits Frances, 356 E Houston",Lefkovits Frances ,356 E Houston ,E Houston ,356,Houston Street E,356.0
1066,"Lefkovits Joseph, 282 E Houston",Lefkovits Joseph ,282 E Houston ,E Houston ,282,Houston Street E,282.0
1067,"Lefkowits Joseph, 54 Norfolk",Lefkowits Joseph ,54 Norfolk  ,Norfolk  ,54,Norfolk Street,54.0
1068,"+Lehman August, 1100, 3d av",+Lehman August ,1100 3rd av ,3rd av ,1100,3rd Avenue,1100.0
1069,"Lehmann Julius. 204, 9th",Lehmann Julius ,204 9th  ,9th  ,204,9th Avenue,204.0
1070,"Lehrer & Bascal, 6 Bond",Lehrer & Bascal ,6 Bond  ,Bond  ,6,Bond Street,6.0
1071,"+Leiser Ernest, 2215, 5th av",+Leiser Ernest ,2215 5th av ,5th av ,2215,5th Avenue,2215.0
1072,"Lendsen Morris, 44 Essex",Lendsen Morris ,44 Essex  ,Essex  ,44,Essex Street,44.0
1073,"Lenz George, 115 St Mark’s pl",Lenz George ,115 St Mark’s pl,St Mark’s pl,115,Saint Marks Place,115.0
1074,"Leonard ft Whitaker, 389, 3d av",Leonard ft Whitaker ,389 3rd av ,3rd av ,389,3rd Avenue,389.0
1075,Leopold Jacob. 150 Forsyth,Leopold Jacob ,150 Forsyth  ,Forsyth  ,150,Forsyth Street,150.0
1076,"Lerner Henry, 34 W 13th",Lerner Henry ,34 W 13th ,W 13th ,34,W 13th Street,34.0
1077,"Lesser Emil, 105 Church",Lesser Emil ,105 Church  ,Church  ,105,Church Street,105.0
1078,Lettre Susanna. 45 Franklin,Lettre Susanna ,45 Franklin  ,Franklin  ,45,Franklin Street,45.0
1079,"Levenstein & Co, 13 Delancey",Levenstein & Co ,13 Delancey  ,Delancey  ,13,Delancey Street,13.0
1080,"Levithan Morris, 9 Frankfort",Levithan Morris ,9 Frankfort  ,Frankfort  ,9,Frankfort Street,9.0
1081,"Levitsky Louis, 167 E Bway",Levitsky Louis ,167 E Broadway,E Broadway,167,Broadway E,167.0
1082,"Levy William, 182 Chrystie",Levy William ,182 Chrystie  ,Chrystie  ,182,Chrystie Street,182.0
1083,Lewis James W. 414 West,Lewis James W ,414 West st  ,West st  ,414,West Street,414.0
1084,"Lewis Samuel, 1869, 2d av",Lewis Samuel ,1869 2nd av ,2nd av ,1869,2nd Avenue,1869.0
1085,"Libby Oliver, 143 Fulton",Libby Oliver ,143 Fulton  ,Fulton  ,143,Fulton Street,143.0
1086,"Lichtenstadt Oscar. 642, 8th av",Lichtenstadt Oscar ,642 8th av ,8th av ,642,8th Avenue,642.0
1087,Liebenow John. 139 E 13th,Liebenow John ,139 E 13th ,E 13th ,139,E 13th Street,139.0
1088,"Liebman Joseph, 124 Bleecker",Liebman Joseph ,124 Bleecker  ,Bleecker  ,124,Bleecker Street,124.0
1089,"Liebstein Joseph, 70, 9th av",Liebstein Joseph ,70 9th av ,9th av ,70,9th Avenue,70.0
1090,"Lies Frank, 158 W Bway",Lies Frank ,158 W Broadway,W Broadway,158,Broadway W,158.0
1091,"Lifshitz & Karansky, 10 Hester",Lifshitz & Karansky ,10 Hester  ,Hester  ,10,Hester Street,10.0
1092,"Ligeti Aaron, 63, 2d av",Ligeti Aaron ,63 2nd av ,2nd av ,63,2nd Avenue,63.0
1093,Ligeti & Co. 16 Clinton pl,Ligeti & Co ,16 Clinton pl ,Clinton pl ,16,Clinton Place,16.0
1094,"Light Max, 1949, 3d av",Light Max ,1949 3rd av ,3rd av ,1949,3rd Avenue,1949.0
1095,"Liguori Salvatore, 356 E 112th",Liguori Salvatore ,356 E 112th ,E 112th ,356,E 112th Street,356.0
1096,"Lind Isidor, 97 Wooster",Lind Isidor ,97 Wooster  ,Wooster  ,97,Wooster Street,97.0
1097,"Lindinger Frederick, 56 Liberty",Lindinger Frederick ,56 Liberty  ,Liberty  ,56,Liberty Street,56.0
1098,Lingsweiler Charles. 125 Lex av,Lingsweiler Charles ,125 Lexington av ,Lexington av ,125,Lexington Avenue,125.0
1099,"Litzky Abraham, 9 W 3d",Litzky Abraham ,9 W 3rd ,W 3rd ,9,W 3rd Street,9.0
1100,Livingston Felix (estate of) U. S. Barge office,Livingston Felix (estate of) U S Barge office,   ,  ,,,
1101,"Lochman & Leisenring, 12 Old sl",Lochman & Leisenring ,12 Old slip ,Old slip ,12,Old Slip,12.0
1102,"Loekley Henry, 211, 8th av",Loekley Henry ,211 8th av ,8th av ,211,8th Avenue,211.0
1103,"Lodotei Giuseppe, 234 Elizabeth",Lodotei Giuseppe ,234 Elizabeth  ,Elizabeth  ,234,Elizabeth Street,234.0
1104,Loeffke Otto E. 37 John,Loeffke Otto E ,37 John  ,John  ,37,John Street,37.0
1105,"Loefgen & Kraus, 34 W 3d",Loefgen & Kraus ,34 W 3rd ,W 3rd ,34,W 3rd Street,34.0
1106,"Loeser Rosa, 265, 3d av",Loeser Rosa ,265 3rd av ,3rd av ,265,3rd Avenue,265.0
1107,"Loewenstein Max M. 570, 10th av",Loewenstein Max M ,570 10th av ,10th av ,570,10th Avenue,570.0
1108,Loewenthal Louis. 25 Bond,Loewenthal Louis ,25 Bond  ,Bond  ,25,Bond Street,25.0
1109,"Loide Thomas, 106 Av B",Loide Thomas ,106 Av B ,Av B ,106,B Avenue,106.0
1110,"Lokietz Henry, 87 Essex",Lokietz Henry ,87 Essex  ,Essex  ,87,Essex Street,87.0
1111,"Lollo Frank, 357 Broome",Lollo Frank ,357 Broome  ,Broome  ,357,Broome Street,357.0
1112,"Lombardi Nicola, 159 Mott",Lombardi Nicola ,159 Mott  ,Mott  ,159,Mott Street,159.0
1113,"London Bernard, 63 Fulton",London Bernard ,63 Fulton  ,Fulton  ,63,Fulton Street,63.0
1114,Long David C. 56 W 18th,Long David C ,56 W 18th ,W 18th ,56,W 18th Street,56.0
1115,"Lopez Joseph, 137, 3d av",Lopez Joseph ,137 3rd av ,3rd av ,137,3rd Avenue,137.0
1116,"Lorber Adolph, 294 Grand",Lorber Adolph ,294 Grand st  ,Grand st  ,294,Grand Street,294.0
1117,"Lorties Emile, 105 W 28th",Lorties Emile ,105 W 28th ,W 28th ,105,W 28th Street,105.0
1118,"Loster John, 60 Ann",Loster John ,60 Ann  ,Ann  ,60,Ann Street,60.0
1119,"+Lowenstein Herman, 32 Rivington",+Lowenstein Herman ,32 Rivington  ,Rivington  ,32,Rivington Street,32.0
1120,"Lowinger Sophie, 325, 5th",Lowinger Sophie ,325 5th  ,5th  ,325,5th Avenue,325.0
1121,Lowry M. B. 57 Broad,Lowry M B ,57 Broad  ,Broad  ,57,Broad Street,57.0
1122,"Lozinsky Abraham, 56 Norfolk",Lozinsky Abraham ,56 Norfolk  ,Norfolk  ,56,Norfolk Street,56.0
1123,"Lund Harold D. 791, 7th av",Lund Harold D ,791 7th av ,7th av ,791,7th Avenue,791.0
1124,"Lundie James, 81 Thomas",Lundie James ,81 Thomas  ,Thomas  ,81,Thomas Street,81.0
1125,Luniewski Stephen. 76 E 4th,Luniewski Stephen ,76 E 4th ,E 4th ,76,E 4th Street,76.0
1126,"Luster Adolph, 5 St Mark’s pl",Luster Adolph ,5 St Mark’s pl,St Mark’s pl,5,Saint Marks Place,5.0
1127,"Lustgarten Oscar, 44 Delancey",Lustgarten Oscar ,44 Delancey  ,Delancey  ,44,Delancey Street,44.0
1128,"Lurtig Max, 57, 2d av",Lurtig Max ,57 2nd av ,2nd av ,57,2nd Avenue,57.0
1129,"Lyman Ernest, 395, 4th av",Lyman Ernest ,395 4th av ,4th av ,395,4th Avenue,395.0
1130,"Lynch Bernard, 46 Clinton mkt",Lynch Bernard ,46 Clinton mkt ,Clinton mkt ,46,Clinton Place,46.0
1131,"Lynch Thomas F. 334, 8th av",Lynch Thomas F ,334 8th av ,8th av ,334,8th Avenue,334.0
1132,Lyons Michael F. 259 Bowery,Lyons Michael F ,259 Bowery  ,Bowery  ,259,Bowery Street,259.0
1133,"McCafferty James, 290 Hudson",McCafferty James ,290 Hudson  ,Hudson  ,290,Hudson Street,290.0
1134,"McCarthy William J. 420, 3d av",McCarthy William J ,420 3rd av ,3rd av ,420,3rd Avenue,420.0
1135,"McCormack Ann, 309 E 34th",McCormack Ann ,309 E 34th ,E 34th ,309,E 34th Street,309.0
1136,"McCusker Robert, 346 Hudson",McCusker Robert ,346 Hudson  ,Hudson  ,346,Hudson Street,346.0
1137,"McDermott Mary, 47, 9th av",McDermott Mary ,47 9th av ,9th av ,47,9th Avenue,47.0
1138,"McDermott Terence, 254, 10th av",McDermott Terence ,254 10th av ,10th av ,254,10th Avenue,254.0
1139,"McDonald Bernard, 103 Park row",McDonald Bernard ,103 Park row ,Park row ,103,Park Row,103.0
1140,McDonald Edward H. 304 Bowery,McDonald Edward H ,304 Bowery  ,Bowery  ,304,Bowery Street,304.0
1141,"McDonald James, 92 South",McDonald James ,92 South  ,South  ,92,South Street,92.0
1142,McDonald Patrick J. 1446 Bway,McDonald Patrick J ,1446 Broadway,Broadway,1446,Broadway,1446.0
1143,"McGill & Sears, 112 Front",McGill & Sears ,112 Front  ,Front  ,112,Front Street,112.0
1144,"McGinley James, 2012, 3d av",McGinley James ,2012 3rd av ,3rd av ,2012,3rd Avenue,2012.0
1145,"McGough Joseph, 62 E 125th",McGough Joseph ,62 E 125th ,E 125th ,62,E 125th Street,62.0
1146,"McGuinness Michael, 293, 3d av",McGuinness Michael ,293 3rd av ,3rd av ,293,3rd Avenue,293.0
1147,McIntosh Robert S. 443 Hudson & 23 Bedford,McIntosh Robert S ,443 Hudson  ,Hudson  ,443,Hudson Street,443.0
1148,McIntosh Robert S. 443 Hudson & 23 Bedford,McIntosh Robert S ,23 Bedford  ,Bedford  ,23,Bedford Street,23.0
1149,McKibbin F. E. 404 W 14th,McKibbin F E ,404 W 14th ,W 14th ,404,W 14th Street,404.0
1150,"McLoughlin James, 835, 10th av",McLoughlin James ,835 10th av ,10th av ,835,10th Avenue,835.0
1151,"McMahon John, 472, 6th av",McMahon John ,472 6th av ,6th av ,472,6th Avenue,472.0
1152,"McMahon Owen, 12th av n W 132d",McMahon Owen ,12th av n W,av n W,12th,West Avenue,12.0
1153,"McMahon Peter, 124, 3d av",McMahon Peter ,124 3rd av ,3rd av ,124,3rd Avenue,124.0
1154,"McMahon Terence, 499, 3d av",McMahon Terence ,499 3rd av ,3rd av ,499,3rd Avenue,499.0
1155,"McManus Charles, 358 Boulevard",McManus Charles ,358 Boulevard  ,Boulevard  ,358,Boulevard Street,358.0
1156,"+McManus Michael, 1503, 3d av",+McManus Michael ,1503 3rd av ,3rd av ,1503,3rd Avenue,1503.0
1157,McManus Owen B. 144 Liberty,McManus Owen B ,144 Liberty  ,Liberty  ,144,Liberty Street,144.0
1158,"McNulty John. 2370, 3d av",McNulty John ,2370 3rd av ,3rd av ,2370,3rd Avenue,2370.0
1159,"McSherry Ellen. 520, 11th av",McSherry Ellen ,520 11th av ,11th av ,520,11th Avenue,520.0
1160,McVey George H. 482 Hudson,McVey George H ,482 Hudson  ,Hudson  ,482,Hudson Street,482.0
1161,"Maas Louis, 97 Division",Maas Louis ,97 Division  ,Division  ,97,Division Street,97.0
1162,Mace Montgomery. 428 Lex av,Mace Montgomery ,428 Lexington av ,Lexington av ,428,Lexington Avenue,428.0
1163,"Mack Jacob, 294 Gwich",Mack Jacob ,294 Greenwich,Greenwich,294,Greenwich Street,294.0
1164,Mackee Horace E. 149 W 23d & 36 W 18th,Mackee Horace E ,149 W 23rd ,W 23rd ,149,W 23rd Street,149.0
1165,Mackee Horace E. 149 W 23d & 36 W 18th,Mackee Horace E ,36 W 18th ,W 18th ,36,W 18th Street,36.0
1166,"Mackee & Downey, 36 W 18th",Mackee & Downey ,36 W 18th ,W 18th ,36,W 18th Street,36.0
1167,Macklin Lulu C. 2906 Jerome av,Macklin Lulu C ,2906 Jerome av ,Jerome av ,2906,Jerome Avenue,2906.0
1168,Madison James H. 152 W 53d,Madison James H ,152 W 53rd ,W 53rd ,152,W 53rd Street,152.0
1169,"Maggiolo James, 319 Gwich & 90 Murray",Maggiolo James ,319 Greenwich,Greenwich,319,Greenwich Street,319.0
1170,"Maggiolo James, 319 Gwich & 90 Murray",Maggiolo James ,90 Murray  ,Murray  ,90,Murray Street,90.0
1171,"Maichel Charles, 674, 3d av",Maichel Charles ,674 3rd av ,3rd av ,674,3rd Avenue,674.0
1172,"Malchiodi & Tezoriere, 300 Bowery",Malchiodi & Tezoriere ,300 Bowery  ,Bowery  ,300,Bowery Street,300.0
1173,"Mallach Charles, 125 West",Mallach Charles ,125 West st  ,West st  ,125,West Street,125.0
1174,"Manfredonio Serafino, 174 Mulberry",Manfredonio Serafino ,174 Mulberry  ,Mulberry  ,174,Mulberry Street,174.0
1175,"Manhattan East Side Mission, 416 E 26th",Manhattan East Side Mission ,416 E 26th ,E 26th ,416,E 26th Street,416.0
1176,"Manzoni Baidassarre, 110 Chambers",Manzoni Baidassarre ,110 Chambers  ,Chambers  ,110,Chambers Street,110.0
1177,"Marchand Auguste, 147 Duane",Marchand Auguste ,147 Duane  ,Duane  ,147,Duane Street,147.0
1178,Mardegias John. 438 W 40th,Mardegias John ,438 W 40th ,W 40th ,438,W 40th Street,438.0
1179,"Mark Charles, 59, 1st av",Mark Charles ,59 1st av ,1st av ,59,1st Avenue,59.0
1180,"Markowitz Ansel, 67 Eldridge",Markowitz Ansel ,67 Eldridge  ,Eldridge  ,67,Eldridge Street,67.0
1181,"Marquart Henry, 2196, 2d av",Marquart Henry ,2196 2nd av ,2nd av ,2196,2nd Avenue,2196.0
1182,Marsh John F. 71 Spring,Marsh John F ,71 Spring  ,Spring  ,71,Spring Street,71.0
1183,"Marshall Anna, 417 E 34th",Marshall Anna ,417 E 34th ,E 34th ,417,E 34th Street,417.0
1184,Marshall Lillie. 225 W 27th,Marshall Lillie ,225 W 27th ,W 27th ,225,W 27th Street,225.0
1185,"Martens Frederick, 237, 5th",Martens Frederick ,237 5th  ,5th  ,237,5th Avenue,237.0
1186,"+Martin John, 240 Fulton mkt",+Martin John ,240 Fulton mkt ,Fulton mkt ,240,Fulton Street,240.0
1187,"Martin Joseph, 150, 3d av",Martin Joseph ,150 3rd av ,3rd av ,150,3rd Avenue,150.0
1188,Martin Samuel W. 1437 Bway,Martin Samuel W ,1437 Broadway,Broadway,1437,Broadway,1437.0
1189,Marx Felix. 193 Mercer,Marx Felix ,193 Mercer  ,Mercer  ,193,Mercer Street,193.0
1190,"Masira Joseph, 86 West",Masira Joseph ,86 West st  ,West st  ,86,West Street,86.0
1191,Matthews Julia A. 340 W 37th,Matthews Julia A ,340 W 37th ,W 37th ,340,W 37th Street,340.0
1192,Mauer George. 2323 2d av,Mauer George ,2323 2nd av ,2nd av ,2323,2nd Avenue,2323.0
1193,May Ernest S. 50 W 28th,May Ernest S ,50 W 28th ,W 28th ,50,W 28th Street,50.0
1194,"Mayer Joseph, 265 Bowery",Mayer Joseph ,265 Bowery  ,Bowery  ,265,Bowery Street,265.0
1195,"Mayer Morris, 56 Ludlow",Mayer Morris ,56 Ludlow  ,Ludlow  ,56,Ludlow Street,56.0
1196,Mearshimer George. 61 Centre,Mearshimer George ,61 Centre  ,Centre  ,61,Centre Street,61.0
1197,Medersohn Ernst A. 250 W 116th,Medersohn Ernst A ,250 W 116th ,W 116th ,250,W 116th Street,250.0
1198,"Medhurst Stephen, 12 West",Medhurst Stephen ,12 West st  ,West st  ,12,West Street,12.0
1199,"Mee Hong Low & Co, 14 Mott",Mee Hong Low & Co ,14 Mott  ,Mott  ,14,Mott Street,14.0
1200,"Mehrtens Bernhard, 339 Spring",Mehrtens Bernhard ,339 Spring  ,Spring  ,339,Spring Street,339.0
1201,"Meier Martin, 74 Maiden la",Meier Martin ,74 Maiden ln ,Maiden ln ,74,Maiden Lane,74.0
1202,Meisel Anne. 207 E Bway,Meisel Anne ,207 E Broadway,E Broadway,207,Broadway E,207.0
1203,"Meisels Louis, 40 W 4th",Meisels Louis ,40 W 4th ,W 4th ,40,W 4th Street,40.0
1204,"Meita Prosper, 20 Cornelia",Meita Prosper ,20 Cornelia  ,Cornelia  ,20,Cornelia Street,20.0
1205,Mellen John L. 126 West,Mellen John L ,126 West st  ,West st  ,126,West Street,126.0
1206,"Mennri Michael, r 260 Elizabeth",Mennri Michael r ,260 Elizabeth  ,Elizabeth  ,260,Elizabeth Street,260.0
1207,Mergenthaler John N. 198 Centre,Mergenthaler John N ,198 Centre  ,Centre  ,198,Centre Street,198.0
1208,"+Merkel William, 224 Chrystie",+Merkel William ,224 Chrystie  ,Chrystie  ,224,Chrystie Street,224.0
1209,"Messer Pennock, 183, 6th av",Messer Pennock ,183 6th av ,6th av ,183,6th Avenue,183.0
1210,Messere Samuel. 115 Mulberry,Messere Samuel ,115 Mulberry  ,Mulberry  ,115,Mulberry Street,115.0
1211,"Messet John, 1984 Park av",Messet John ,1984 Park av ,Park av ,1984,Park Avenue,1984.0
1212,"Messner & Freienstein, 812, 8th av",Messner & Freienstein ,812 8th av ,8th av ,812,8th Avenue,812.0
1213,"Metivier Ernestine, 628, 6th av",Metivier Ernestine ,628 6th av ,6th av ,628,6th Avenue,628.0
1214,"Metropolis Nicholas, 202 E 31st",Metropolis Nicholas ,202 E 31st ,E 31st ,202,E 31st Street,202.0
1215,"Metzger Benjamin, 105 Walker",Metzger Benjamin ,105 Walker  ,Walker  ,105,Walker Street,105.0
1216,"Meyer Anna, 36 Desbrosses",Meyer Anna ,36 Desbrosses  ,Desbrosses  ,36,Desbrosses Street,36.0
1217,Meyer Anton H. 229 Bway & 1 Barclay,Meyer Anton H ,229 Broadway,Broadway,229,Broadway,229.0
1218,"Meyer Anne, 134 W 27th",Meyer Anne ,134 W 27th ,W 27th ,134,W 27th Street,134.0
1219,Meyer Anton H. 229 Bway & 1 Barclay,Meyer Anton H ,1 Barclay  ,Barclay  ,1,Barclay Street,1.0
1220,"Meyer Charles H. 2553, 3d av",Meyer Charles H ,2553 3rd av ,3rd av ,2553,3rd Avenue,2553.0
1221,"Meyer Emil, 563 Hudson",Meyer Emil ,563 Hudson  ,Hudson  ,563,Hudson Street,563.0
1222,"Meyer Frederick, 219 1/2 Greene",Meyer Frederick ,219 Greene  ,Greene  ,219,Greene Street,219.0
1223,"Meyer George, 44 Franklin",Meyer George ,44 Franklin  ,Franklin  ,44,Franklin Street,44.0
1224,"Meyer Gustav, 3 W 3d",Meyer Gustav ,3 W 3rd ,W 3rd ,3,W 3rd Street,3.0
1225,"Meyer Henrietta, 53 Harrison",Meyer Henrietta ,53 Harrison  ,Harrison  ,53,Harrison Street,53.0
1226,"Meyer Jacob, 85 Eldridge",Meyer Jacob ,85 Eldridge  ,Eldridge  ,85,Eldridge Street,85.0
1227,Meyer John. 413. 2d av,Meyer John ,413 2nd av ,2nd av ,413,2nd Avenue,413.0
1228,Meyer Peter J. 871 Brook av,Meyer Peter J ,871 Brook av ,Brook av ,871,Brook Avenue,871.0
1229,Meyer & Winkelmann. 273 Bowery,Meyer & Winkelmann ,273 Bowery  ,Bowery  ,273,Bowery Street,273.0
1230,"Michaelis Herman, 219 Chrystie",Michaelis Herman ,219 Chrystie  ,Chrystie  ,219,Chrystie Street,219.0
1231,"Michaelis Herman, 118 Prince",Michaelis Herman ,118 Prince  ,Prince  ,118,Prince Street,118.0
1232,Michaels Henry W. 41 E Houston,Michaels Henry W ,41 E Houston ,E Houston ,41,Houston Street E,41.0
1233,"Michaels James, 23.3 Bowery",Michaels James ,233 Bowery  ,Bowery  ,233,Bowery Street,233.0
1234,Mieheletti Terese S. 109 W 38th,Mieheletti Terese S ,109 W 38th ,W 38th ,109,W 38th Street,109.0
1235,Middleton Solomon S. 84 William,Middleton Solomon S ,84 William  ,William  ,84,William Street,84.0
1236,"Milan Madeline, 112 W 29th",Milan Madeline ,112 W 29th ,W 29th ,112,W 29th Street,112.0
1237,"+Milbert Leonard, 300 Stanton",+Milbert Leonard ,300 Stanton  ,Stanton  ,300,Stanton Street,300.0
1238,"Miller August, 201 Chrystie",Miller August ,201 Chrystie  ,Chrystie  ,201,Chrystie Street,201.0
1239,"Miller Charles, 21 Albany",Miller Charles ,21 Albany  ,Albany  ,21,Albany Street,21.0
1240,"Miller Frederick, 620 Grand",Miller Frederick ,620 Grand st  ,Grand st  ,620,Grand Street,620.0
1241,"Miller James, 450 W 14th",Miller James ,450 W 14th ,W 14th ,450,W 14th Street,450.0
1242,"Miller Julius, 1331 Tremont av",Miller Julius ,1331 Tremont av ,Tremont av ,1331,Tremont Avenue,1331.0
1243,"Miller Michael, 194 Av C",Miller Michael ,194 Av C ,Av C ,194,C Avenue,194.0
1244,"Mink John H. 426, 6th av",Mink John H ,426 6th av ,6th av ,426,6th Avenue,426.0
1245,Minns John R. Westchester av Westchester,Minns John R Westchester av Westchester,   ,  ,,,
1246,"Mischier Wendel, 156 Spring",Mischier Wendel ,156 Spring  ,Spring  ,156,Spring Street,156.0
1247,Miserocchi Felix. 44 E 21st,Miserocchi Felix ,44 E 21st ,E 21st ,44,E 21st Street,44.0
1248,"Mizzano Ricardo, 58 Mulberry",Mizzano Ricardo ,58 Mulberry  ,Mulberry  ,58,Mulberry Street,58.0
1249,"Mock R. & Son, 145 W 42d",Mock R & Son ,145 W 42nd ,W 42nd ,145,W 42nd Street,145.0
1250,"Mocsar Michael, 76 E Houston",Mocsar Michael ,76 E Houston ,E Houston ,76,Houston Street E,76.0
1251,"Moewes Charles, 158, 7th av",Moewes Charles ,158 7th av ,7th av ,158,7th Avenue,158.0
1252,"Mollfein Frederick, 222 Chrystie",Mollfein Frederick ,222 Chrystie  ,Chrystie  ,222,Chrystie Street,222.0
1253,"Molloy Edward, 783, 7th av",Molloy Edward ,783 7th av ,7th av ,783,7th Avenue,783.0
1254,"+Molloy John J. 518, 1st av & 47 E 105th",+Molloy John J ,518 1st av ,1st av ,518,1st Avenue,518.0
1255,"+Molloy John J. 518, 1st av & 47 E 105th",+Molloy John J ,47 E 105th ,E 105th ,47,E 105th Street,47.0
1256,"Mon Lay Won, 24 Pell",Mon Lay Won ,24 Pell  ,Pell  ,24,Pell Street,24.0
1257,"Monaghan John, 21 West",Monaghan John ,21 West st  ,West st  ,21,West Street,21.0
1258,"Moncrieff C. R. 1215, 3d av",Moncrieff C R ,1215 3rd av ,3rd av ,1215,3rd Avenue,1215.0
1259,"Montez Roman, 129 W 30th",Montez Roman ,129 W 30th ,W 30th ,129,W 30th Street,129.0
1260,"Montgomey Richard, 1348 Amsterdam av",Montgomey Richard ,1348 Amsterdam av ,Amsterdam av ,1348,Amsterdam Avenue,1348.0
1261,Moore Abijali L. 80 Varick,Moore Abijali L ,80 Varick  ,Varick  ,80,Varick Street,80.0
1262,"Moore George S. 1173, 2d av",Moore George S ,1173 2nd av ,2nd av ,1173,2nd Avenue,1173.0
1263,Moore Jesse E. 220 W 14th,Moore Jesse E ,220 W 14th ,W 14th ,220,W 14th Street,220.0
1264,+Moore John H. 169 E Bway,+Moore John H ,169 E Broadway,E Broadway,169,Broadway E,169.0
1265,"Moran Alice, 243 Wooster",Moran Alice ,243 Wooster  ,Wooster  ,243,Wooster Street,243.0
1266,"Moran Hannah, 5 N Moore",Moran Hannah ,5 N Moore ,N Moore ,5,Moore Street N,5.0
1267,Morello Angelo. 4 W 29th,Morello Angelo ,4 W 29th ,W 29th ,4,W 29th Street,4.0
1268,MORETTI S. 22 E 21st.,MORETTI S ,22 E 21st ,E 21st ,22,E 21st Street,22.0
1269,"Morgan Joseph, 217 Spring",Morgan Joseph ,217 Spring  ,Spring  ,217,Spring Street,217.0
1270,"Mori & Lorenzi, 144 Bleecker",Mori & Lorenzi ,144 Bleecker  ,Bleecker  ,144,Bleecker Street,144.0
1271,"Moritz Max, 297 Bowery",Moritz Max ,297 Bowery  ,Bowery  ,297,Bowery Street,297.0
1272,"Morlotti Fernand, 26 Walker",Morlotti Fernand ,26 Walker  ,Walker  ,26,Walker Street,26.0
1273,Morris D. 81 Baxter,Morris D ,81 Baxter  ,Baxter  ,81,Baxter Street,81.0
1274,"Morris Patrick, 530, 8th av",Morris Patrick ,530 8th av ,8th av ,530,8th Avenue,530.0
1275,Morrison Henry P. 210 West,Morrison Henry P ,210 West st  ,West st  ,210,West Street,210.0
1276,Morse Edwin R. 124 1/2 Park av,Morse Edwin R ,124 Park av ,Park av ,124,Park Avenue,124.0
1277,Morton John J. Sedgwick av n Depot pl,Morton John J Sedgwick av n Depot pl,   ,  ,,,
1278,"Mosenbesser Moritz, 64 Clinton",Mosenbesser Moritz ,64 Clinton  ,Clinton  ,64,Clinton Street,64.0
1279,"Mouquin Restaurant & Wine Co (Ltd) 149 Fulton, 20 Ann & 438 & 456, 6th av",Mouquin Restaurant & Wine Co (Ltd) ,149 Fulton  ,Fulton  ,149,Fulton Street,149.0
1280,"Mouquin Restaurant & Wine Co (Ltd) 149 Fulton, 20 Ann & 438 & 456, 6th av",Mouquin Restaurant & Wine Co (Ltd) ,20 Ann  ,Ann  ,20,Ann Street,20.0
1281,"Mouquin Restaurant & Wine Co (Ltd) 149 Fulton, 20 Ann & 438 & 456, 6th av",Mouquin Restaurant & Wine Co (Ltd) ,438 6th av ,6th av ,438,6th Avenue,438.0
1282,"Mouquin Restaurant & Wine Co (Ltd) 149 Fulton, 20 Ann & 438 & 456, 6th av",Mouquin Restaurant & Wine Co (Ltd) ,456 6th av ,6th av ,456,6th Avenue,456.0
1283,"Muhlhofer George, 203 Chrystie",Muhlhofer George ,203 Chrystie  ,Chrystie  ,203,Chrystie Street,203.0
1284,"Mulford Lamonte, 590, 10th av",Mulford Lamonte ,590 10th av ,10th av ,590,10th Avenue,590.0
1285,"Muller Adam, 388 Canal",Muller Adam ,388 Canal  ,Canal  ,388,Canal Street,388.0
1286,"+Muller Frank, 135 E Houston",+Muller Frank ,135 E Houston ,E Houston ,135,Houston Street E,135.0
1287,"Muller Frederick, 32 Stanton",Muller Frederick ,32 Stanton  ,Stanton  ,32,Stanton Street,32.0
1288,"Muller Gustave, 229 Av C",Muller Gustave ,229 Av C ,Av C ,229,C Avenue,229.0
1289,"+Muller Henry, 869, 1st av",+Muller Henry ,869 1st av ,1st av ,869,1st Avenue,869.0
1290,"+Muller John, 201 Av A",+Muller John ,201 Av A ,Av A ,201,Av A,201.0
1291,"+Muller Joseph, 37 Stanton",+Muller Joseph ,37 Stanton  ,Stanton  ,37,Stanton Street,37.0
1292,"Muller Kunigunda, 101 Prince",Muller Kunigunda ,101 Prince  ,Prince  ,101,Prince Street,101.0
1293,"Muller Theodore, 538 Grand",Muller Theodore ,538 Grand st  ,Grand st  ,538,Grand Street,538.0
1294,"Mumirlie George, 186 1/2 South",Mumirlie George ,186 South  ,South  ,186,South Street,186.0
1295,"Murley Lawrence & Co, 436 Washn mkt",Murley Lawrence & Co ,436 Washington mkt ,Washington mkt ,436,Washington Place,436.0
1296,"+Murphy Jeremiah, 73 Roosevelt",+Murphy Jeremiah ,73 Roosevelt  ,Roosevelt  ,73,Roosevelt Street,73.0
1297,"Murphy Matthew, 354 Gwich",Murphy Matthew ,354 Greenwich,Greenwich,354,Greenwich Street,354.0
1298,"Murray Matthew, 2356, 3d av",Murray Matthew ,2356 3rd av ,3rd av ,2356,3rd Avenue,2356.0
1299,Muschenheim William C. 39 W 31st,Muschenheim William C ,39 W 31st ,W 31st ,39,W 31st Street,39.0
1300,Muth Theodore P. 389 West,Muth Theodore P ,389 West st  ,West st  ,389,West Street,389.0
1301,Naething Arthur R. 436 Broome,Naething Arthur R ,436 Broome  ,Broome  ,436,Broome Street,436.0
1302,Naething William H. 33 Cortlandt,Naething William H ,33 Cortlandt  ,Cortlandt  ,33,Cortlandt Street,33.0
1303,"Naething Brothers, 118 Fulton, 15 Dutch, 360 Canal & 19 Lispenard",Naething Brothers ,118 Fulton  ,Fulton  ,118,Fulton Street,118.0
1304,"Naething Brothers, 118 Fulton, 15 Dutch, 360 Canal & 19 Lispenard",Naething Brothers ,15 Dutch  ,Dutch  ,15,Dutch Street,15.0
1305,"Naething Brothers, 118 Fulton, 15 Dutch, 360 Canal & 19 Lispenard",Naething Brothers ,360 Canal  ,Canal  ,360,Canal Street,360.0
1306,"Naething Brothers, 118 Fulton, 15 Dutch, 360 Canal & 19 Lispenard",Naething Brothers ,19 Lispenard  ,Lispenard  ,19,Lispenard Street,19.0
1307,"Naftolowitz Joseph, 8 Walker",Naftolowitz Joseph ,8 Walker  ,Walker  ,8,Walker Street,8.0
1308,Naftilowitz Morris 168 Wooster,Naftilowitz Morris ,168 Wooster  ,Wooster  ,168,Wooster Street,168.0
1309,"+Nantel Henry, 301 W 35th",+Nantel Henry ,301 W 35th ,W 35th ,301,W 35th Street,301.0
1310,Nardiello Salvadore 29 Prince,Nardiello Salvadore ,29 Prince  ,Prince  ,29,Prince Street,29.0
1311,"Nassau Buffet, 83 Nassau",Nassau Buffet ,83 Nassau,Nassau,83,Nassau Street,83.0
1312,"Natoli Joseph, 154 W Bway",Natoli Joseph ,154 W Broadway,W Broadway,154,Broadway W,154.0
1313,"Nehrs John, 815, 1st av",Nehrs John ,815 1st av ,1st av ,815,1st Avenue,815.0
1314,"Neidhardt Theodore, 271, 3d av",Neidhardt Theodore ,271 3rd av ,3rd av ,271,3rd Avenue,271.0
1315,"Nemirowsky Abraham, 215 Wooster & 53 W 3d",Nemirowsky Abraham ,215 Wooster  ,Wooster  ,215,Wooster Street,215.0
1316,"Nemirowsky Abraham, 215 Wooster & 53 W 3d",Nemirowsky Abraham ,53 W 3rd ,W 3rd ,53,W 3rd Street,53.0
1317,Neumann Michael J. 14 Delancey,Neumann Michael J ,14 Delancey  ,Delancey  ,14,Delancey Street,14.0
1318,"Neumann Brothers, 387 Canal & 141 W Bway",Neumann Brothers ,387 Canal  ,Canal  ,387,Canal Street,387.0
1319,"Neumann Brothers, 387 Canal & 141 W Bway",Neumann Brothers ,141 W Broadway,W Broadway,141,Broadway W,141.0
1320,"Neumayer Ignatz. 89, 2d av",Neumayer Ignatz ,89 2nd av ,2nd av ,89,2nd Avenue,89.0
1321,"Neumuller & Schaefer, 4 Union sq E",Neumuller & Schaefer ,4 Union sq E,Union sq E,4,Union Square E,4.0
1322,"Nevins Daniel, 607 Grand",Nevins Daniel ,607 Grand st  ,Grand st  ,607,Grand Street,607.0
1323,"N Y Buffet Co, 167 Bway",N Y Buffet Co ,167 Broadway,Broadway,167,Broadway,167.0
1324,"N Y Diet Kitchen Assn, 137 Centre & 347, 2d av",N Y Diet Kitchen Assn ,137 Centre  ,Centre  ,137,Centre Street,137.0
1325,"N Y Diet Kitchen Assn, 137 Centre & 347, 2d av",N Y Diet Kitchen Assn ,347 2nd av ,2nd av ,347,2nd Avenue,347.0
1326,N Y Hotel & Restaurant Co (Ltd) 70 Liberty & 13 Cortlandt,N Y Hotel & Restaurant Co (Ltd) ,70 Liberty  ,Liberty  ,70,Liberty Street,70.0
1327,N Y Hotel & Restaurant Co (Ltd) 70 Liberty & 13 Cortlandt,N Y Hotel & Restaurant Co (Ltd) ,13 Cortlandt  ,Cortlandt  ,13,Cortlandt Street,13.0
1328,"Newby Benjamin T. 240, 3d av",Newby Benjamin T ,240 3rd av ,3rd av ,240,3rd Avenue,240.0
1329,"Newman & Asheim, 76 2d av",Newman & Asheim ,76 2nd av ,2nd av ,76,2nd Avenue,76.0
1330,"Nickel W. A. & Son, 242 West",Nickel W A & Son ,242 West st  ,West st  ,242,West Street,242.0
1331,"Nickles John, 400, 10th av",Nickles John ,400 10th av ,10th av ,400,10th Avenue,400.0
1332,Niegsch August. 214 Canal,Niegsch August ,214 Canal  ,Canal  ,214,Canal Street,214.0
1333,Nienburg Bernard. 397 West,Nienburg Bernard ,397 West st  ,West st  ,397,West Street,397.0
1334,"Nikolaus John. 121, 2d av",Nikolaus John ,121 2nd av ,2nd av ,121,2nd Avenue,121.0
1335,Niven De Witt C. 123 E 23d,Niven De Witt C ,123 E 23rd ,E 23rd ,123,E 23rd Street,123.0
1336,"Noakes George, 69 Park pl",Noakes George ,69 Park pl ,Park pl ,69,Park Place,69.0
1337,Nord Anna. 50 E 4th,Nord Anna ,50 E 4th ,E 4th ,50,E 4th Street,50.0
1338,Norman Henry. 212 W 42d,Norman Henry ,212 W 42nd ,W 42nd ,212,W 42nd Street,212.0
1339,"Nuis Henry, 1555, 2d av",Nuis Henry ,1555 2nd av ,2nd av ,1555,2nd Avenue,1555.0
1340,"Nusenblatt George, 137 Eldridge",Nusenblatt George ,137 Eldridge  ,Eldridge  ,137,Eldridge Street,137.0
1341,"Oberst Leopold, 206 Church & 42 Thomas",Oberst Leopold ,206 Church  ,Church  ,206,Church Street,206.0
1342,"Oberst Leopold, 206 Church & 42 Thomas",Oberst Leopold ,42 Thomas  ,Thomas  ,42,Thomas Street,42.0
1343,"O'Brien Michael. 2344, 8th av",O'Brien Michael ,2344 8th av ,8th av ,2344,8th Avenue,2344.0
1344,"Occhipinti & Gristofolo, 3 State",Occhipinti & Gristofolo ,3 State  ,State  ,3,State Street,3.0
1345,+Ockendon William T. 53 W 3d,+Ockendon William T ,53 W 3rd ,W 3rd ,53,W 3rd Street,53.0
1346,"O’Connell James, 862. 3d av",O’Connell James ,862 3rd av ,3rd av ,862,3rd Avenue,862.0
1347,"O’Connell John J, 459 W 31st",O’Connell John J ,459 W 31st ,W 31st ,459,W 31st Street,459.0
1348,"O’Connell Michael, 61 Watts",O’Connell Michael ,61 Watts  ,Watts  ,61,Watts Street,61.0
1349,O’Connor Michael. 300 E 23d,O’Connor Michael ,300 E 23rd ,E 23rd ,300,E 23rd Street,300.0
1350,"O’Donnell Catharine, 7 Pell",O’Donnell Catharine ,7 Pell  ,Pell  ,7,Pell Street,7.0
1351,"O’Hare Thomas, 152 Prince",O’Hare Thomas ,152 Prince  ,Prince  ,152,Prince Street,152.0
1352,"O’Keefe William, 672, 1st av",O’Keefe William ,672 1st av ,1st av ,672,1st Avenue,672.0
1353,"O’Leary Jane, 36, 3d av",O’Leary Jane ,36 3rd av ,3rd av ,36,3rd Avenue,36.0
1354,"Oliver Thomas W. 226, 8th av",Oliver Thomas W ,226 8th av ,8th av ,226,8th Avenue,226.0
1355,"O’Neil John. 2287, 8th av",O’Neil John ,2287 8th av ,8th av ,2287,8th Avenue,2287.0
1356,"O’Neill Andrew F. 53 Clinton mkt & 385, 3d av",O’Neill Andrew F ,53 Clinton mkt ,Clinton mkt ,53,Clinton Place,53.0
1357,"O’Neill Andrew F. 53 Clinton mkt & 385, 3d av",O’Neill Andrew F ,385 3rd av ,3rd av ,385,3rd Avenue,385.0
1358,"O'Neill Daniel J. 455, 3d av",O'Neill Daniel J ,455 3rd av ,3rd av ,455,3rd Avenue,455.0
1359,"O’Neill Sarah, 358 & 366, 6th av",O’Neill Sarah ,358 6th av ,6th av ,358,6th Avenue,358.0
1360,"O’Neill Sarah, 358 & 366, 6th av",O’Neill Sarah ,366 6th av ,6th av ,366,6th Avenue,366.0
1361,Orcutt Edwin B. 198 Bway,Orcutt Edwin B ,198 Broadway,Broadway,198,Broadway,198.0
1362,"O’Reilly Henry, 306 W 13th",O’Reilly Henry ,306 W 13th ,W 13th ,306,W 13th Street,306.0
1363,"Ortmann Frederick, 253 Canal",Ortmann Frederick ,253 Canal  ,Canal  ,253,Canal Street,253.0
1364,"Osborne Anna, 283. 8th av",Osborne Anna ,283 8th av ,8th av ,283,8th Avenue,283.0
1365,Osswald Herman. 217 Hester,Osswald Herman ,217 Hester  ,Hester  ,217,Hester Street,217.0
1366,"Oswald John. 1226, 2d av",Oswald John ,1226 2nd av ,2nd av ,1226,2nd Avenue,1226.0
1367,Ott Joseph. 15 Bible h,Ott Joseph ,15 Bible h ,Bible h ,15,Bible h,15.0
1368,"Otte Emma, 56 E 4th",Otte Emma ,56 E 4th ,E 4th ,56,E 4th Street,56.0
1369,Otto Frank. 170 Forsyth,Otto Frank ,170 Forsyth  ,Forsyth  ,170,Forsyth Street,170.0
1370,"Otto Gustav, 209 & 217 Chrystie",Otto Gustav ,209 Chrystie  ,Chrystie  ,209,Chrystie Street,209.0
1371,"Otto Gustav, 209 & 217 Chrystie",Otto Gustav ,217 Chrystie  ,Chrystie  ,217,Chrystie Street,217.0
1372,"Pagano Louis, 106 E 125th",Pagano Louis ,106 E 125th ,E 125th ,106,E 125th Street,106.0
1373,"Page Philip. 78, 1st av",Page Philip ,78 1st av ,1st av ,78,1st Avenue,78.0
1374,Paine Mary J. 41 Bowery,Paine Mary J ,41 Bowery  ,Bowery  ,41,Bowery Street,41.0
1375,Palma Ernestina. 173 Mulberry,Palma Ernestina ,173 Mulberry  ,Mulberry  ,173,Mulberry Street,173.0
1376,Palmer John. 288 W Bway,Palmer John ,288 W Broadway,W Broadway,288,Broadway W,288.0
1377,+Paolo Antonio. W End av c W 67th,+Paolo Antonio W End av c W ,67th   ,  ,67th,,67.0
1378,Parker Charles A. 1551 Lex av,Parker Charles A ,1551 Lexington av ,Lexington av ,1551,Lexington Avenue,1551.0
1379,"Parker Patrick, 274 Gwich",Parker Patrick ,274 Greenwich,Greenwich,274,Greenwich Street,274.0
1380,Parker Robert S. 494 Hudson,Parker Robert S ,494 Hudson  ,Hudson  ,494,Hudson Street,494.0
1381,Parness Lena. 164 Allen,Parness Lena ,164 Allen st  ,Allen st  ,164,Allen Street,164.0
1382,"Pastemak Harry, 104 Atty",Pastemak Harry ,104 Attorney,Attorney,104,Attorney Street,104.0
1383,"Pasterio Alfred, 8 James sl",Pasterio Alfred ,8 James slip ,James slip ,8,James Slip,8.0
1384,"Patek Louis, 17 Clinton pl",Patek Louis ,17 Clinton pl ,Clinton pl ,17,Clinton Place,17.0
1385,Paulsen Charles J. 6 E 42d,Paulsen Charles J ,6 E 42nd ,E 42nd ,6,E 42nd Street,6.0
1386,Paulukuhm Amelia. 315 Av A,Paulukuhm Amelia ,315 Av A ,Av A ,315,Av A,315.0
1387,Payne Wiltshire. 19 Fulton,Payne Wiltshire ,19 Fulton  ,Fulton  ,19,Fulton Street,19.0
1388,"Pechar John, 466, 6th av",Pechar John ,466 6th av ,6th av ,466,6th Avenue,466.0
1389,"Peck Jules, 111 Nassau & 140 Fulton",Peck Jules ,111 Nassau,Nassau,111,Nassau Street,111.0
1390,"Peck Jules, 111 Nassau & 140 Fulton",Peck Jules ,140 Fulton  ,Fulton  ,140,Fulton Street,140.0
1391,"Pellettieri Luigi, 167 Elizabeth",Pellettieri Luigi ,167 Elizabeth  ,Elizabeth  ,167,Elizabeth Street,167.0
1392,"Peltchiger & Cohen,158 Allen",Peltchiger & Cohen,158 Allen st  ,Allen st  ,158,Allen Street,158.0
1393,"Pennachio Frank, 75 Mulberry",Pennachio Frank ,75 Mulberry  ,Mulberry  ,75,Mulberry Street,75.0
1394,Pepper Julius. 34 E 14th,Pepper Julius ,34 E 14th ,E 14th ,34,E 14th Street,34.0
1395,"Peragallo Ferdinand, 51 South",Peragallo Ferdinand ,51 South  ,South  ,51,South Street,51.0
1396,"Peragallo Frederick, 957, 3d av",Peragallo Frederick ,957 3rd av ,3rd av ,957,3rd Avenue,957.0
1397,"Peragallo G. & Co, 364 & 1937, 3d av & 432, 8th av",Peragallo G & Co ,364 3rd av ,3rd av ,364,3rd Avenue,364.0
1398,"Peragallo G. & Co, 364 & 1937, 3d av & 432, 8th av",Peragallo G & Co ,1937 3rd av ,3rd av ,1937,3rd Avenue,1937.0
1399,"Peragallo G. & Co, 364 & 1937, 3d av & 432, 8th av",Peragallo G & Co ,432 8th av ,8th av ,432,8th Avenue,432.0
1400,"Petersen Peter, 87, 10th av",Petersen Peter ,87 10th av ,10th av ,87,10th Avenue,87.0
1401,Peterson Albert. 16 Pelham,Peterson Albert ,16 Pelham  ,Pelham  ,16,Pelham Street,16.0
1402,Peterson John O. 195 Reade,Peterson John O ,195 Reade  ,Reade  ,195,Reade Street,195.0
1403,"Petit Vefour, 55 W 28th",Petit Vefour ,55 W 28th ,W 28th ,55,W 28th Street,55.0
1404,"Pettersen Oscar, 1153, 3d av",Pettersen Oscar ,1153 3rd av ,3rd av ,1153,3rd Avenue,1153.0
1405,"Peyson Solomon, 1 Pike",Peyson Solomon ,1 Pike st  ,Pike st  ,1,Pike Street,1.0
1406,"Pfyl Joseph, 1131, 3d av",Pfyl Joseph ,1131 3rd av ,3rd av ,1131,3rd Avenue,1131.0
1407,Phillips Henry W. 140 Nassau,Phillips Henry W ,140 Nassau,Nassau,140,Nassau Street,140.0
1408,"Pick Caroline. 802, 1st av",Pick Caroline ,802 1st av ,1st av ,802,1st Avenue,802.0
1409,"Pick Henry, 80 Nassau",Pick Henry ,80 Nassau,Nassau,80,Nassau Street,80.0
1410,Pick Joseph. 40 E 12th,Pick Joseph ,40 E 12th ,E 12th ,40,E 12th Street,40.0
1411,"Pierce W. T. 526, 7th av",Pierce W T ,526 7th av ,7th av ,526,7th Avenue,526.0
1412,"Pigniuolo Frank, 193 Mulberry",Pigniuolo Frank ,193 Mulberry  ,Mulberry  ,193,Mulberry Street,193.0
1413,"Pione Victor, 100 W 13th",Pione Victor ,100 W 13th ,W 13th ,100,W 13th Street,100.0
1414,Pirro Salvatore. 56 Mulberry,Pirro Salvatore ,56 Mulberry  ,Mulberry  ,56,Mulberry Street,56.0
1415,"Plans Christian, 123 Park row",Plans Christian ,123 Park row ,Park row ,123,Park Row,123.0
1416,"Plavano Lena, 38 W 29th",Plavano Lena ,38 W 29th ,W 29th ,38,W 29th Street,38.0
1417,"Plunkett James, 129 West",Plunkett James ,129 West st  ,West st  ,129,West Street,129.0
1418,"Poggi Gaetano, 6 Baxter",Poggi Gaetano ,6 Baxter  ,Baxter  ,6,Baxter Street,6.0
1419,"Polegre Guillermo, 214 Pearl",Polegre Guillermo ,214 Pearl  ,Pearl  ,214,Pearl Street,214.0
1420,Pols Eberhard H. 6 Albany,Pols Eberhard H ,6 Albany  ,Albany  ,6,Albany Street,6.0
1421,"Polymero & Ringa, 46 E 42d",Polymero & Ringa ,46 E 42nd ,E 42nd ,46,E 42nd Street,46.0
1422,Pontin William S. 46 Franklin,Pontin William S ,46 Franklin  ,Franklin  ,46,Franklin Street,46.0
1423,"Popios Thomas, 8 James sl",Popios Thomas ,8 James slip ,James slip ,8,James Slip,8.0
1424,"Popp Christopher, 521 Lex av",Popp Christopher ,521 Lexington av ,Lexington av ,521,Lexington Avenue,521.0
1425,"+Popper Leopold, 103 Av C",+Popper Leopold ,103 Av C ,Av C ,103,C Avenue,103.0
1426,"Portland William, 1860 Park av (24th Ward)",Portland William ,1860 Park av ,Park av ,1860,Park Avenue,1860.0
1427,"Postiglione Joseph, 2163, 1st av",Postiglione Joseph ,2163 1st av ,1st av ,2163,1st Avenue,2163.0
1428,Powers Alburton F. 384 Columbus av,Powers Alburton F ,384 Columbus av ,Columbus av ,384,Columbus Avenue,384.0
1429,"Powers Charles R. 287, 3d av",Powers Charles R ,287 3rd av ,3rd av ,287,3rd Avenue,287.0
1430,"Prago Brothers, 140 Canal",Prago Brothers ,140 Canal  ,Canal  ,140,Canal Street,140.0
1431,Pressler Henry. 32 W Houston,Pressler Henry ,32 W Houston ,W Houston ,32,Houston Street W,32.0
1432,"Priester Adam, 129 Spring",Priester Adam ,129 Spring  ,Spring  ,129,Spring Street,129.0
1433,"Prince Henry, 17 E 14th",Prince Henry ,17 E 14th ,E 14th ,17,E 14th Street,17.0
1434,Proctor William B. 5 Pine,Proctor William B ,5 Pine  ,Pine  ,5,Pine Street,5.0
1435,"Pudor Arnold, 397 W Bway",Pudor Arnold ,397 W Broadway,W Broadway,397,Broadway W,397.0
1436,"Puel Josephine, 601, 1st av",Puel Josephine ,601 1st av ,1st av ,601,1st Avenue,601.0
1437,"Puhr Leopold, 129, 3d av",Puhr Leopold ,129 3rd av ,3rd av ,129,3rd Avenue,129.0
1438,"Pulvermacher Ludwig, 203 Bway",Pulvermacher Ludwig ,203 Broadway,Broadway,203,Broadway,203.0
1439,"Pusch George F. 731, 3d av",Pusch George F ,731 3rd av ,3rd av ,731,3rd Avenue,731.0
1440,Putico Nicholas. 3 Gwich av,Putico Nicholas ,3 Greenwich av ,Greenwich av ,3,Greenwich Avenue,3.0
1441,"Putits George, 116, 4th av",Putits George ,116 4th av ,4th av ,116,4th Avenue,116.0
1442,Putney George T. 481 Bway & 54 Mercer,Putney George T ,481 Broadway,Broadway,481,Broadway,481.0
1443,Putney George T. 481 Bway & 54 Mercer,Putney George T ,54 Mercer  ,Mercer  ,54,Mercer Street,54.0
1444,Pyle Stephen D. 19 Coenties sl,Pyle Stephen D ,19 Coenties slip ,Coenties slip ,19,Coenties Slip,19.0
1445,"Queren Frederick, 48 Broad",Queren Frederick ,48 Broad  ,Broad  ,48,Broad Street,48.0
1446,"Raab Charles W. 796, 10th av",Raab Charles W ,796 10th av ,10th av ,796,10th Avenue,796.0
1447,"Rabineau Mary, 103 Amsterdam av",Rabineau Mary ,103 Amsterdam av ,Amsterdam av ,103,Amsterdam Avenue,103.0
1448,"Rackebrandt Henry, 105 Duane & 14 Thomas",Rackebrandt Henry ,105 Duane  ,Duane  ,105,Duane Street,105.0
1449,"Rackebrandt Henry, 105 Duane & 14 Thomas",Rackebrandt Henry ,14 Thomas  ,Thomas  ,14,Thomas Street,14.0
1450,"Racky John, 21 Frankfort",Racky John ,21 Frankfort  ,Frankfort  ,21,Frankfort Street,21.0
1451,"Rader David, 38 Maiden la",Rader David ,38 Maiden ln ,Maiden ln ,38,Maiden Lane,38.0
1452,"Raffos Nicholas, 76 James",Raffos Nicholas ,76 James  ,James  ,76,James Street,76.0
1453,"Ragge Anton, 107 N Moore",Ragge Anton ,107 N Moore ,N Moore ,107,Moore Street N,107.0
1454,"Ramge Peter, 2524. 8th av",Ramge Peter ,2524 8th av ,8th av ,2524,8th Avenue,2524.0
1455,Ramhorst William F. 156 Gwich,Ramhorst William F ,156 Greenwich,Greenwich,156,Greenwich Street,156.0
1456,"Ranft John, 83 Bleecker & 102 Spring",Ranft John ,83 Bleecker  ,Bleecker  ,83,Bleecker Street,83.0
1457,"Ranft John, 83 Bleecker & 102 Spring",Ranft John ,102 Spring  ,Spring  ,102,Spring Street,102.0
1458,"Rathbun Wilbert E. 931, 6th av",Rathbun Wilbert E ,931 6th av ,6th av ,931,6th Avenue,931.0
1459,Rau Arnold. 199. 6th av,Rau Arnold ,199 6th av ,6th av ,199,6th Avenue,199.0
1460,Rayner Albert. 141 E 42d,Rayner Albert ,141 E 42nd ,E 42nd ,141,E 42nd Street,141.0
1461,Reardon William J. 164 Grand,Reardon William J ,164 Grand st  ,Grand st  ,164,Grand Street,164.0
1462,Reeves Thomas B. 26 Whitehall,Reeves Thomas B ,26 Whitehall  ,Whitehall  ,26,Whitehall Street,26.0
1463,"Rega Gaetano, 94 Bayard",Rega Gaetano ,94 Bayard  ,Bayard  ,94,Bayard Street,94.0
1464,"Rehfus Robert, 371. 1st av",Rehfus Robert ,371 1st av ,1st av ,371,1st Avenue,371.0
1465,Reich Caroline. 370 Canal,Reich Caroline ,370 Canal  ,Canal  ,370,Canal Street,370.0
1466,"Reich Louis. 231, 2d",Reich Louis ,231 2nd  ,2nd  ,231,2nd Avenue,231.0
1467,"Reichenbach Charles, 1 E 19th",Reichenbach Charles ,1 E 19th ,E 19th ,1,E 19th Street,1.0
1468,"Reichman Louis, 114 Suffolk",Reichman Louis ,114 Suffolk  ,Suffolk  ,114,Suffolk Street,114.0
1469,"Reid Charles. 216, 6th av & 4 W 22d",Reid Charles ,216 6th av ,6th av ,216,6th Avenue,216.0
1470,"Reid Charles. 216, 6th av & 4 W 22d",Reid Charles ,4 W 22nd ,W 22nd ,4,W 22nd Street,4.0
1471,"Reilly Edward, 619, 2d av",Reilly Edward ,619 2nd av ,2nd av ,619,2nd Avenue,619.0
1472,"Reilly James, 417 E 10th",Reilly James ,417 E 10th ,E 10th ,417,E 10th Street,417.0
1473,"Reilly Brothers, 3d av n E 189th",Reilly Brothers ,3d av n E,av n E,3d,East Avenue,3.0
1474,"Reilly & Duggan. 645, 3d av",Reilly & Duggan ,645 3rd av ,3rd av ,645,3rd Avenue,645.0
1475,"Reimer Theodore, 53 W 19th",Reimer Theodore ,53 W 19th ,W 19th ,53,W 19th Street,53.0
1476,"Rein George C. 1049, 6th av",Rein George C ,1049 6th av ,6th av ,1049,6th Avenue,1049.0
1477,"Reinhardt Henry, 2127, 3d av",Reinhardt Henry ,2127 3rd av ,3rd av ,2127,3rd Avenue,2127.0
1478,"Reinken Louis, 156 Bowery",Reinken Louis ,156 Bowery  ,Bowery  ,156,Bowery Street,156.0
1479,"Reisenweber John, Custom h & 987, 8th av",Reisenweber John Custom h & ,987 8th av ,8th av ,987,8th Avenue,987.0
1480,"Reismann Otto, 9, 1st",Reismann Otto ,9 1st  ,1st  ,9,1st Avenue,9.0
1481,"Reiss Berman, 318 Broome",Reiss Berman ,318 Broome  ,Broome  ,318,Broome Street,318.0
1482,Reiss Jonas. 119 Delancey,Reiss Jonas ,119 Delancey  ,Delancey  ,119,Delancey Street,119.0
1483,"Reuille Simon, 376, 8th av",Reuille Simon ,376 8th av ,8th av ,376,8th Avenue,376.0
1484,"Reynolds M. W. 174 & 486, 6th av",Reynolds M W ,174 6th av ,6th av ,174,6th Avenue,174.0
1485,"Reynolds M. W. 174 & 486, 6th av",Reynolds M W ,486 6th av ,6th av ,486,6th Avenue,486.0
1486,"+Reynolds Patrick, 1154, 1st av",+Reynolds Patrick ,1154 1st av ,1st av ,1154,1st Avenue,1154.0
1487,"Reynolds Peter. 1086, 1st av",Reynolds Peter ,1086 1st av ,1st av ,1086,1st Avenue,1086.0
1488,"Rheinwald Philip, 3054. 3d av",Rheinwald Philip ,3054 3rd av ,3rd av ,3054,3rd Avenue,3054.0
1489,"Riccadonna Abele, 17 E 17th",Riccadonna Abele ,17 E 17th ,E 17th ,17,E 17th Street,17.0
1490,"Rich Rebecca, 679 Bway",Rich Rebecca ,679 Broadway,Broadway,679,Broadway,679.0
1491,Richards J. J. 83 Nassau,Richards J J ,83 Nassau,Nassau,83,Nassau Street,83.0
1492,Riechers Henry J. 182 Church,Riechers Henry J ,182 Church  ,Church  ,182,Church Street,182.0
1493,Riemann Henry F. C. 122 University pl,Riemann Henry F C ,122 University pl ,University pl ,122,University Place,122.0
1494,Rinaldi Louis A. 40 Peck sl,Rinaldi Louis A ,40 Peck slip ,Peck slip ,40,Peck Slip,40.0
1495,Rischow Charles A. 135 Canal,Rischow Charles A ,135 Canal  ,Canal  ,135,Canal Street,135.0
1496,Risoali Joseph. 239 W Bway,Risoali Joseph ,239 W Broadway,W Broadway,239,Broadway W,239.0
1497,"Rittel Louis, 1779, 3d av",Rittel Louis ,1779 3rd av ,3rd av ,1779,3rd Avenue,1779.0
1498,Ritter John. 219 W 88th,Ritter John ,219 W 88th ,W 88th ,219,W 88th Street,219.0
1499,Roake Lanning G. 48 E 14th,Roake Lanning G ,48 E 14th ,E 14th ,48,E 14th Street,48.0
1500,Robbins W. F. 53 Carmine,Robbins W F ,53 Carmine  ,Carmine  ,53,Carmine Street,53.0
1501,"Robert Charles, 215 Canal",Robert Charles ,215 Canal  ,Canal  ,215,Canal Street,215.0
1502,"Robins S. M., Co. 52 John, 24 Broad & 22 New",Robins S M Co ,52 John  ,John  ,52,John Street,52.0
1503,"Robins S. M., Co. 52 John, 24 Broad & 22 New",Robins S M Co ,24 Broad  ,Broad  ,24,Broad Street,24.0
1504,"Robins S. M., Co. 52 John, 24 Broad & 22 New",Robins S M Co ,22 New  ,New  ,22,New Street,22.0
1505,"Robons Nicholas, 11 Madison",Robons Nicholas ,11 Madison  ,Madison  ,11,Madison Street,11.0
1506,"Roe Frederick N. 402, 4th av",Roe Frederick N ,402 4th av ,4th av ,402,4th Avenue,402.0
1507,"Roeber William, 327, 8th av",Roeber William ,327 8th av ,8th av ,327,8th Avenue,327.0
1508,"Roeth Adam, 1349 Amsterdam av",Roeth Adam ,1349 Amsterdam av ,Amsterdam av ,1349,Amsterdam Avenue,1349.0
1509,Roettinger John D. 94 Walker,Roettinger John D ,94 Walker  ,Walker  ,94,Walker Street,94.0
1510,Rogers John J. 6 Park pl,Rogers John J ,6 Park pl ,Park pl ,6,Park Place,6.0
1511,"Rohr Brothers, 154 Christopher",Rohr Brothers ,154 Christopher  ,Christopher  ,154,Christopher Street,154.0
1512,Rolfe George B. 42 John,Rolfe George B ,42 John  ,John  ,42,John Street,42.0
1513,"Romano John, 163 Prince",Romano John ,163 Prince  ,Prince  ,163,Prince Street,163.0
1514,Romanowskl Leon. 77 E 4th,Romanowskl Leon ,77 E 4th ,E 4th ,77,E 4th Street,77.0
1515,"Rombout Cornelius, 1343, 3d av",Rombout Cornelius ,1343 3rd av ,3rd av ,1343,3rd Avenue,1343.0
1516,"Roon James. 18, 10th av",Roon James ,18 10th av ,10th av ,18,10th Avenue,18.0
1517,Roos E. J. 944 Amsterdam av,Roos E J ,944 Amsterdam av ,Amsterdam av ,944,Amsterdam Avenue,944.0
1518,Root William C. 125 Park row,Root William C ,125 Park row ,Park row ,125,Park Row,125.0
1519,"Rose Charles, 239 Eldridge",Rose Charles ,239 Eldridge  ,Eldridge  ,239,Eldridge Street,239.0
1520,Rosedale & Scripture. 3 Beekman,Rosedale & Scripture ,3 Beekman  ,Beekman  ,3,Beekman Street,3.0
1521,"Rosenberg Gerson, 68 Orchard",Rosenberg Gerson ,68 Orchard  ,Orchard  ,68,Orchard Street,68.0
1522,"Rosenberg Joseph, 94 Columbia",Rosenberg Joseph ,94 Columbia  ,Columbia  ,94,Columbia Street,94.0
1523,"Rosenfeld Max, 92 Ridge",Rosenfeld Max ,92 Ridge  ,Ridge  ,92,Ridge Street,92.0
1524,Rosenfeld Ignatz H. CAFE BOULEVARD. 156. 2d av.,Rosenfeld Ignatz H CAFE BOULEVARD ,156 2nd av ,2nd av ,156,2nd Avenue,156.0
1525,"Rosenthal Berthold, 37. 1st",Rosenthal Berthold ,37 1st  ,1st  ,37,1st Avenue,37.0
1526,Rosenthal Hannah. 1197. 3d av,Rosenthal Hannah ,1197 3rd av ,3rd av ,1197,3rd Avenue,1197.0
1527,"Rosenthal Julie, 304 E Houston",Rosenthal Julie ,304 E Houston ,E Houston ,304,Houston Street E,304.0
1528,"Rosenthal Max, 111 Delancey",Rosenthal Max ,111 Delancey  ,Delancey  ,111,Delancey Street,111.0
1529,Roses Jacob. 187 Allen,Roses Jacob ,187 Allen st  ,Allen st  ,187,Allen Street,187.0
1530,Ross & Kane. 614 Grand,Ross & Kane ,614 Grand st  ,Grand st  ,614,Grand Street,614.0
1531,"Rossi Emilio, 32 Baxter",Rossi Emilio ,32 Baxter  ,Baxter  ,32,Baxter Street,32.0
1532,Roth Joseph. 151 Av A,Roth Joseph ,151 Av A ,Av A ,151,Av A,151.0
1533,"Roth Margaret, 272. 7th av",Roth Margaret ,272 7th av ,7th av ,272,7th Avenue,272.0
1534,Roulet H. & Co. 81 Nassau,Roulet H & Co ,81 Nassau,Nassau,81,Nassau Street,81.0
1535,"Rover & Rau, 64 Beaver",Rover & Rau ,64 Beaver  ,Beaver  ,64,Beaver Street,64.0
1536,Rowley James B. 495 W Bway,Rowley James B ,495 W Broadway,W Broadway,495,Broadway W,495.0
1537,Rubin Ida. 96 Orchard,Rubin Ida ,96 Orchard  ,Orchard  ,96,Orchard Street,96.0
1538,"Rubin Jacob, 10 Ann & 206 Bowery",Rubin Jacob ,10 Ann  ,Ann  ,10,Ann Street,10.0
1539,"Rubin Jacob, 10 Ann & 206 Bowery",Rubin Jacob ,206 Bowery  ,Bowery  ,206,Bowery Street,206.0
1540,"Rubin & Liebman, 14 Ann",Rubin & Liebman ,14 Ann  ,Ann  ,14,Ann Street,14.0
1541,Rubinson Reuben. 76 Cliff,Rubinson Reuben ,76 Cliff  ,Cliff  ,76,Cliff Street,76.0
1542,"Ruff Dora, 118 E 4th",Ruff Dora ,118 E 4th ,E 4th ,118,E 4th Street,118.0
1543,"+Runge August F. 123, 8th av",+Runge August F ,123 8th av ,8th av ,123,8th Avenue,123.0
1544,"Ruocco Frank, 14 Franklin",Ruocco Frank ,14 Franklin  ,Franklin  ,14,Franklin Street,14.0
1545,"Rupprich August, 1320, 3d av",Rupprich August ,1320 3rd av ,3rd av ,1320,3rd Avenue,1320.0
1546,"Russell Louis H. 242, 4th av",Russell Louis H ,242 4th av ,4th av ,242,4th Avenue,242.0
1547,"Ryan Hannah, 29 John",Ryan Hannah ,29 John  ,John  ,29,John Street,29.0
1548,"Ryan James, 80 Centre mkt",Ryan James ,80 Centre mkt ,Centre mkt ,80,Centre Market Place,80.0
1549,"+Ryan James J. 512, 2d av",+Ryan James J ,512 2nd av ,2nd av ,512,2nd Avenue,512.0
1550,"Ryba William, 672, 1st av",Ryba William ,672 1st av ,1st av ,672,1st Avenue,672.0
1551,"Sabiro Max, 22 Bond",Sabiro Max ,22 Bond  ,Bond  ,22,Bond Street,22.0
1552,"Sachs Isidor, 86 Canal",Sachs Isidor ,86 Canal  ,Canal  ,86,Canal Street,86.0
1553,"Sackler Isidor, 65 Ludlow",Sackler Isidor ,65 Ludlow  ,Ludlow  ,65,Ludlow Street,65.0
1554,"Safran David, 12 Bowery",Safran David ,12 Bowery  ,Bowery  ,12,Bowery Street,12.0
1555,"Safran & Meyer, 91 Grand",Safran & Meyer ,91 Grand st  ,Grand st  ,91,Grand Street,91.0
1556,"St Clair Mary, 70 Oliver",St Clair Mary ,70 Oliver  ,Oliver  ,70,Oliver Street,70.0
1557,"+Sallinoto Nicola, 45 Thompson",+Sallinoto Nicola ,45 Thompson  ,Thompson  ,45,Thompson Street,45.0
1558,Salmon John W. 40 W 3d,Salmon John W ,40 W 3rd ,W 3rd ,40,W 3rd Street,40.0
1559,"Sandstrom Simon, 7 Bridge",Sandstrom Simon ,7 Bridge  ,Bridge  ,7,Bridge Street,7.0
1560,"Santocci Anton, 225 Fulton mkt",Santocci Anton ,225 Fulton mkt ,Fulton mkt ,225,Fulton Street,225.0
1561,Santoro Rosino M. 123 Baxter,Santoro Rosino M ,123 Baxter  ,Baxter  ,123,Baxter Street,123.0
1562,"Sargent Herbert, 108 Cherry",Sargent Herbert ,108 Cherry  ,Cherry  ,108,Cherry Street,108.0
1563,"Satz Anna, 66 Pitt",Satz Anna ,66 Pitt  ,Pitt  ,66,Pitt Street,66.0
1564,Saunders Marco P. 82 Broad,Saunders Marco P ,82 Broad  ,Broad  ,82,Broad Street,82.0
1565,"Savage Jeremiah, 262 W 32d",Savage Jeremiah ,262 W 32nd ,W 32nd ,262,W 32nd Street,262.0
1566,Schachinger Joseph. 28 Stanton,Schachinger Joseph ,28 Stanton  ,Stanton  ,28,Stanton Street,28.0
1567,"Schaefer John, 334, 3d av",Schaefer John ,334 3rd av ,3rd av ,334,3rd Avenue,334.0
1568,"Schaffner Henry, 162 E Houston",Schaffner Henry ,162 E Houston ,E Houston ,162,Houston Street E,162.0
1569,"Scheben John, 434, 11th av",Scheben John ,434 11th av ,11th av ,434,11th Avenue,434.0
1570,"Schechter & Bleiberg, 110 Prince",Schechter & Bleiberg ,110 Prince  ,Prince  ,110,Prince Street,110.0
1571,"Scheidlinger Max, 169 E 106th",Scheidlinger Max ,169 E 106th ,E 106th ,169,E 106th Street,169.0
1572,Scheppara Charles. 173 Chrystie,Scheppara Charles ,173 Chrystie  ,Chrystie  ,173,Chrystie Street,173.0
1573,"Scherf Frederick. 177, 3d av",Scherf Frederick ,177 3rd av ,3rd av ,177,3rd Avenue,177.0
1574,Scheubner Michael. 61 Grand,Scheubner Michael ,61 Grand st  ,Grand st  ,61,Grand Street,61.0
1575,"Scheuplein John G. 324, 3d av",Scheuplein John G ,324 3rd av ,3rd av ,324,3rd Avenue,324.0
1576,Schlefrin Nathan. 5 Gouverneur,Schlefrin Nathan ,5 Gouverneur  ,Gouverneur  ,5,Gouverneur Street,5.0
1577,"Schiffer Joseph, 86 Maiden la",Schiffer Joseph ,86 Maiden ln ,Maiden ln ,86,Maiden Lane,86.0
1578,"Schlesinger Morris, 61 Walker",Schlesinger Morris ,61 Walker  ,Walker  ,61,Walker Street,61.0
1579,"Schlieper Louisa, 149 E Houston",Schlieper Louisa ,149 E Houston ,E Houston ,149,Houston Street E,149.0
1580,Schlosser Leopold V. 7 Pine,Schlosser Leopold V ,7 Pine  ,Pine  ,7,Pine Street,7.0
1581,"+Schmaelzlein & Walte, 90, 3d av",+Schmaelzlein & Walte ,90 3rd av ,3rd av ,90,3rd Avenue,90.0
1582,"Schmidt Bridget, 394 Water",Schmidt Bridget ,394 Water st  ,Water st  ,394,Water Street,394.0
1583,"Schmidt Charles, 32 St Mark’s pl",Schmidt Charles ,32 St Mark’s pl,St Mark’s pl,32,Saint Marks Place,32.0
1584,"Schmidt Frederick, 500 W 24th",Schmidt Frederick ,500 W 24th ,W 24th ,500,W 24th Street,500.0
1585,"Schmidt William, 617, 1st av",Schmidt William ,617 1st av ,1st av ,617,1st Avenue,617.0
1586,"Schmukler Peter, 276 Grand",Schmukler Peter ,276 Grand st  ,Grand st  ,276,Grand Street,276.0
1587,Schnabel Max R. 329 Spring,Schnabel Max R ,329 Spring  ,Spring  ,329,Spring Street,329.0
1588,"+Schneider George, 270 Av A",+Schneider George ,270 Av A ,Av A ,270,Av A,270.0
1589,"+Schneider Thomas, 436, 2d av",+Schneider Thomas ,436 2nd av ,2nd av ,436,2nd Avenue,436.0
1590,"Schneir Solomon, 232 Wooster",Schneir Solomon ,232 Wooster  ,Wooster  ,232,Wooster Street,232.0
1591,Schnitzler Ignatz. 19 W Houston,Schnitzler Ignatz ,19 W Houston ,W Houston ,19,Houston Street W,19.0
1592,"Schoen Henry. 409, 3d av",Schoen Henry ,409 3rd av ,3rd av ,409,3rd Avenue,409.0
1593,Schoenherr Margaret. 343 E 23d,Schoenherr Margaret ,343 E 23rd ,E 23rd ,343,E 23rd Street,343.0
1594,"Schoettle Edward, 102 Maiden la",Schoettle Edward ,102 Maiden ln ,Maiden ln ,102,Maiden Lane,102.0
1595,Scholl John. 353 Bowery,Scholl John ,353 Bowery  ,Bowery  ,353,Bowery Street,353.0
1596,"Schorowltz David, 84 Market",Schorowltz David ,84 Market  ,Market  ,84,Market Street,84.0
1597,"Schott Elizabeth, 251 Church",Schott Elizabeth ,251 Church  ,Church  ,251,Church Street,251.0
1598,"Schrader W. A. & J. 569, 11th av",Schrader W A & J ,569 11th av ,11th av ,569,11th Avenue,569.0
1599,Schrader Elizabeth. 110 Chrystie,Schrader Elizabeth ,110 Chrystie  ,Chrystie  ,110,Chrystie Street,110.0
1600,Schreiber Ezekiel. 264 Grand,Schreiber Ezekiel ,264 Grand st  ,Grand st  ,264,Grand Street,264.0
1601,"Schreiber Flora, 286 Grand",Schreiber Flora ,286 Grand st  ,Grand st  ,286,Grand Street,286.0
1602,Schreier Martin. 16 Division,Schreier Martin ,16 Division  ,Division  ,16,Division Street,16.0
1603,"Schreiner Francis, 1126, 3d av",Schreiner Francis ,1126 3rd av ,3rd av ,1126,3rd Avenue,1126.0
1604,"Schriefer Frederick, 89 Centre",Schriefer Frederick ,89 Centre  ,Centre  ,89,Centre Street,89.0
1605,"Schroeder Frederick, 63 Bleecker",Schroeder Frederick ,63 Bleecker  ,Bleecker  ,63,Bleecker Street,63.0
1606,Schroeder John H. 432 W Bway,Schroeder John H ,432 W Broadway,W Broadway,432,Broadway W,432.0
1607,"Schubnell Julius, 725, 3d av",Schubnell Julius ,725 3rd av ,3rd av ,725,3rd Avenue,725.0
1608,"Schuette Emil, 1972 Amsterdam av",Schuette Emil ,1972 Amsterdam av ,Amsterdam av ,1972,Amsterdam Avenue,1972.0
1609,Schulhof Frances. 320 E 54th,Schulhof Frances ,320 E 54th ,E 54th ,320,E 54th Street,320.0
1610,Schultze Henry. 43 W 24th,Schultze Henry ,43 W 24th ,W 24th ,43,W 24th Street,43.0
1611,Schulze Henry. 81 Pike,Schulze Henry ,81 Pike st  ,Pike st  ,81,Pike Street,81.0
1612,"Schulz & Ohmann, 45, 2d av",Schulz & Ohmann ,45 2nd av ,2nd av ,45,2nd Avenue,45.0
1613,"Schumann Gustav, 383 Bowery & 127, 4th av",Schumann Gustav ,383 Bowery  ,Bowery  ,383,Bowery Street,383.0
1614,"Schumann Gustav, 383 Bowery & 127, 4th av",Schumann Gustav ,127 4th av ,4th av ,127,4th Avenue,127.0
1615,Schumann Brothers. 1647. 3d av,Schumann Brothers ,1647 3rd av ,3rd av ,1647,3rd Avenue,1647.0
1616,"+Schwager Frank, 1768, 2d av",+Schwager Frank ,1768 2nd av ,2nd av ,1768,2nd Avenue,1768.0
1617,"Schwagerl Louis, 394, 8th av",Schwagerl Louis ,394 8th av ,8th av ,394,8th Avenue,394.0
1618,Schwartz Edward. 45 Delancey,Schwartz Edward ,45 Delancey  ,Delancey  ,45,Delancey Street,45.0
1619,"Schwartz Ignatz, 74 Lewis",Schwartz Ignatz ,74 Lewis  ,Lewis  ,74,Lewis Street,74.0
1620,Schwartz John. 72 Allen,Schwartz John ,72 Allen st  ,Allen st  ,72,Allen Street,72.0
1621,"Schwartz John E. 445, 6th",Schwartz John E ,445 6th  ,6th  ,445,6th Avenue,445.0
1622,"Schwartz Leopold, 157 Greene",Schwartz Leopold ,157 Greene  ,Greene  ,157,Greene Street,157.0
1623,Schwartz Martin. 293 E Houston,Schwartz Martin ,293 E Houston ,E Houston ,293,Houston Street E,293.0
1624,"Schwartz & Kurinsky, 75, 7th",Schwartz & Kurinsky ,75 7th  ,7th  ,75,7th Avenue,75.0
1625,Schwartzbarth Brothers. 185 E Bway,Schwartzbarth Brothers ,185 E Broadway,E Broadway,185,Broadway E,185.0
1626,"Schwarz Herman, 59 E 11th",Schwarz Herman ,59 E 11th ,E 11th ,59,E 11th Street,59.0
1627,"Schwarz John, 301 Bowery",Schwarz John ,301 Bowery  ,Bowery  ,301,Bowery Street,301.0
1628,+Schwend Theresa. 13 Av B,+Schwend Theresa ,13 Av B ,Av B ,13,B Avenue,13.0
1629,Scott Lewis H. 120 University pl,Scott Lewis H ,120 University pl ,University pl ,120,University Place,120.0
1630,Scotti Luigi. 119 Mulberry,Scotti Luigi ,119 Mulberry  ,Mulberry  ,119,Mulberry Street,119.0
1631,Sears Margaret. 21 Hudson,Sears Margaret ,21 Hudson  ,Hudson  ,21,Hudson Street,21.0
1632,Seegert Otto. 241 Bowery,Seegert Otto ,241 Bowery  ,Bowery  ,241,Bowery Street,241.0
1633,Seelig Adolph. 66 E 13th,Seelig Adolph ,66 E 13th ,E 13th ,66,E 13th Street,66.0
1634,"Sees Alexander, 110 West",Sees Alexander ,110 West st  ,West st  ,110,West Street,110.0
1635,"Segal & Sissman, 178 Canal",Segal & Sissman ,178 Canal  ,Canal  ,178,Canal Street,178.0
1636,+Seipp Charles. 1654. 2d av,+Seipp Charles ,1654 2nd av ,2nd av ,1654,2nd Avenue,1654.0
1637,Setzer Pincus. 57 Orchard,Setzer Pincus ,57 Orchard  ,Orchard  ,57,Orchard Street,57.0
1638,"Seward James H. 594, 3d av",Seward James H ,594 3rd av ,3rd av ,594,3rd Avenue,594.0
1639,"Shahbazian Neshan, 239 E 27th",Shahbazian Neshan ,239 E 27th ,E 27th ,239,E 27th Street,239.0
1640,"Shanley Brothers, 1212 & 1476 Bway & 383, 6th av",Shanley Brothers ,1212 Broadway,Broadway,1212,Broadway,1212.0
1641,"Shanley Brothers, 1212 & 1476 Bway & 383, 6th av",Shanley Brothers ,1476 Broadway,Broadway,1476,Broadway,1476.0
1642,"Shanley Brothers, 1212 & 1476 Bway & 383, 6th av",Shanley Brothers ,383 6th av ,6th av ,383,6th Avenue,383.0
1643,"Shanzer Samuel, 221 Greene",Shanzer Samuel ,221 Greene  ,Greene  ,221,Greene Street,221.0
1644,"Shapiro Louis, 26 Orchard",Shapiro Louis ,26 Orchard  ,Orchard  ,26,Orchard Street,26.0
1645,"Sharkey Patrick, 493 E Houston",Sharkey Patrick ,493 E Houston ,E Houston ,493,Houston Street E,493.0
1646,"Sharpe Edward, 419 Boulevard",Sharpe Edward ,419 Boulevard  ,Boulevard  ,419,Boulevard Street,419.0
1647,"Sharrot Ellsworth, 50 Broad",Sharrot Ellsworth ,50 Broad  ,Broad  ,50,Broad Street,50.0
1648,"Shawy George, 57 Washn",Shawy George ,57 Washington,Washington,57,Washington Street,57.0
1649,"Sheridan Catharine A. 1101, 3d av",Sheridan Catharine A ,1101 3rd av ,3rd av ,1101,3rd Avenue,1101.0
1650,"Shindler Samuel, 95 Clinton",Shindler Samuel ,95 Clinton  ,Clinton  ,95,Clinton Street,95.0
1651,"Shinkman Samuel, 192 E Bway",Shinkman Samuel ,192 E Broadway,E Broadway,192,Broadway E,192.0
1652,"Shishim Tanous, 91 Washn",Shishim Tanous ,91 Washington,Washington,91,Washington Street,91.0
1653,"Sicher Simon, 141, 8th",Sicher Simon ,141 8th  ,8th  ,141,8th Avenue,141.0
1654,"Sidden Dederick, 82 Cortlandt",Sidden Dederick ,82 Cortlandt  ,Cortlandt  ,82,Cortlandt Street,82.0
1655,"Siegel Herman, 298 Broome",Siegel Herman ,298 Broome  ,Broome  ,298,Broome Street,298.0
1656,"Siemann Ernest, 301 Front",Siemann Ernest ,301 Front  ,Front  ,301,Front Street,301.0
1657,"Siering William, 1085, 1st av",Siering William ,1085 1st av ,1st av ,1085,1st Avenue,1085.0
1658,SIEVERS AUGUST H. 64 E 14th,SIEVERS AUGUST H ,64 E 14th ,E 14th ,64,E 14th Street,64.0
1659,"Silberman Bernhard, 42 Canal",Silberman Bernhard ,42 Canal  ,Canal  ,42,Canal Street,42.0
1660,"Sillery Margaret. 778, 7th av",Sillery Margaret ,778 7th av ,7th av ,778,7th Avenue,778.0
1661,"Silsbe & Son, 203, 6th av",Silsbe & Son ,203 6th av ,6th av ,203,6th Avenue,203.0
1662,"Silver Henry, 71 Division",Silver Henry ,71 Division  ,Division  ,71,Division Street,71.0
1663,"Silverberg Isidor, 153 Orchard",Silverberg Isidor ,153 Orchard  ,Orchard  ,153,Orchard Street,153.0
1664,"Silverstein Isaac, 97 Park row",Silverstein Isaac ,97 Park row ,Park row ,97,Park Row,97.0
1665,"Silverstrini Peter, 69 Park",Silverstrini Peter ,69 Park  ,Park  ,69,Park Street,69.0
1666,"Simmons Henry, 71 Murray",Simmons Henry ,71 Murray  ,Murray  ,71,Murray Street,71.0
1667,"Simpson Harriet, 56 W 22d",Simpson Harriet ,56 W 22nd ,W 22nd ,56,W 22nd Street,56.0
1668,"Sinsheimer Solomon, 18 Clinton pl",Sinsheimer Solomon ,18 Clinton pl ,Clinton pl ,18,Clinton Place,18.0
1669,Sitswitz Theodore. 1821 Amsterdam av,Sitswitz Theodore ,1821 Amsterdam av ,Amsterdam av ,1821,Amsterdam Avenue,1821.0
1670,+Sitzmann Matilda. 21 Av B,+Sitzmann Matilda ,21 Av B ,Av B ,21,B Avenue,21.0
1671,"Skelly Harry. 2643, 3d av",Skelly Harry ,2643 3rd av ,3rd av ,2643,3rd Avenue,2643.0
1672,"Slater John Y. 402, 6th av",Slater John Y ,402 6th av ,6th av ,402,6th Avenue,402.0
1673,Slattery John F. 527. 6th av,Slattery John F ,527 6th av ,6th av ,527,6th Avenue,527.0
1674,"Slevin & Inslee, 10 Duane",Slevin & Inslee ,10 Duane  ,Duane  ,10,Duane Street,10.0
1675,"Smith Charles, 52, 3d av",Smith Charles ,52 3rd av ,3rd av ,52,3rd Avenue,52.0
1676,"Smith Elizabeth, 33 Bayard",Smith Elizabeth ,33 Bayard  ,Bayard  ,33,Bayard Street,33.0
1677,"Smlth Frederick. 112, 9th av",Smith Frederick,112 9th av ,9th av ,112,9th Avenue,112.0
1678,"Smith Frederick, 989 Columbus av",Smith Frederick ,989 Columbus av ,Columbus av ,989,Columbus Avenue,989.0
1679,Smith George. Riverside av c W 124th,Smith George Riverside av c W ,124th   ,  ,124th,,124.0
1680,Smith Henry G. 76 Fulton,Smith Henry G ,76 Fulton  ,Fulton  ,76,Fulton Street,76.0
1681,"Smith Jacob, 273. 9th av",Smith Jacob ,273 9th av ,9th av ,273,9th Avenue,273.0
1682,Smith John T. 1389 Bway,Smith John T ,1389 Broadway,Broadway,1389,Broadway,1389.0
1683,Smith Lucy A. 319 W 41st,Smith Lucy A ,319 W 41st ,W 41st ,319,W 41st Street,319.0
1684,Smith Margaret A. 766 Tremont av,Smith Margaret A ,766 Tremont av ,Tremont av ,766,Tremont Avenue,766.0
1685,"Smith Mary, 301 E 64th",Smith Mary ,301 E 64th ,E 64th ,301,E 64th Street,301.0
1686,Smith Sarah. 195 Gwich,Smith Sarah ,195 Greenwich,Greenwich,195,Greenwich Street,195.0
1687,"Smith Thomas, 33 Park row",Smith Thomas ,33 Park row ,Park row ,33,Park Row,33.0
1688,+Smith William. 354 E 83d,+Smith William ,354 E 83rd ,E 83rd ,354,E 83rd Street,354.0
1689,+Smith William H. 16 Rector,+Smith William H ,16 Rector  ,Rector  ,16,Rector Street,16.0
1690,Smith William H. 204 W 37th,Smith William H ,204 W 37th ,W 37th ,204,W 37th Street,204.0
1691,Smith U. P. & Co. 15 Thames,Smith U P & Co ,15 Thames  ,Thames  ,15,Thames Street,15.0
1692,Smith & Co. 83 Fulton mkt,Smith & Co ,83 Fulton mkt ,Fulton mkt ,83,Fulton Street,83.0
1693,"Smith & McNeil, 199 Washn & 198 Gwich",Smith & McNeil ,199 Washington,Washington,199,Washington Street,199.0
1694,"Smith & McNeil, 199 Washn & 198 Gwich",Smith & McNeil ,198 Greenwich,Greenwich,198,Greenwich Street,198.0
1695,Snyder John I. 828. 9th av,Snyder John I ,828 9th av ,9th av ,828,9th Avenue,828.0
1696,"Solari Joseph F, 80 University pl",Solari Joseph F ,80 University pl ,University pl ,80,University Place,80.0
1697,"Sommer Caroline, Macomb n Bway",Sommer Caroline Macomb n Bway,   ,  ,,,
1698,"Sommer Isaac, 131 Prince",Sommer Isaac ,131 Prince  ,Prince  ,131,Prince Street,131.0
1699,Sooker Adolph P. 66 W 13th,Sooker Adolph P ,66 W 13th ,W 13th ,66,W 13th Street,66.0
1700,Soppett Ernest A. W. 28 Duane,Soppett Ernest A W ,28 Duane  ,Duane  ,28,Duane Street,28.0
1701,"Spalding Thomas, 232 West",Spalding Thomas ,232 West st  ,West st  ,232,West Street,232.0
1702,"Spamer Louis, 21 Cath sl",Spamer Louis ,21 Catherine slip ,Catherine slip ,21,Catherine Slip,21.0
1703,"Spangenberg Frederick, 243 E 59th",Spangenberg Frederick ,243 E 59th ,E 59th ,243,E 59th Street,243.0
1704,"Spence D. 949, 3d av",Spence D ,949 3rd av ,3rd av ,949,3rd Avenue,949.0
1705,Spencer Charles E. Produce Ex,Spencer Charles E Produce Ex,   ,  ,,,
1706,"Spengemann Theodore, 184 West",Spengemann Theodore ,184 West st  ,West st  ,184,West Street,184.0
1707,"Sperber Carl, 12 Chambers",Sperber Carl,12 Chambers  ,Chambers  ,12,Chambers Street,12.0
1708,"Spielberger Jacob, 310 E Houston",Spielberger Jacob ,310 E Houston ,E Houston ,310,Houston Street E,310.0
1709,"Spies Peter, 110 Fulton",Spies Peter ,110 Fulton  ,Fulton  ,110,Fulton Street,110.0
1710,Spiess Brothers. 34 Murray,Spiess Brothers ,34 Murray  ,Murray  ,34,Murray Street,34.0
1711,Spinelli Domenick. 284 Mott,Spinelli Domenick ,284 Mott  ,Mott  ,284,Mott Street,284.0
1712,"Spirio Nicholas, 23 Roosevelt",Spirio Nicholas ,23 Roosevelt  ,Roosevelt  ,23,Roosevelt Street,23.0
1713,"Spits Frederick, 985 Lex av",Spits Frederick ,985 Lexington av ,Lexington av ,985,Lexington Avenue,985.0
1714,"Spits Herman, 184 Chrystie",Spits Herman ,184 Chrystie  ,Chrystie  ,184,Chrystie Street,184.0
1715,Squier William E. 125 W 20th,Squier William E ,125 W 20th ,W 20th ,125,W 20th Street,125.0
1716,"Stafford James S. 1873, 2d av",Stafford James S ,1873 2nd av ,2nd av ,1873,2nd Avenue,1873.0
1717,"Stampfer William, 145, 2d av",Stampfer William ,145 2nd av ,2nd av ,145,2nd Avenue,145.0
1718,"Stanley George, 348 E 92d",Stanley George ,348 E 92nd ,E 92nd ,348,E 92nd Street,348.0
1719,"Starinsky Sarah, 36 Eldridge",Starinsky Sarah ,36 Eldridge  ,Eldridge  ,36,Eldridge Street,36.0
1720,"Stark John, 436, 9th av",Stark John ,436 9th av ,9th av ,436,9th Avenue,436.0
1721,"Stark Max, 276 E Houston",Stark Max ,276 E Houston ,E Houston ,276,Houston Street E,276.0
1722,"Stark William, 578, 9th av",Stark William ,578 9th av ,9th av ,578,9th Avenue,578.0
1723,"Stade Max, 174 West",Stade Max ,174 West st  ,West st  ,174,West Street,174.0
1724,"+Stefanos Michael, 18 Chatham sq",+Stefanos Michael ,18 Chatham sq ,Chatham sq ,18,Chatham Street,18.0
1725,"Steffens Herman. 101, 3d av",Steffens Herman ,101 3rd av ,3rd av ,101,3rd Avenue,101.0
1726,Stein Henry. 139 E Bway,Stein Henry ,139 E Broadway,E Broadway,139,Broadway E,139.0
1727,"Steinau Isaac, 194 Bway",Steinau Isaac ,194 Broadway,Broadway,194,Broadway,194.0
1728,"Steinberg Amelia, 182 W Bway",Steinberg Amelia ,182 W Broadway,W Broadway,182,Broadway W,182.0
1729,"Steinberg Bernhard, 9 & 15 Ann",Steinberg Bernhard ,9 Ann  ,Ann  ,9,Ann Street,9.0
1730,"Steinberg Bernhard, 9 & 15 Ann",Steinberg Bernhard ,15 Ann  ,Ann  ,15,Ann Street,15.0
1731,"Steinberg Prances, 40 John",Steinberg Prances ,40 John  ,John  ,40,John Street,40.0
1732,"Steiner Victor, 105 Delancey",Steiner Victor ,105 Delancey  ,Delancey  ,105,Delancey Street,105.0
1733,Steiner William. 412 E 15th,Steiner William ,412 E 15th ,E 15th ,412,E 15th Street,412.0
1734,"Steinhardt & Co, 203 Front",Steinhardt & Co ,203 Front  ,Front  ,203,Front Street,203.0
1735,"Steinherz Alexander, 137, 8th",Steinherz Alexander ,137 8th  ,8th  ,137,8th Avenue,137.0
1736,"Stenzig Frederick, 1599 Bway",Stenzig Frederick ,1599 Broadway,Broadway,1599,Broadway,1599.0
1737,"+Stern Joseph, 135 Pitt",+Stern Joseph ,135 Pitt  ,Pitt  ,135,Pitt Street,135.0
1738,"Stern Ludmilla, 64 E 10th",Stern Ludmilla ,64 E 10th ,E 10th ,64,E 10th Street,64.0
1739,"Steuer August, 147 Park row",Steuer August ,147 Park row ,Park row ,147,Park Row,147.0
1740,"Stevens Mary, 409 Broome",Stevens Mary ,409 Broome  ,Broome  ,409,Broome Street,409.0
1741,"Stiege & Rudolph, 153 Lincoln av",Stiege & Rudolph ,153 Lincoln av ,Lincoln av ,153,Lincoln Avenue,153.0
1742,"+Still's J. H., Son, 195, 3d av",+Still's J H Son ,195 3rd av ,3rd av ,195,3rd Avenue,195.0
1743,Stocks William E. 42 Whitehall,Stocks William E ,42 Whitehall  ,Whitehall  ,42,Whitehall Street,42.0
1744,Stollberg Frank A. 117 Broad,Stollberg Frank A ,117 Broad  ,Broad  ,117,Broad Street,117.0
1745,"Storch Victor, 563, 3d av",Storch Victor ,563 3rd av ,3rd av ,563,3rd Avenue,563.0
1746,"Strackerjan Uffo, 76 Maiden la",Strackerjan Uffo ,76 Maiden ln ,Maiden ln ,76,Maiden Lane,76.0
1747,"Streen & Liberman, 154 Centre",Streen & Liberman ,154 Centre  ,Centre  ,154,Centre Street,154.0
1748,"Street Albert, E 189th c 3d av",Street Albert E ,189th c 3rd av,c 3rd av,189th,3rd Avenue,189.0
1749,"Stroehiein Nicholas, 437, 10th av",Stroehiein Nicholas ,437 10th av ,10th av ,437,10th Avenue,437.0
1750,"Stroh J. August, 397, 6th av",Stroh J August ,397 6th av ,6th av ,397,6th Avenue,397.0
1751,"Stroub John L. 2394, 3d av",Stroub John L ,2394 3rd av ,3rd av ,2394,3rd Avenue,2394.0
1752,Stuetzle Brothers. 2 Hanover sq,Stuetzle Brothers ,2 Hanover sq ,Hanover sq ,2,Hanover Street,2.0
1753,"Suesskind A. & Co, 529 Bway",Suesskind A & Co ,529 Broadway,Broadway,529,Broadway,529.0
1754,"Sugerman William, 47 Canal",Sugerman William ,47 Canal  ,Canal  ,47,Canal Street,47.0
1755,"Suhre John A. 583, 1st av",Suhre John A ,583 1st av ,1st av ,583,1st Avenue,583.0
1756,"Sukovsky Frank, 187 Lewis",Sukovsky Frank ,187 Lewis  ,Lewis  ,187,Lewis Street,187.0
1757,Sullivan M. J. 355 West,Sullivan M J ,355 West st  ,West st  ,355,West Street,355.0
1758,Sullivan Peter A. 65 E 85th,Sullivan Peter A ,65 E 85th ,E 85th ,65,E 85th Street,65.0
1759,"Sulzer Gustave, 297 Av A",Sulzer Gustave ,297 Av A ,Av A ,297,Av A,297.0
1760,"Summa Brothers, 157 Thompson",Summa Brothers ,157 Thompson  ,Thompson  ,157,Thompson Street,157.0
1761,"Surber George, 850, 11th av",Surber George ,850 11th av ,11th av ,850,11th Avenue,850.0
1762,"Surridge John H. 2663, 3 av",Surridge John H ,2663 3 av ,3 av ,2663,3rd Avenue,2663.0
1763,"Susi Alesandro, 50 1/2 Mulberry",Susi Alesandro ,50 Mulberry  ,Mulberry  ,50,Mulberry Street,50.0
1764,"Suesskind Sibillla, 828, 1st av",Suesskind Sibillla ,828 1st av ,1st av ,828,1st Avenue,828.0
1765,"Sussman Haiman, 167 Allen",Sussman Haiman ,167 Allen st  ,Allen st  ,167,Allen Street,167.0
1766,"Swallow Jane, 527, 1st av",Swallow Jane ,527 1st av ,1st av ,527,1st Avenue,527.0
1767,"Swart Alfred. 772, 3d av",Swart Alfred ,772 3rd av ,3rd av ,772,3rd Avenue,772.0
1768,Sweeney James J. 37 Beaver,Sweeney James J ,37 Beaver  ,Beaver  ,37,Beaver Street,37.0
1769,Sweet A. M. A Son. 4 Fulton,Sweet A M A Son ,4 Fulton  ,Fulton  ,4,Fulton Street,4.0
1770,Takakjian Henry. 242 E 41st,Takakjian Henry ,242 E 41st ,E 41st ,242,E 41st Street,242.0
1771,Talli Louise. 83 Mulberry,Talli Louise ,83 Mulberry  ,Mulberry  ,83,Mulberry Street,83.0
1772,"Tallowitz Frank, 117, 1st av",Tallowitz Frank ,117 1st av ,1st av ,117,1st Avenue,117.0
1773,"Taylor Edgar, 169 W 29th",Taylor Edgar ,169 W 29th ,W 29th ,169,W 29th Street,169.0
1774,Taylor George W. 505 E Houston,Taylor George W ,505 E Houston ,E Houston ,505,Houston Street E,505.0
1775,Taylor Washington H. 128 Park row,Taylor Washington H ,128 Park row ,Park row ,128,Park Row,128.0
1776,"Teeter & McLoughlin, 170, 3d av",Teeter & McLoughlin ,170 3rd av ,3rd av ,170,3rd Avenue,170.0
1777,Terpenning John L. 214 Fulton mkt,Terpenning John L ,214 Fulton mkt ,Fulton mkt ,214,Fulton Street,214.0
1778,Terwilliger G. C. 346 Bway,Terwilliger G C ,346 Broadway,Broadway,346,Broadway,346.0
1779,"Tettelbaum Joseph, 315 Canal",Tettelbaum Joseph ,315 Canal  ,Canal  ,315,Canal Street,315.0
1780,"Thamm August, 13 Rivington",Thamm August ,13 Rivington  ,Rivington  ,13,Rivington Street,13.0
1781,"Theil Leon, 292 E Houston",Theil Leon ,292 E Houston ,E Houston ,292,Houston Street E,292.0
1782,"Theodore Abraham, 163 Wooster",Theodore Abraham ,163 Wooster  ,Wooster  ,163,Wooster Street,163.0
1783,Thomas Rose. 166 W 32d,Thomas Rose ,166 W 32nd ,W 32nd ,166,W 32nd Street,166.0
1784,"Thornton Frank J. 2310, 3d av",Thornton Frank J ,2310 3rd av ,3rd av ,2310,3rd Avenue,2310.0
1785,Thorpe John B. 1281 Bway,Thorpe John B ,1281 Broadway,Broadway,1281,Broadway,1281.0
1786,Throme John A. 648 Hudson,Throme John A ,648 Hudson  ,Hudson  ,648,Hudson Street,648.0
1787,"Thuillard Henri, 112 W 21st",Thuillard Henri ,112 W 21st ,W 21st ,112,W 21st Street,112.0
1788,"Tielenius Carl, 2 Centre",Tielenius Carl ,2 Centre  ,Centre  ,2,Centre Street,2.0
1789,Tighe James C. 201 W 69th,Tighe James C ,201 W 69th ,W 69th ,201,W 69th Street,201.0
1790,Timm William F. 155 Franklin,Timm William F ,155 Franklin  ,Franklin  ,155,Franklin Street,155.0
1791,"Tivnan & Somers, 42 E 42d, 147 W 42d, 1325 Bway & 6 Columbus av",Tivnan & Somers ,42 E 42nd ,E 42nd ,42,E 42nd Street,42.0
1792,"Tivnan & Somers, 42 E 42d, 147 W 42d, 1325 Bway & 6 Columbus av",Tivnan & Somers ,147 W 42nd ,W 42nd ,147,W 42nd Street,147.0
1793,"Tivnan & Somers, 42 E 42d, 147 W 42d, 1325 Bway & 6 Columbus av",Tivnan & Somers ,1325 Broadway,Broadway,1325,Broadway,1325.0
1794,"Tivnan & Somers, 42 E 42d, 147 W 42d, 1325 Bway & 6 Columbus av",Tivnan & Somers ,6 Columbus av ,Columbus av ,6,Columbus Avenue,6.0
1795,"Toebing William, 121 Manhattan",Toebing William ,121 Manhattan  ,Manhattan  ,121,Manhattan Street,121.0
1796,"Toedter & Raabe, 163, 11th av",Toedter & Raabe ,163 11th av ,11th av ,163,11th Avenue,163.0
1797,"Tolken Charles, 480 Gwich",Tolken Charles ,480 Greenwich,Greenwich,480,Greenwich Street,480.0
1798,"Tomaselli Anna, 16 Fulton mkt",Tomaselli Anna ,16 Fulton mkt ,Fulton mkt ,16,Fulton Street,16.0
1799,"Tomsuden & Jantzen, 616 Grand",Tomsuden & Jantzen ,616 Grand st  ,Grand st  ,616,Grand Street,616.0
1800,"Travers Louis, 246 W 36th",Travers Louis ,246 W 36th ,W 36th ,246,W 36th Street,246.0
1801,"Traverso Cicornio, 22 Baxter",Traverso Cicornio ,22 Baxter  ,Baxter  ,22,Baxter Street,22.0
1802,"Treier Benjamin, 143 Liberty",Treier Benjamin ,143 Liberty  ,Liberty  ,143,Liberty Street,143.0
1803,"Treuleben Albert, 532 Pearl",Treuleben Albert ,532 Pearl  ,Pearl  ,532,Pearl Street,532.0
1804,"Triesselmann Ernest, 629 W 24th",Triesselmann Ernest ,629 W 24th ,W 24th ,629,W 24th Street,629.0
1805,"Trohartos Antonio, 403 E 34th",Trohartos Antonio ,403 E 34th ,E 34th ,403,E 34th Street,403.0
1806,"Truppner Paul, 98 Cedar",Truppner Paul ,98 Cedar  ,Cedar  ,98,Cedar Street,98.0
1807,"Tschantre E. & Co, 340 Canal & 20, 4th av",Tschantre E & Co ,340 Canal  ,Canal  ,340,Canal Street,340.0
1808,"Tschantre E. & Co, 340 Canal & 20, 4th av",Tschantre E & Co ,20 4th av ,4th av ,20,4th Avenue,20.0
1809,"Tuch Fanny, 22 St Mark's pl",Tuch Fanny ,22 St Mark’s pl,St Mark’s pl,22,Saint Marks Place,22.0
1810,"+Tuck William H. 207, 1st av",+Tuck William H ,207 1st av ,1st av ,207,1st Avenue,207.0
1811,"Tucker & Magdolf, 40 Bowery",Tucker & Magdolf ,40 Bowery  ,Bowery  ,40,Bowery Street,40.0
1812,"Tully Anne T, 74 Tomp mkt",Tully Anne T ,74 Tompkins mkt ,Tompkins mkt ,74,Tompkins Street,74.0
1813,Tunstall Julius T. 421 Canal,Tunstall Julius T ,421 Canal  ,Canal  ,421,Canal Street,421.0
1814,"Tupper Warren F, H. 732 Bway",Tupper Warren F H ,732 Broadway,Broadway,732,Broadway,732.0
1815,"Turkel Bernard, 88 Prince & 93 Maiden la",Turkel Bernard ,88 Prince  ,Prince  ,88,Prince Street,88.0
1816,"Turkel Bernard, 88 Prince & 93 Maiden la",Turkel Bernard ,93 Maiden ln ,Maiden ln ,93,Maiden Lane,93.0
1817,Tyler Adrian J. 199 Chambers,Tyler Adrian J ,199 Chambers  ,Chambers  ,199,Chambers Street,199.0
1818,"Tyler Rodney, 904, 6th av",Tyler Rodney ,904 6th av ,6th av ,904,6th Avenue,904.0
1819,"Tyson Josephine M. 738, 9th av",Tyson Josephine M ,738 9th av ,9th av ,738,9th Avenue,738.0
1820,"Ubaldi John, 175 Prince",Ubaldi John ,175 Prince  ,Prince  ,175,Prince Street,175.0
1821,"Uhlenhaut Frederick, 106 Maiden la",Uhlenhaut Frederick ,106 Maiden ln ,Maiden ln ,106,Maiden Lane,106.0
1822,"Uhler Edward, 83, 4th av",Uhler Edward ,83 4th av ,4th av ,83,4th Avenue,83.0
1823,"Uhr Louis, 102 Lewis",Uhr Louis ,102 Lewis  ,Lewis  ,102,Lewis Street,102.0
1824,"Ungar Samuel, 164 Atty",Ungar Samuel ,164 Attorney,Attorney,164,Attorney Street,164.0
1825,"Urbach Jacob, 272 Broome",Urbach Jacob ,272 Broome  ,Broome  ,272,Broome Street,272.0
1826,"Urban Julius, 476, 10th av",Urban Julius ,476 10th av ,10th av ,476,10th Avenue,476.0
1827,"Uthe George G. 194, 1st av",Uthe George G ,194 1st av ,1st av ,194,1st Avenue,194.0
1828,"Vallet Emil, 20 W 18th",Vallet Emil ,20 W 18th ,W 18th ,20,W 18th Street,20.0
1829,"Vancleft & Merritt, 188, 8th av",Vancleft & Merritt ,188 8th av ,8th av ,188,8th Avenue,188.0
1830,"Vanness William, 588, 7th av",Vanness William ,588 7th av ,7th av ,588,7th Avenue,588.0
1831,"Valentin Emile, 257 Hudson",Valentin Emile ,257 Hudson  ,Hudson  ,257,Hudson Street,257.0
1832,"Valentino Angelo, 128 1/2 Baxter",Valentino Angelo ,128 Baxter  ,Baxter  ,128,Baxter Street,128.0
1833,"Valette Louis, 154 Wooster",Valette Louis ,154 Wooster  ,Wooster  ,154,Wooster Street,154.0
1834,Vath Charles L. 20 Dey,Vath Charles L ,20 Dey  ,Dey  ,20,Dey Street,20.0
1835,"Velmahos Brothers, 107 Gwich",Velmahos Brothers ,107 Greenwich,Greenwich,107,Greenwich Street,107.0
1836,"Verhaeren George, 127 Prince",Verhaeren George ,127 Prince  ,Prince  ,127,Prince Street,127.0
1837,"Vermatten Jules, 100 Broad",Vermatten Jules ,100 Broad  ,Broad  ,100,Broad Street,100.0
1838,"Veux August, 28 & 35 Walker",Veux August ,28 Walker  ,Walker  ,28,Walker Street,28.0
1839,"Veux August, 28 & 35 Walker",Veux August ,35 Walker  ,Walker  ,35,Walker Street,35.0
1840,"Vidal & Thompson, 161 Duane",Vidal & Thompson ,161 Duane  ,Duane  ,161,Duane Street,161.0
1841,"Viergutz Charles, 285 Av C",Viergutz Charles ,285 Av C ,Av C ,285,C Avenue,285.0
1842,Virillo S. 7 Roosevelt,Virillo S ,7 Roosevelt  ,Roosevelt  ,7,Roosevelt Street,7.0
1843,"Vlandakes Emanuel, 18 Chatham sq",Vlandakes Emanuel ,18 Chatham sq ,Chatham sq ,18,Chatham Street,18.0
1844,Voembruch Frederick. 412 W 42d,Voembruch Frederick ,412 W 42nd ,W 42nd ,412,W 42nd Street,412.0
1845,"Voigt & Walsch, 52 E 4th",Voigt & Walsch ,52 E 4th ,E 4th ,52,E 4th Street,52.0
1846,"Vogel Isaac, 128 1/2 Chrystie",Vogel Isaac ,128 Chrystie  ,Chrystie  ,128,Chrystie Street,128.0
1847,Vogel John. 421 Gwich,Vogel John ,421 Greenwich,Greenwich,421,Greenwich Street,421.0
1848,Volk Charles F. 76 & 84 Church,Volk Charles F ,76 Church  ,Church  ,76,Church Street,76.0
1849,Volk Charles F. 76 & 84 Church,Volk Charles F ,84 Church  ,Church  ,84,Church Street,84.0
1850,Vollmers Frank. 217 W Bway,Vollmers Frank ,217 W Broadway,W Broadway,217,Broadway W,217.0
1851,"Von Dohlen Adolph, 102, 4th av",Von Dohlen Adolph ,102 4th av ,4th av ,102,4th Avenue,102.0
1852,"Vorelas Saronos, 7 Roosevelt",Vorelas Saronos ,7 Roosevelt  ,Roosevelt  ,7,Roosevelt Street,7.0
1853,"Wachsman Emanuel, 301 Canal",Wachsman Emanuel ,301 Canal  ,Canal  ,301,Canal Street,301.0
1854,"Wagger Henry, 106 Clinton mkt",Wagger Henry ,106 Clinton mkt ,Clinton mkt ,106,Clinton Place,106.0
1855,"Wagner Emil, 215 Park row",Wagner Emil ,215 Park row ,Park row ,215,Park Row,215.0
1856,"Wagner & Bassatt, 51 Columbus av",Wagner & Bassatt ,51 Columbus av ,Columbus av ,51,Columbus Avenue,51.0
1857,"Wahler Theodore, 106 E 4th",Wahler Theodore ,106 E 4th ,E 4th ,106,E 4th Street,106.0
1858,Waldeck George F. 176 Christopher,Waldeck George F ,176 Christopher  ,Christopher  ,176,Christopher Street,176.0
1859,"Waldheim Adolph, 408 E 34th",Waldheim Adolph ,408 E 34th ,E 34th ,408,E 34th Street,408.0
1860,"Wallace John F. 121, 5th av",Wallace John F ,121 5th av ,5th av ,121,5th Avenue,121.0
1861,Walling Elbert J. 24 Fulton & 14 Fulton mkt,Walling Elbert J ,24 Fulton  ,Fulton  ,24,Fulton Street,24.0
1862,Walling Elbert J. 24 Fulton & 14 Fulton mkt,Walling Elbert J ,14 Fulton mkt ,Fulton mkt ,14,Fulton Street,14.0
1863,"Walmester Charles, 338 West",Walmester Charles ,338 West st  ,West st  ,338,West Street,338.0
1864,"Walsh John H. 783, 8th av",Walsh John H ,783 8th av ,8th av ,783,8th Avenue,783.0
1865,"Walsh Brothers, 487 & 654, 3d av",Walsh Brothers ,487 3rd av ,3rd av ,487,3rd Avenue,487.0
1866,"Walsh Brothers, 487 & 654, 3d av",Walsh Brothers ,654 3rd av ,3rd av ,654,3rd Avenue,654.0
1867,Walsh & Hart. 826 Boulevard,Walsh & Hart ,826 Boulevard  ,Boulevard  ,826,Boulevard Street,826.0
1868,"+Walton Thomas, 245, 8th av",+Walton Thomas ,245 8th av ,8th av ,245,8th Avenue,245.0
1869,Wannemacher E. 137 W 22d,Wannemacher E ,137 W 22nd ,W 22nd ,137,W 22nd Street,137.0
1870,"Warner Moses, 83 Av C",Warner Moses ,83 Av C ,Av C ,83,C Avenue,83.0
1871,Washington George H. 66 Spring,Washington George H ,66 Spring  ,Spring  ,66,Spring Street,66.0
1872,"Wasser David, 108 Bowery",Wasser David ,108 Bowery  ,Bowery  ,108,Bowery Street,108.0
1873,"Waubun Co, 21 Cortlandt",Waubun Co ,21 Cortlandt  ,Cortlandt  ,21,Cortlandt Street,21.0
1874,"Wavra Hung Low Chung Kee, 20 Mott",Wavra Hung Low Chung Kee ,20 Mott  ,Mott  ,20,Mott Street,20.0
1875,"Weber Elizabeth. 800, 11th av",Weber Elizabeth ,800 11th av ,11th av ,800,11th Avenue,800.0
1876,"Weber Henry, 2503, 8th av",Weber Henry ,2503 8th av ,8th av ,2503,8th Avenue,2503.0
1877,"Weber Henry, 504 W 34th",Weber Henry ,504 W 34th ,W 34th ,504,W 34th Street,504.0
1878,"Weber Samuel, 11 Pike",Weber Samuel ,11 Pike st  ,Pike st  ,11,Pike Street,11.0
1879,"Weber & Co, 141, 3d av",Weber & Co ,141 3rd av ,3rd av ,141,3rd Avenue,141.0
1880,Webster Marie A. 21 University pl,Webster Marie A ,21 University pl ,University pl ,21,University Place,21.0
1881,Wegner Charles. 40 Wooster,Wegner Charles ,40 Wooster  ,Wooster  ,40,Wooster Street,40.0
1882,"Weiberg Charles, 475 E Houston",Weiberg Charles ,475 E Houston ,E Houston ,475,Houston Street E,475.0
1883,"Weirich Joseph, 90, 6th av",Weirich Joseph ,90 6th av ,6th av ,90,6th Avenue,90.0
1884,"Weill Esther, 726 Bway",Weill Esther ,726 Broadway,Broadway,726,Broadway,726.0
1885,Weilmunster John C. 347 W Houston & 338 West,Weilmunster John C ,347 W Houston ,W Houston ,347,Houston Street W,347.0
1886,Weilmunster John C. 347 W Houston & 338 West,Weilmunster John C ,338 West st  ,West st  ,338,West Street,338.0
1887,"Weinberg & Rosenblum, 155 Allen",Weinberg & Rosenblum ,155 Allen st  ,Allen st  ,155,Allen Street,155.0
1888,"Weinberger Edward, 151 E Houston",Weinberger Edward ,151 E Houston ,E Houston ,151,Houston Street E,151.0
1889,"Weiner Wilheimina, 199 Forsyth",Weiner Wilheimina ,199 Forsyth  ,Forsyth  ,199,Forsyth Street,199.0
1890,"Weisblat Isaac, 283 Madison",Weisblat Isaac ,283 Madison  ,Madison  ,283,Madison Street,283.0
1891,"Weiser Samuel, 92 Rivington",Weiser Samuel ,92 Rivington  ,Rivington  ,92,Rivington Street,92.0
1892,"Weiss Adolph, 13 Clinton pl",Weiss Adolph ,13 Clinton pl ,Clinton pl ,13,Clinton Place,13.0
1893,Weiss Edward D. 58 E 13th,Weiss Edward D ,58 E 13th ,E 13th ,58,E 13th Street,58.0
1894,"Weiss Herman, 328 E Houston",Weiss Herman ,328 E Houston ,E Houston ,328,Houston Street E,328.0
1895,"Weisz & Bohm, 245 E Houston",Weisz & Bohm ,245 E Houston ,E Houston ,245,Houston Street E,245.0
1896,"Wembacher & Weiss, 177 William",Wembacher & Weiss ,177 William  ,William  ,177,William Street,177.0
1897,"Wendling George, 1665 Av A",Wendling George ,1665 Av A ,Av A ,1665,Av A,1665.0
1898,"+Wennerholm John, 341, 10th av",+Wennerholm John ,341 10th av ,10th av ,341,10th Avenue,341.0
1899,"Wennerholm John Jr, 274, 10th av",Wennerholm John Jr ,274 10th av ,10th av ,274,10th Avenue,274.0
1900,"Wennerholm John P. 150, 10th av",Wennerholm John P ,150 10th av ,10th av ,150,10th Avenue,150.0
1901,"Werner Sophia, 12 W 4th",Werner Sophia ,12 W 4th ,W 4th ,12,W 4th Street,12.0
1902,"Wertheim & Platzman, 697 Bway",Wertheim & Platzman ,697 Broadway,Broadway,697,Broadway,697.0
1903,"Westerhold Anna, 52 W 30th",Westerhold Anna ,52 W 30th ,W 30th ,52,W 30th Street,52.0
1904,"Westerman Carl, 46 Grand",Westerman Carl ,46 Grand st  ,Grand st  ,46,Grand Street,46.0
1905,"Westermeir Joseph, 526, 3d av",Westermeir Joseph ,526 3rd av ,3rd av ,526,3rd Avenue,526.0
1906,"Westphal Amalia, 366 Pearl",Westphal Amalia ,366 Pearl  ,Pearl  ,366,Pearl Street,366.0
1907,"Wetmore James, 3462, 3d av",Wetmore James ,3462 3rd av ,3rd av ,3462,3rd Avenue,3462.0
1908,"Wettach John, 5 Morris",Wettach John ,5 Morris  ,Morris  ,5,Morris Street,5.0
1909,"Wettlaufer William L. 597, 9th av",Wettlaufer William L ,597 9th av ,9th av ,597,9th Avenue,597.0
1910,"Wettner Conrad, 112 Gwich",Wettner Conrad ,112 Greenwich,Greenwich,112,Greenwich Street,112.0
1911,"Whalen & Hart, 176 W Bway",Whalen & Hart ,176 W Broadway,W Broadway,176,Broadway W,176.0
1912,"White Francesco, 18 Varick pl",White Francesco ,18 Varick pl ,Varick pl ,18,Varick Place,18.0
1913,White G. 118 W 31st,White G ,118 W 31st ,W 31st ,118,W 31st Street,118.0
1914,White George W. 349 Canal,White George W ,349 Canal  ,Canal  ,349,Canal Street,349.0
1915,White Jerald N. 116 Maiden la,White Jerald N ,116 Maiden ln ,Maiden ln ,116,Maiden Lane,116.0
1916,"White Marion, 146 E 129th",White Marion ,146 E 129th ,E 129th ,146,E 129th Street,146.0
1917,White Park J. 1162 Bway,White Park J ,1162 Broadway,Broadway,1162,Broadway,1162.0
1918,"+White Thomas, White Plains rd, Wakefield",+White Thomas White Plains rd Wakefield,   ,  ,,,
1919,"Whitney Elias J. 85, 4th av",Whitney Elias J ,85 4th av ,4th av ,85,4th Avenue,85.0
1920,"Whittaker Charles, 240 W 23d",Whittaker Charles ,240 W 23rd ,W 23rd ,240,W 23rd Street,240.0
1921,Wiehl Ernest. 102 E 14th,Wiehl Ernest ,102 E 14th ,E 14th ,102,E 14th Street,102.0
1922,"Wiehl & Widmann, 101 Chambers & 18 Beaver",Wiehl & Widmann ,101 Chambers  ,Chambers  ,101,Chambers Street,101.0
1923,"Wiehl & Widmann, 101 Chambers & 18 Beaver",Wiehl & Widmann ,18 Beaver  ,Beaver  ,18,Beaver Street,18.0
1924,Wieland Charles. 248 E Houston,Wieland Charles ,248 E Houston ,E Houston ,248,Houston Street E,248.0
1925,"Wieners Henry, 123 Av D",Wieners Henry ,123 Av D ,Av D ,123,D Avenue,123.0
1926,"Wienkens Henry, 249 Bowery",Wienkens Henry ,249 Bowery  ,Bowery  ,249,Bowery Street,249.0
1927,Wiese Frederick 67 W Bway,Wiese Frederick ,67 W Broadway,W Broadway,67,Broadway W,67.0
1928,"+Wietander Arthur, 60 New Chambers",+Wietander Arthur ,60 New Chambers ,New Chambers ,60,New Chambers Street,60.0
1929,"Wilck John, 361 W 29th",Wilck John ,361 W 29th ,W 29th ,361,W 29th Street,361.0
1930,"Wilking Herman, Desbrosses c West",Wilking Herman Desbrosses c West,   ,  ,,,
1931,"Williams George, 340 W 41st",Williams George ,340 W 41st ,W 41st ,340,W 41st Street,340.0
1932,Williams Nathaniel P. 152 South,Williams Nathaniel P ,152 South  ,South  ,152,South Street,152.0
1933,"Williams & Kugler, 61 E 12th",Williams & Kugler ,61 E 12th ,E 12th ,61,E 12th Street,61.0
1934,"Williams & Thurston, 349 Bowery",Williams & Thurston ,349 Bowery  ,Bowery  ,349,Bowery Street,349.0
1935,"Williman Koby, 26 Bond",Williman Koby ,26 Bond  ,Bond  ,26,Bond Street,26.0
1936,Wilmot Kate. 26 New,Wilmot Kate ,26 New  ,New  ,26,New Street,26.0
1937,"Wilser Frank, 2988 Bway",Wilser Frank ,2988 Broadway,Broadway,2988,Broadway,2988.0
1938,Wilson John. 120 Cedar,Wilson John ,120 Cedar  ,Cedar  ,120,Cedar Street,120.0
1939,Wilson John J. 238 E 96th,Wilson John J ,238 E 96th ,E 96th ,238,E 96th Street,238.0
1940,"Wilson Joseph, 246 W 47th",Wilson Joseph ,246 W 47th ,W 47th ,246,W 47th Street,246.0
1941,"Wilson Louis, 97 Macdougal",Wilson Louis ,97 Macdougal  ,Macdougal  ,97,Mac Dougal Street,97.0
1942,Wilson Thomas P. 600 Grand,Wilson Thomas P ,600 Grand st  ,Grand st  ,600,Grand Street,600.0
1943,"Wilt Isaac, 484. 8th av",Wilt Isaac ,484 8th av ,8th av ,484,8th Avenue,484.0
1944,"Wimpfheimer Leopold, 103 Bleecker",Wimpfheimer Leopold ,103 Bleecker  ,Bleecker  ,103,Bleecker Street,103.0
1945,"Wind Ferdinand, 626 W 30th",Wind Ferdinand ,626 W 30th ,W 30th ,626,W 30th Street,626.0
1946,"Windisch Charles, 269 W 23d",Windisch Charles ,269 W 23rd ,W 23rd ,269,W 23rd Street,269.0
1947,"Wing Sing, 3 Doyers",Wing Sing ,3 Doyers  ,Doyers  ,3,Doyers Street,3.0
1948,"+Wingen Louisa J. 959, 3d av",+Wingen Louisa J ,959 3rd av ,3rd av ,959,3rd Avenue,959.0
1949,"Winneg William, 598, 11th av",Winneg William ,598 11th av ,11th av ,598,11th Avenue,598.0
1950,"Winnish William, 501 W 42d",Winnish William ,501 W 42nd ,W 42nd ,501,W 42nd Street,501.0
1951,"Winter Ernest, 237 E 127th",Winter Ernest ,237 E 127th ,E 127th ,237,E 127th Street,237.0
1952,WINTER JOHN H. A. 82 University pl.,WINTER JOHN H A ,82 University pl ,University pl ,82,University Place,82.0
1953,"Winter Julius, 233, 2d",Winter Julius ,233 2nd  ,2nd  ,233,2nd Avenue,233.0
1954,"Wirsing John, 9 Gwich av",Wirsing John ,9 Greenwich av ,Greenwich av ,9,Greenwich Avenue,9.0
1955,"Witte Leopold, 600 W 22d",Witte Leopold ,600 W 22nd ,W 22nd ,600,W 22nd Street,600.0
1956,"Wittholm John, Newell av. Wmsbridge",Wittholm John Newell av Wmsbridge,   ,  ,,,
1957,"Witthopf Conrad, 405, 3d av",Witthopf Conrad ,405 3rd av ,3rd av ,405,3rd Avenue,405.0
1958,"Wizemann Gotthelf, 244 W 116th",Wizemann Gotthelf ,244 W 116th ,W 116th ,244,W 116th Street,244.0
1959,"Woerfeld Gustav, 1389, 5th av",Woerfeld Gustav ,1389 5th av ,5th av ,1389,5th Avenue,1389.0
1960,"+Wolf Frederick. 1330, 1st av",+Wolf Frederick ,1330 1st av ,1st av ,1330,1st Avenue,1330.0
1961,"Wolf Nathan, 84 Spring",Wolf Nathan ,84 Spring  ,Spring  ,84,Spring Street,84.0
1962,"+Wolfer Frank, 175 E 120th",+Wolfer Frank ,175 E 120th ,E 120th ,175,E 120th Street,175.0
1963,+Wolk Jane. 182 E 120th,+Wolk Jane ,182 E 120th ,E 120th ,182,E 120th Street,182.0
1964,"Wollenhaupt August, 53 Mercer",Wollenhaupt August ,53 Mercer  ,Mercer  ,53,Mercer Street,53.0
1965,"Wolz Philip, 24 Desbrosses",Wolz Philip ,24 Desbrosses  ,Desbrosses  ,24,Desbrosses Street,24.0
1966,Woodbridge Eunie C. 119 Water,Woodbridge Eunie C ,119 Water st  ,Water st  ,119,Water Street,119.0
1967,"Woolson John A. 878, 8th av",Woolson John A ,878 8th av ,8th av ,878,8th Avenue,878.0
1968,"Workman Frank, 253 Bowery",Workman Frank ,253 Bowery  ,Bowery  ,253,Bowery Street,253.0
1969,"Wright Warren, 2388, 8d av",Wright Warren ,2388 8d av ,8d av ,2388,8th Avenue,2388.0
1970,Yannacopulo Ellas. 50 Madison,Yannacopulo Ellas ,50 Madison  ,Madison  ,50,Madison Street,50.0
1971,"Yaralianz George D. 691, 1st av",Yaralianz George D ,691 1st av ,1st av ,691,1st Avenue,691.0
1972,+Yates Robert. 20 Fulton mkt,+Yates Robert ,20 Fulton mkt ,Fulton mkt ,20,Fulton Street,20.0
1973,"Yost & Hoogkamp, 399, 4th av",Yost & Hoogkamp ,399 4th av ,4th av ,399,4th Avenue,399.0
1974,"Young George, 53 E 12th",Young George ,53 E 12th ,E 12th ,53,E 12th Street,53.0
1975,"Young James W, 600, 6th av",Young James W ,600 6th av ,6th av ,600,6th Avenue,600.0
1976,"Young Morris, 20 E 14th",Young Morris ,20 E 14th ,E 14th ,20,E 14th Street,20.0
1977,Young Samuel W. 621 Bway,Young Samuel W ,621 Broadway,Broadway,621,Broadway,621.0
1978,"Zahn Henry, 7 E Bway",Zahn Henry ,7 E Broadway,E Broadway,7,Broadway E,7.0
1979,"Zaloumes John, 125 Washn",Zaloumes John ,125 Washington,Washington,125,Washington Street,125.0
1980,Zangheri Edward J. 17 E 22d,Zangheri Edward J ,17 E 22nd ,E 22nd ,17,E 22nd Street,17.0
1981,"Zeeck Gottfried, 155 Bowery",Zeeck Gottfried ,155 Bowery  ,Bowery  ,155,Bowery Street,155.0
1982,"Zeitien Philip, 126 1/2 Canal",Zeitien Philip ,126 Canal  ,Canal  ,126,Canal Street,126.0
1983,Zeltner Theodore. 549 Pearl,Zeltner Theodore ,549 Pearl  ,Pearl  ,549,Pearl Street,549.0
1984,Ziegler August. 95 Pearl,Ziegler August ,95 Pearl  ,Pearl  ,95,Pearl Street,95.0
1985,Ziegler Frank. 81 Manhattan,Ziegler Frank ,81 Manhattan  ,Manhattan  ,81,Manhattan Street,81.0
1986,Ziegler John. 19 Varick,Ziegler John ,19 Varick  ,Varick  ,19,Varick Street,19.0
1987,"Zimmer Robert, 29 Vandewater",Zimmer Robert ,29 VandeWater st  ,VandeWater st  ,29,Vandewater Street,29.0
1988,"Zimmerman Frederick, 399 Pearl",Zimmerman Frederick ,399 Pearl  ,Pearl  ,399,Pearl Street,399.0
1989,Zimmerman Solomon. 96 Sheriff,Zimmerman Solomon ,96 Sheriff  ,Sheriff  ,96,Sheriff Street,96.0
1990,Zimmermann Samuel. 32 Pearl,Zimmermann Samuel ,32 Pearl  ,Pearl  ,32,Pearl Street,32.0
1991,"Zennegg August, 2597, 8th av",Zennegg August ,2597 8th av ,8th av ,2597,8th Avenue,2597.0
1992,Zobel Christian F. 120 Bleecker,Zobel Christian F ,120 Bleecker  ,Bleecker  ,120,Bleecker Street,120.0
1993,"Zurcher & Kendeler, 73 E 4th",Zurcher & Kendeler ,73 E 4th ,E 4th ,73,E 4th Street,73.0
