DBA,BORO,BUILDING,STREET,ZIPCODE,Latitude,Longitude
RUSSIAN SAMOVAR,Manhattan,256,WEST   52 STREET,10019.0,40.763104258677004,-73.984192295536
VARENICHNAYA - PELMINI VARENICHKY,Brooklyn,3086,BRIGHTON    2 STREET,11235.0,40.576548577596995,-73.96505705633899
ANYWAY CAFE,Manhattan,34,EAST    2 STREET,10003.0,40.725111977320005,-73.990767580428
ROYAL GARDEN TBILISI,Brooklyn,230,KINGS HIGHWAY,11223.0,40.605397529131,-73.982371494666
OASIS CAFE,Brooklyn,2689,CONEY ISLAND AVENUE,11235.0,40.591053347963,-73.960627958371
RUSSIAN SAMOVAR,Manhattan,256,WEST   52 STREET,10019.0,40.763104258677004,-73.984192295536
ANYWAY CAFE,Manhattan,34,EAST    2 STREET,10003.0,40.725111977320005,-73.990767580428
SIGNATURE RESTAURANT/FALADA,Brooklyn,2007,EMMONS AVENUE,11235.0,40.583692239804,-73.947923769384
RUSSIAN TURKISH BATHS,Manhattan,268,EAST   10 STREET,10009.0,40.728344489977005,-73.983453717052
EL TIMBIRICHI RESTAURANT,Bronx,168,EAST  174 STREET,10457.0,40.844805209289,-73.909102951764
CAFE EUROASIA,Brooklyn,602,BRIGHTON BEACH AVENUE,11235.0,40.577626069185,-73.961294672205
SIGNATURE RESTAURANT/FALADA,Brooklyn,2007,EMMONS AVENUE,11235.0,40.583692239804,-73.947923769384
TAP BEER,Brooklyn,1781,SHEEPSHEAD BAY ROAD,11235.0,40.584171102484,-73.950792738413
OASIS CAFE,Brooklyn,2689,CONEY ISLAND AVENUE,11235.0,40.591053347963,-73.960627958371
CARAVAN,Brooklyn,1797,MCDONALD AVENUE,11230.0,40.609452521682,-73.973107236612
CAFE VOLNA,Brooklyn,3145,BRIGHTON    4 STREET,11235.0,40.575579011727,-73.96297333036101
SKAZKA,Brooklyn,2334,CONEY ISLAND AVENUE,11223.0,40.599916503298004,-73.96132131211
VAN'KA VSTAN'KA,Brooklyn,3810,NOSTRAND AVENUE,11235.0,40.590816601488,-73.940047410947
HOME MADE COOKING CAFE,Brooklyn,504,BRIGHTON BEACH AVENUE,11235.0,40.577431490011,-73.962194739292
SKAZKA,Brooklyn,2334,CONEY ISLAND AVENUE,11223.0,40.599916503298004,-73.96132131211
DARINA CAFE,Staten Island,315,SAND LANE,10305.0,40.592170781884,-74.067986779005
OLEANDR RESTAURANT,Brooklyn,410,BRIGHTON BEACH AVENUE,11235.0,40.577242386369,-73.963073199241
OASIS CAFE,Brooklyn,2689,CONEY ISLAND AVENUE,11235.0,40.591053347963,-73.960627958371
CMOLOVAR,Brooklyn,813,AVENUE U,11223.0,40.598127397561996,-73.962816740796
DEJAVU RESTAURANT,Brooklyn,262,KINGS HIGHWAY,11223.0,40.605251832989,-73.980981423324
CAFE VOLNA,Brooklyn,3145,BRIGHTON    4 STREET,11235.0,40.575579011727,-73.96297333036101
ANYWAY CAFE,Manhattan,34,EAST    2 STREET,10003.0,40.725111977320005,-73.990767580428
OASIS CAFE,Brooklyn,2689,CONEY ISLAND AVENUE,11235.0,40.591053347963,-73.960627958371
TETE-A-TETE,Brooklyn,2601,EAST   14 STREET,11235.0,40.587828989353,-73.955247301157
SKOVORODKA RESTAURANT,Brooklyn,615,BRIGHTON BEACH AVENUE,11235.0,40.577658983497,-73.961226256328
CAFE EUROASIA,Brooklyn,602,BRIGHTON BEACH AVENUE,11235.0,40.577626069185,-73.961294672205
RESTAURANT TATIANA,Brooklyn,3152,BRIGHTON    6 STREET,11235.0,40.575721132043,-73.961137392526
CAFE VOLNA,Brooklyn,3145,BRIGHTON    4 STREET,11235.0,40.575579011727,-73.96297333036101
CAFE VOLNA,Brooklyn,3145,BRIGHTON    4 STREET,11235.0,40.575579011727,-73.96297333036101
ANYWAY CAFE,Manhattan,34,EAST    2 STREET,10003.0,40.725111977320005,-73.990767580428
SIGNATURE RESTAURANT/FALADA,Brooklyn,2007,EMMONS AVENUE,11235.0,40.583692239804,-73.947923769384
RUSSIAN TURKISH BATHS,Manhattan,268,EAST   10 STREET,10009.0,40.728344489977005,-73.983453717052
MATRYOSHKA (SPA 88),Manhattan,88,FULTON STREET,10038.0,40.709291351284,-74.005944276042
Z FANCY FOODZ,Brooklyn,1212,AVENUE Z,11235.0,40.587580159348995,-73.957735320661
TSOB-TSOBE CAFE LOUNGE BAR,Brooklyn,2817,CONEY ISLAND AVENUE,11235.0,40.587828136795004,-73.960381441103
MATRYOSHKA (SPA 88),Manhattan,88,FULTON STREET,10038.0,40.709291351284,-74.005944276042
ALMAZ RESTAURANT,Brooklyn,238,KINGS HIGHWAY,11223.0,40.605342559227,-73.981896134198
5 STAR VILLAGE CAFE,Brooklyn,1968,CONEY ISLAND AVENUE,11223.0,40.609180462632,-73.962234315309
CAFE VOLNA,Brooklyn,3145,BRIGHTON    4 STREET,11235.0,40.575579011727,-73.96297333036101
TETE-A-TETE,Brooklyn,2601,EAST   14 STREET,11235.0,40.587828989353,-73.955247301157
CAFE VOLNA,Brooklyn,3145,BRIGHTON    4 STREET,11235.0,40.575579011727,-73.96297333036101
CAFE LILY,Brooklyn,42,AVENUE O,11204.0,40.61024500136,-73.983583946027
ANYWAY CAFE & BAR,Brooklyn,1602,GRAVESEND NECK ROAD,11229.0,40.595053025776,-73.95462310848501
SIGNATURE RESTAURANT/FALADA,Brooklyn,2007,EMMONS AVENUE,11235.0,40.583692239804,-73.947923769384
HOME MADE COOKING CAFE,Brooklyn,504,BRIGHTON BEACH AVENUE,11235.0,40.577431490011,-73.962194739292
GURMAN RESTAURANT,Brooklyn,2402,CONEY ISLAND AVENUE,11223.0,40.598684061231,-73.961224802721
CAFE TABU,Brooklyn,2205,AVENUE X,11235.0,40.592988885852,-73.948028111643
CAFE LILY,Brooklyn,42,AVENUE O,11204.0,40.61024500136,-73.983583946027
RUSSIAN SAMOVAR,Manhattan,256,WEST   52 STREET,10019.0,40.763104258677004,-73.984192295536
RUSSIAN VODKA ROOM,Manhattan,265,WEST   52 STREET,10019.0,40.763175639217,-73.98431501489199
TSOB-TSOBE CAFE LOUNGE BAR,Brooklyn,2817,CONEY ISLAND AVENUE,11235.0,40.587828136795004,-73.960381441103
5 STAR VILLAGE CAFE,Brooklyn,1968,CONEY ISLAND AVENUE,11223.0,40.609180462632,-73.962234315309
CAFE VOLNA,Brooklyn,3145,BRIGHTON    4 STREET,11235.0,40.575579011727,-73.96297333036101
ATLAS STEAKHOUSE,Brooklyn,943,CONEY ISLAND AVENUE,11230.0,40.634348966634995,-73.967361352111
SIGNATURE RESTAURANT/FALADA,Brooklyn,2007,EMMONS AVENUE,11235.0,40.583692239804,-73.947923769384
CHINAR RESTAURANT,Brooklyn,2775,CONEY ISLAND AVENUE,11235.0,40.588904122216,-73.960463610326
ALMAZ RESTAURANT,Brooklyn,238,KINGS HIGHWAY,11223.0,40.605342559227,-73.981896134198
BAKU PALACE,Brooklyn,2001,EMMONS AVENUE,11235.0,40.583684087202,-73.948103783475
SKAZKA,Brooklyn,2334,CONEY ISLAND AVENUE,11223.0,40.599916503298004,-73.96132131211
UMA'S,Queens,92-07,ROCKAWAY BEACH BOULEVARD,11693.0,40.586355312114,-73.815650198394
THE BOMOND RESTAURANT,Staten Island,4072,HYLAN BOULEVARD,10308.0,40.540317940614,-74.147661320466
CHINAR RESTAURANT,Brooklyn,2775,CONEY ISLAND AVENUE,11235.0,40.588904122216,-73.960463610326
ALMAZ RESTAURANT,Brooklyn,238,KINGS HIGHWAY,11223.0,40.605342559227,-73.981896134198
B66 CLUB,Brooklyn,6612,NEW UTRECHT AVENUE,11219.0,40.622765123659,-73.997961115377
HOME MADE COOKING CAFE,Brooklyn,504,BRIGHTON BEACH AVENUE,11235.0,40.577431490011,-73.962194739292
GOLDEN LEO RESTAURANT,Brooklyn,1794,SHEEPSHEAD BAY ROAD,11235.0,40.584042075768,-73.95074243141799
SKOVORODKA RESTAURANT,Brooklyn,615,BRIGHTON BEACH AVENUE,11235.0,40.577658983497,-73.961226256328
CAFE BORABORA,Queens,9708,QUEENS BLVD,11374.0,40.729209804938,-73.85989230109101
TATIANA GRILL AND CAFE,Brooklyn,3145,BRIGHTON    4 STREET,11235.0,40.575579011727,-73.96297333036101
RUSSIAN TURKISH BATHS,Manhattan,268,EAST   10 STREET,10009.0,40.728344489977005,-73.983453717052
CAFE LILY,Brooklyn,42,AVENUE O,11204.0,40.61024500136,-73.983583946027
RESTAURANT TATIANA,Brooklyn,3152,BRIGHTON    6 STREET,11235.0,40.575721132043,-73.961137392526
SKAZKA,Brooklyn,2334,CONEY ISLAND AVENUE,11223.0,40.599916503298004,-73.96132131211
CAFE LILY,Brooklyn,42,AVENUE O,11204.0,40.61024500136,-73.983583946027
MATRYOSHKA (SPA 88),Manhattan,88,FULTON STREET,10038.0,40.709291351284,-74.005944276042
TATIANA GRILL AND CAFE,Brooklyn,3145,BRIGHTON    4 STREET,11235.0,40.575579011727,-73.96297333036101
COFFEE SPOT CAFE,Brooklyn,1617,JEROME AVENUE,11235.0,40.587207614012,-73.952630268544
FOTEH'S TANDOORI,Brooklyn,2650,CONEY ISLAND AVENUE,11223.0,40.592115616554,-73.96073174732899
RIVEL GRILL & BAR,Brooklyn,1809,EMMONS AVENUE,11235.0,40.583470937139,-73.950228033896
ANYWAY CAFE & BAR,Brooklyn,1602,GRAVESEND NECK ROAD,11229.0,40.595053025776,-73.95462310848501
ANYWAY CAFE & BAR,Brooklyn,1602,GRAVESEND NECK ROAD,11229.0,40.595053025776,-73.95462310848501
CMOLOVAR,Brooklyn,813,AVENUE U,11223.0,40.598127397561996,-73.962816740796
UMA'S,Queens,92-07,ROCKAWAY BEACH BOULEVARD,11693.0,40.586355312114,-73.815650198394
DARINA CAFE,Staten Island,315,SAND LANE,10305.0,40.592170781884,-74.067986779005
SKOVORODKA RESTAURANT,Brooklyn,615,BRIGHTON BEACH AVENUE,11235.0,40.577658983497,-73.961226256328
CAFE VOLNA,Brooklyn,3145,BRIGHTON    4 STREET,11235.0,40.575579011727,-73.96297333036101
CAFE VOLNA,Brooklyn,3145,BRIGHTON    4 STREET,11235.0,40.575579011727,-73.96297333036101
GOLDEN LEO RESTAURANT,Brooklyn,1794,SHEEPSHEAD BAY ROAD,11235.0,40.584042075768,-73.95074243141799
CHINAR ON THE ISLAND,Staten Island,283,SAND LANE,10305.0,40.592596091025,-74.068210453189
TATIANA GRILL AND CAFE,Brooklyn,3145,BRIGHTON    4 STREET,11235.0,40.575579011727,-73.96297333036101
BELARUSSIAN XATA,Brooklyn,1655,SHEEPSHEAD BAY ROAD,11235.0,40.586529534874,-73.952349927343
CMOLOVAR,Brooklyn,813,AVENUE U,11223.0,40.598127397561996,-73.962816740796
OASIS CAFE,Brooklyn,2689,CONEY ISLAND AVENUE,11235.0,40.591053347963,-73.960627958371
CAFE VOLNA,Brooklyn,3145,BRIGHTON    4 STREET,11235.0,40.575579011727,-73.96297333036101
CHINAR ON THE ISLAND,Staten Island,283,SAND LANE,10305.0,40.592596091025,-74.068210453189
CAFE VOLNA,Brooklyn,3145,BRIGHTON    4 STREET,11235.0,40.575579011727,-73.96297333036101
THE RUSSIAN TEA ROOM,Manhattan,150,WEST   57 STREET,10019.0,40.76516752914,-73.979249711961
ANYWAY CAFE,Manhattan,34,EAST    2 STREET,10003.0,40.725111977320005,-73.990767580428
MUNCHBOX 21,Brooklyn,3100,OCEAN PARKWAY,11235.0,40.575860673145,-73.968639149456
HOME MADE COOKING CAFE,Brooklyn,504,BRIGHTON BEACH AVENUE,11235.0,40.577431490011,-73.962194739292
GOLDEN LEO RESTAURANT,Brooklyn,1794,SHEEPSHEAD BAY ROAD,11235.0,40.584042075768,-73.95074243141799
ANYWAY CAFE,Manhattan,34,EAST    2 STREET,10003.0,40.725111977320005,-73.990767580428
RESTAURANT TATIANA,Brooklyn,3152,BRIGHTON    6 STREET,11235.0,40.575721132043,-73.961137392526
SKOVORODKA RESTAURANT,Brooklyn,615,BRIGHTON BEACH AVENUE,11235.0,40.577658983497,-73.961226256328
GURMAN RESTAURANT,Brooklyn,2402,CONEY ISLAND AVENUE,11223.0,40.598684061231,-73.961224802721
SHERDOR RESTAURANT,Brooklyn,1917,AVENUE U,11229.0,40.599287284428,-73.952290373641
ALMAZ RESTAURANT,Brooklyn,238,KINGS HIGHWAY,11223.0,40.605342559227,-73.981896134198
CHILLAX MANHATTAN BEACH CAFE,Brooklyn,184,OXFORD STREET,11235.0,40.578527066455,-73.93795615768501
HOME MADE COOKING CAFE,Brooklyn,504,BRIGHTON BEACH AVENUE,11235.0,40.577431490011,-73.962194739292
VIS-A-VIS,Brooklyn,3100,OCEAN PARKWAY,11235.0,40.575860673145,-73.968639149456
TETE-A-TETE,Brooklyn,2601,EAST   14 STREET,11235.0,40.587828989353,-73.955247301157
TSOB-TSOBE CAFE LOUNGE BAR,Brooklyn,2817,CONEY ISLAND AVENUE,11235.0,40.587828136795004,-73.960381441103
RUSSIAN SAMOVAR,Manhattan,256,WEST   52 STREET,10019.0,40.763104258677004,-73.984192295536
HOME MADE COOKING CAFE,Brooklyn,504,BRIGHTON BEACH AVENUE,11235.0,40.577431490011,-73.962194739292
ANYWAY CAFE,Manhattan,34,EAST    2 STREET,10003.0,40.725111977320005,-73.990767580428
SKAZKA,Brooklyn,2334,CONEY ISLAND AVENUE,11223.0,40.599916503298004,-73.96132131211
VAN'KA VSTAN'KA,Brooklyn,3810,NOSTRAND AVENUE,11235.0,40.590816601488,-73.940047410947
GOLDEN LEO RESTAURANT,Brooklyn,1794,SHEEPSHEAD BAY ROAD,11235.0,40.584042075768,-73.95074243141799
SKAZKA,Brooklyn,2334,CONEY ISLAND AVENUE,11223.0,40.599916503298004,-73.96132131211
TETE-A-TETE,Brooklyn,2601,EAST   14 STREET,11235.0,40.587828989353,-73.955247301157
TATIANA GRILL AND CAFE,Brooklyn,3145,BRIGHTON    4 STREET,11235.0,40.575579011727,-73.96297333036101
HOME MADE COOKING CAFE,Brooklyn,504,BRIGHTON BEACH AVENUE,11235.0,40.577431490011,-73.962194739292
CAFE LILY,Brooklyn,42,AVENUE O,11204.0,40.61024500136,-73.983583946027
FOTEH'S TANDOORI,Brooklyn,2650,CONEY ISLAND AVENUE,11223.0,40.592115616554,-73.96073174732899
TETE-A-TETE,Brooklyn,2601,EAST   14 STREET,11235.0,40.587828989353,-73.955247301157
OCEAN VIEW CAFE,Brooklyn,290,BRIGHTON BEACH AVENUE,11235.0,40.576940905098,-73.964480884059
CARAVAN,Brooklyn,1797,MCDONALD AVENUE,11230.0,40.609452521682,-73.973107236612
SIGNATURE RESTAURANT/FALADA,Brooklyn,2007,EMMONS AVENUE,11235.0,40.583692239804,-73.947923769384
THE BOMOND RESTAURANT,Staten Island,4072,HYLAN BOULEVARD,10308.0,40.540317940614,-74.147661320466
EL TIMBIRICHI RESTAURANT,Bronx,168,EAST  174 STREET,10457.0,40.844805209289,-73.909102951764
SKAZKA,Brooklyn,2334,CONEY ISLAND AVENUE,11223.0,40.599916503298004,-73.96132131211
CMOLOVAR,Brooklyn,813,AVENUE U,11223.0,40.598127397561996,-73.962816740796
ATLAS STEAKHOUSE,Brooklyn,943,CONEY ISLAND AVENUE,11230.0,40.634348966634995,-73.967361352111
OCEAN VIEW CAFE,Brooklyn,290,BRIGHTON BEACH AVENUE,11235.0,40.576940905098,-73.964480884059
CAFE LILY,Brooklyn,42,AVENUE O,11204.0,40.61024500136,-73.983583946027
TRIO RESTAURANT,Queens,18134,UNION TPKE,11365.0,40.727455230203,-73.786459625901
TETE-A-TETE,Brooklyn,2601,EAST   14 STREET,11235.0,40.587828989353,-73.955247301157
ANYWAY CAFE,Manhattan,34,EAST    2 STREET,10003.0,40.725111977320005,-73.990767580428
B66 CLUB,Brooklyn,6612,NEW UTRECHT AVENUE,11219.0,40.622765123659,-73.997961115377
SKOVORODKA RESTAURANT,Brooklyn,615,BRIGHTON BEACH AVENUE,11235.0,40.577658983497,-73.961226256328
THE LIGHTS OF BAKU,Brooklyn,2707,86 STREET,11223.0,40.594640615253,-73.981769420041
HOME MADE COOKING CAFE,Brooklyn,504,BRIGHTON BEACH AVENUE,11235.0,40.577431490011,-73.962194739292
TATIANA GRILL AND CAFE,Brooklyn,3145,BRIGHTON    4 STREET,11235.0,40.575579011727,-73.96297333036101
CAFE VOLNA,Brooklyn,3145,BRIGHTON    4 STREET,11235.0,40.575579011727,-73.96297333036101
CAFE LILY,Brooklyn,42,AVENUE O,11204.0,40.61024500136,-73.983583946027
ATLAS STEAKHOUSE,Brooklyn,943,CONEY ISLAND AVENUE,11230.0,40.634348966634995,-73.967361352111
CAFE VOLNA,Brooklyn,3145,BRIGHTON    4 STREET,11235.0,40.575579011727,-73.96297333036101
DARINA CAFE,Staten Island,315,SAND LANE,10305.0,40.592170781884,-74.067986779005
SKOVORODKA RESTAURANT,Brooklyn,615,BRIGHTON BEACH AVENUE,11235.0,40.577658983497,-73.961226256328
ALMAZ RESTAURANT,Brooklyn,238,KINGS HIGHWAY,11223.0,40.605342559227,-73.981896134198
CMOLOVAR,Brooklyn,813,AVENUE U,11223.0,40.598127397561996,-73.962816740796
CHINAR ON THE ISLAND,Staten Island,283,SAND LANE,10305.0,40.592596091025,-74.068210453189
BELARUSSIAN XATA,Brooklyn,1655,SHEEPSHEAD BAY ROAD,11235.0,40.586529534874,-73.952349927343
MATRYOSHKA (SPA 88),Manhattan,88,FULTON STREET,10038.0,40.709291351284,-74.005944276042
GURMAN RESTAURANT,Brooklyn,2402,CONEY ISLAND AVENUE,11223.0,40.598684061231,-73.961224802721
CAFE VOLNA,Brooklyn,3145,BRIGHTON    4 STREET,11235.0,40.575579011727,-73.96297333036101
5 STAR VILLAGE CAFE,Brooklyn,1968,CONEY ISLAND AVENUE,11223.0,40.609180462632,-73.962234315309
GURMAN RESTAURANT,Brooklyn,2402,CONEY ISLAND AVENUE,11223.0,40.598684061231,-73.961224802721
CAFE VOLNA,Brooklyn,3145,BRIGHTON    4 STREET,11235.0,40.575579011727,-73.96297333036101
MARI VANNA,Manhattan,41,EAST   20 STREET,10003.0,40.738874077713,-73.98904798618901
SKAZKA,Brooklyn,2334,CONEY ISLAND AVENUE,11223.0,40.599916503298004,-73.96132131211
DOLMA RESTAURANT,Brooklyn,311,AVENUE X,11223.0,40.590406054254,-73.971491103146
VESELKA ESSEX,Manhattan,115,DELANCEY STREET,10002.0,40.718502330547,-73.988084546292
BELARUSSIAN XATA,Brooklyn,1655,SHEEPSHEAD BAY ROAD,11235.0,40.586529534874,-73.952349927343
GOLDEN LEO RESTAURANT,Brooklyn,1794,SHEEPSHEAD BAY ROAD,11235.0,40.584042075768,-73.95074243141799
CAFE LILY,Brooklyn,42,AVENUE O,11204.0,40.61024500136,-73.983583946027
ROXY'S,Queens,2279,STEINWAY ST,11105.0,40.771590607643,-73.90757861032
OCEAN VIEW CAFE,Brooklyn,290,BRIGHTON BEACH AVENUE,11235.0,40.576940905098,-73.964480884059
OCEAN VIEW CAFE,Brooklyn,290,BRIGHTON BEACH AVENUE,11235.0,40.576940905098,-73.964480884059
GOLDEN LEO RESTAURANT,Brooklyn,1794,SHEEPSHEAD BAY ROAD,11235.0,40.584042075768,-73.95074243141799
HOME MADE COOKING CAFE,Brooklyn,504,BRIGHTON BEACH AVENUE,11235.0,40.577431490011,-73.962194739292
SHERDOR RESTAURANT,Brooklyn,1917,AVENUE U,11229.0,40.599287284428,-73.952290373641
CASPIY,Brooklyn,1309,AVENUE Z,11235.0,40.587870378001,-73.95580533230199
ANYWAY CAFE & BAR,Brooklyn,1602,GRAVESEND NECK ROAD,11229.0,40.595053025776,-73.95462310848501
COFFEE SPOT CAFE,Brooklyn,1617,JEROME AVENUE,11235.0,40.587207614012,-73.952630268544
THE LIGHTS OF BAKU,Brooklyn,2707,86 STREET,11223.0,40.594640615253,-73.981769420041
VESELKA ESSEX,Manhattan,115,DELANCEY STREET,10002.0,40.718502330547,-73.988084546292
SKAZKA,Brooklyn,2334,CONEY ISLAND AVENUE,11223.0,40.599916503298004,-73.96132131211
VAN'KA VSTAN'KA,Brooklyn,3810,NOSTRAND AVENUE,11235.0,40.590816601488,-73.940047410947
CAFE TABU,Brooklyn,2205,AVENUE X,11235.0,40.592988885852,-73.948028111643
CAFE VOLNA,Brooklyn,3145,BRIGHTON    4 STREET,11235.0,40.575579011727,-73.96297333036101
CAFE VOLNA,Brooklyn,3145,BRIGHTON    4 STREET,11235.0,40.575579011727,-73.96297333036101
CMOLOVAR,Brooklyn,813,AVENUE U,11223.0,40.598127397561996,-73.962816740796
OLEANDR RESTAURANT,Brooklyn,410,BRIGHTON BEACH AVENUE,11235.0,40.577242386369,-73.963073199241
SKOVORODKA RESTAURANT,Brooklyn,615,BRIGHTON BEACH AVENUE,11235.0,40.577658983497,-73.961226256328
5 STAR VILLAGE CAFE,Brooklyn,1968,CONEY ISLAND AVENUE,11223.0,40.609180462632,-73.962234315309
RUSSIAN TURKISH BATHS,Manhattan,268,EAST   10 STREET,10009.0,40.728344489977005,-73.983453717052
CAFE LILY,Brooklyn,42,AVENUE O,11204.0,40.61024500136,-73.983583946027
RESTAURANT TATIANA,Brooklyn,3152,BRIGHTON    6 STREET,11235.0,40.575721132043,-73.961137392526
SHERDOR RESTAURANT,Brooklyn,1917,AVENUE U,11229.0,40.599287284428,-73.952290373641
CAFE LILY,Brooklyn,42,AVENUE O,11204.0,40.61024500136,-73.983583946027
5 STAR VILLAGE CAFE,Brooklyn,1968,CONEY ISLAND AVENUE,11223.0,40.609180462632,-73.962234315309
ANYWAY CAFE & BAR,Brooklyn,1602,GRAVESEND NECK ROAD,11229.0,40.595053025776,-73.95462310848501
SHERDOR RESTAURANT,Brooklyn,1917,AVENUE U,11229.0,40.599287284428,-73.952290373641
RUSSIAN VODKA ROOM,Manhattan,265,WEST   52 STREET,10019.0,40.763175639217,-73.98431501489199
BATHHOUSE,Brooklyn,103,NORTH   10 STREET,11249.0,40.720655318805,-73.95780212328
CAFE LILY,Brooklyn,42,AVENUE O,11204.0,40.61024500136,-73.983583946027
RIVEL GRILL & BAR,Brooklyn,1809,EMMONS AVENUE,11235.0,40.583470937139,-73.950228033896
TSOB-TSOBE CAFE LOUNGE BAR,Brooklyn,2817,CONEY ISLAND AVENUE,11235.0,40.587828136795004,-73.960381441103
CHAIHANA UZBEKISTAN BAKERY,Brooklyn,14,AVENUE O,11204.0,40.610129865349,-73.984628434181
CAFE VOLNA,Brooklyn,3145,BRIGHTON    4 STREET,11235.0,40.575579011727,-73.96297333036101
GOLDEN LEO RESTAURANT,Brooklyn,1794,SHEEPSHEAD BAY ROAD,11235.0,40.584042075768,-73.95074243141799
SIGNATURE RESTAURANT/FALADA,Brooklyn,2007,EMMONS AVENUE,11235.0,40.583692239804,-73.947923769384
SKAZKA,Brooklyn,2334,CONEY ISLAND AVENUE,11223.0,40.599916503298004,-73.96132131211
CHAIHANA UZBEKISTAN BAKERY,Brooklyn,14,AVENUE O,11204.0,40.610129865349,-73.984628434181
SKAZKA,Brooklyn,2334,CONEY ISLAND AVENUE,11223.0,40.599916503298004,-73.96132131211
SIGNATURE RESTAURANT/FALADA,Brooklyn,2007,EMMONS AVENUE,11235.0,40.583692239804,-73.947923769384
CAFE VOLNA,Brooklyn,3145,BRIGHTON    4 STREET,11235.0,40.575579011727,-73.96297333036101
RUSSIAN TURKISH BATHS,Manhattan,268,EAST   10 STREET,10009.0,40.728344489977005,-73.983453717052
CHINAR RESTAURANT,Brooklyn,2775,CONEY ISLAND AVENUE,11235.0,40.588904122216,-73.960463610326
HOME MADE COOKING CAFE,Brooklyn,504,BRIGHTON BEACH AVENUE,11235.0,40.577431490011,-73.962194739292
OASIS CAFE,Brooklyn,2689,CONEY ISLAND AVENUE,11235.0,40.591053347963,-73.960627958371
5 STAR VILLAGE CAFE,Brooklyn,1968,CONEY ISLAND AVENUE,11223.0,40.609180462632,-73.962234315309
SIGNATURE RESTAURANT/FALADA,Brooklyn,2007,EMMONS AVENUE,11235.0,40.583692239804,-73.947923769384
ATLAS STEAKHOUSE,Brooklyn,943,CONEY ISLAND AVENUE,11230.0,40.634348966634995,-73.967361352111
ATLAS STEAKHOUSE,Brooklyn,943,CONEY ISLAND AVENUE,11230.0,40.634348966634995,-73.967361352111
OASIS CAFE,Brooklyn,2689,CONEY ISLAND AVENUE,11235.0,40.591053347963,-73.960627958371
GURMAN RESTAURANT,Brooklyn,2402,CONEY ISLAND AVENUE,11223.0,40.598684061231,-73.961224802721
Z FANCY FOODZ,Brooklyn,1212,AVENUE Z,11235.0,40.587580159348995,-73.957735320661
B66 CLUB,Brooklyn,6612,NEW UTRECHT AVENUE,11219.0,40.622765123659,-73.997961115377
ANYWAY CAFE,Manhattan,34,EAST    2 STREET,10003.0,40.725111977320005,-73.990767580428
CHINAR ON THE ISLAND,Staten Island,283,SAND LANE,10305.0,40.592596091025,-74.068210453189
COFFEE SPOT CAFE,Brooklyn,1617,JEROME AVENUE,11235.0,40.587207614012,-73.952630268544
TSOB-TSOBE CAFE LOUNGE BAR,Brooklyn,2817,CONEY ISLAND AVENUE,11235.0,40.587828136795004,-73.960381441103
GOLDEN LEO RESTAURANT,Brooklyn,1794,SHEEPSHEAD BAY ROAD,11235.0,40.584042075768,-73.95074243141799
SKAZKA,Brooklyn,2334,CONEY ISLAND AVENUE,11223.0,40.599916503298004,-73.96132131211
RUSSIAN SAMOVAR,Manhattan,256,WEST   52 STREET,10019.0,40.763104258677004,-73.984192295536
MARI VANNA,Manhattan,41,EAST   20 STREET,10003.0,40.738874077713,-73.98904798618901
CAFE TABU,Brooklyn,2205,AVENUE X,11235.0,40.592988885852,-73.948028111643
FOTEH'S TANDOORI,Brooklyn,2650,CONEY ISLAND AVENUE,11223.0,40.592115616554,-73.96073174732899
SKOVORODKA RESTAURANT,Brooklyn,615,BRIGHTON BEACH AVENUE,11235.0,40.577658983497,-73.961226256328
RUSSIAN SAMOVAR,Manhattan,256,WEST   52 STREET,10019.0,40.763104258677004,-73.984192295536
SHERDOR RESTAURANT,Brooklyn,1917,AVENUE U,11229.0,40.599287284428,-73.952290373641
DOLMA RESTAURANT,Brooklyn,311,AVENUE X,11223.0,40.590406054254,-73.971491103146
CMOLOVAR,Brooklyn,813,AVENUE U,11223.0,40.598127397561996,-73.962816740796
HOME MADE COOKING CAFE,Brooklyn,504,BRIGHTON BEACH AVENUE,11235.0,40.577431490011,-73.962194739292
OASIS CAFE,Brooklyn,2689,CONEY ISLAND AVENUE,11235.0,40.591053347963,-73.960627958371
ANYWAY CAFE,Manhattan,34,EAST    2 STREET,10003.0,40.725111977320005,-73.990767580428
CAFE EUROASIA,Brooklyn,602,BRIGHTON BEACH AVENUE,11235.0,40.577626069185,-73.961294672205
ATLAS STEAKHOUSE,Brooklyn,943,CONEY ISLAND AVENUE,11230.0,40.634348966634995,-73.967361352111
GOLDEN LEO RESTAURANT,Brooklyn,1794,SHEEPSHEAD BAY ROAD,11235.0,40.584042075768,-73.95074243141799
MATRYOSHKA (SPA 88),Manhattan,88,FULTON STREET,10038.0,40.709291351284,-74.005944276042
CHAIHANA UZBEKISTAN BAKERY,Brooklyn,14,AVENUE O,11204.0,40.610129865349,-73.984628434181
MATRYOSHKA (SPA 88),Manhattan,88,FULTON STREET,10038.0,40.709291351284,-74.005944276042
SKAZKA,Brooklyn,2334,CONEY ISLAND AVENUE,11223.0,40.599916503298004,-73.96132131211
DAA! DUMPLINGS,Manhattan,1000S,8 AVENUE,10019.0,40.766812226924,-73.982808747226
RUSSIAN VODKA ROOM,Manhattan,265,WEST   52 STREET,10019.0,40.763175639217,-73.98431501489199
CARAVAN,Brooklyn,1797,MCDONALD AVENUE,11230.0,40.609452521682,-73.973107236612
SHERDOR RESTAURANT,Brooklyn,1917,AVENUE U,11229.0,40.599287284428,-73.952290373641
SKAZKA,Brooklyn,2334,CONEY ISLAND AVENUE,11223.0,40.599916503298004,-73.96132131211
FOTEH'S TANDOORI,Brooklyn,2650,CONEY ISLAND AVENUE,11223.0,40.592115616554,-73.96073174732899
CAFE EUROASIA,Brooklyn,602,BRIGHTON BEACH AVENUE,11235.0,40.577626069185,-73.961294672205
SKAZKA,Brooklyn,2334,CONEY ISLAND AVENUE,11223.0,40.599916503298004,-73.96132131211
DOLMA RESTAURANT,Brooklyn,311,AVENUE X,11223.0,40.590406054254,-73.971491103146
ATLAS STEAKHOUSE,Brooklyn,943,CONEY ISLAND AVENUE,11230.0,40.634348966634995,-73.967361352111
CAFE VOLNA,Brooklyn,3145,BRIGHTON    4 STREET,11235.0,40.575579011727,-73.96297333036101
CASPIY,Brooklyn,1309,AVENUE Z,11235.0,40.587870378001,-73.95580533230199
MUNCHBOX 21,Brooklyn,3100,OCEAN PARKWAY,11235.0,40.575860673145,-73.968639149456
RESTAURANT TATIANA,Brooklyn,3152,BRIGHTON    6 STREET,11235.0,40.575721132043,-73.961137392526
BELARUSSIAN XATA,Brooklyn,1655,SHEEPSHEAD BAY ROAD,11235.0,40.586529534874,-73.952349927343
THE LIGHTS OF BAKU,Brooklyn,2707,86 STREET,11223.0,40.594640615253,-73.981769420041
SKOVORODKA RESTAURANT,Brooklyn,615,BRIGHTON BEACH AVENUE,11235.0,40.577658983497,-73.961226256328
SKOVORODKA RESTAURANT,Brooklyn,615,BRIGHTON BEACH AVENUE,11235.0,40.577658983497,-73.961226256328
TATIANA GRILL AND CAFE,Brooklyn,3145,BRIGHTON    4 STREET,11235.0,40.575579011727,-73.96297333036101
RIVEL GRILL & BAR,Brooklyn,1809,EMMONS AVENUE,11235.0,40.583470937139,-73.950228033896
RUSSIAN TURKISH BATHS,Manhattan,268,EAST   10 STREET,10009.0,40.728344489977005,-73.983453717052
B66 CLUB,Brooklyn,6612,NEW UTRECHT AVENUE,11219.0,40.622765123659,-73.997961115377
SIGNATURE RESTAURANT/FALADA,Brooklyn,2007,EMMONS AVENUE,11235.0,40.583692239804,-73.947923769384
VESELKA ESSEX,Manhattan,115,DELANCEY STREET,10002.0,40.718502330547,-73.988084546292
CAFE VOLNA,Brooklyn,3145,BRIGHTON    4 STREET,11235.0,40.575579011727,-73.96297333036101
CHINAR RESTAURANT,Brooklyn,2775,CONEY ISLAND AVENUE,11235.0,40.588904122216,-73.960463610326
URGUT TANDIR EXPRESS,Brooklyn,3915,18 AVENUE,11218.0,40.632777635863,-73.97283839843
VIS-A-VIS,Brooklyn,3100,OCEAN PARKWAY,11235.0,40.575860673145,-73.968639149456
FOTEH'S TANDOORI,Brooklyn,2650,CONEY ISLAND AVENUE,11223.0,40.592115616554,-73.96073174732899
SHERDOR RESTAURANT,Brooklyn,1917,AVENUE U,11229.0,40.599287284428,-73.952290373641
DARINA CAFE,Staten Island,315,SAND LANE,10305.0,40.592170781884,-74.067986779005
RUSSIAN TURKISH BATHS,Manhattan,268,EAST   10 STREET,10009.0,40.728344489977005,-73.983453717052
CAFE VOLNA,Brooklyn,3145,BRIGHTON    4 STREET,11235.0,40.575579011727,-73.96297333036101
COFFEE SPOT CAFE,Brooklyn,1617,JEROME AVENUE,11235.0,40.587207614012,-73.952630268544
CAFE VOLNA,Brooklyn,3145,BRIGHTON    4 STREET,11235.0,40.575579011727,-73.96297333036101
FOTEH'S TANDOORI,Brooklyn,2650,CONEY ISLAND AVENUE,11223.0,40.592115616554,-73.96073174732899
TATIANA GRILL AND CAFE,Brooklyn,3145,BRIGHTON    4 STREET,11235.0,40.575579011727,-73.96297333036101
CAFE VOLNA,Brooklyn,3145,BRIGHTON    4 STREET,11235.0,40.575579011727,-73.96297333036101
CAFE LILY,Brooklyn,42,AVENUE O,11204.0,40.61024500136,-73.983583946027
SKAZKA,Brooklyn,2334,CONEY ISLAND AVENUE,11223.0,40.599916503298004,-73.96132131211
THE LIGHTS OF BAKU,Brooklyn,2707,86 STREET,11223.0,40.594640615253,-73.981769420041
SKAZKA,Brooklyn,2334,CONEY ISLAND AVENUE,11223.0,40.599916503298004,-73.96132131211
MUNCHBOX 21,Brooklyn,3100,OCEAN PARKWAY,11235.0,40.575860673145,-73.968639149456
SIGNATURE RESTAURANT/FALADA,Brooklyn,2007,EMMONS AVENUE,11235.0,40.583692239804,-73.947923769384
MATRYOSHKA (SPA 88),Manhattan,88,FULTON STREET,10038.0,40.709291351284,-74.005944276042
CAFE VOLNA,Brooklyn,3145,BRIGHTON    4 STREET,11235.0,40.575579011727,-73.96297333036101
BELARUSSIAN XATA,Brooklyn,1655,SHEEPSHEAD BAY ROAD,11235.0,40.586529534874,-73.952349927343
5 STAR VILLAGE CAFE,Brooklyn,1968,CONEY ISLAND AVENUE,11223.0,40.609180462632,-73.962234315309
RUSSIAN VODKA ROOM,Manhattan,265,WEST   52 STREET,10019.0,40.763175639217,-73.98431501489199
UMA'S,Queens,92-07,ROCKAWAY BEACH BOULEVARD,11693.0,40.586355312114,-73.815650198394
ATLAS STEAKHOUSE,Brooklyn,943,CONEY ISLAND AVENUE,11230.0,40.634348966634995,-73.967361352111
OASIS CAFE,Brooklyn,2689,CONEY ISLAND AVENUE,11235.0,40.591053347963,-73.960627958371
B66 CLUB,Brooklyn,6612,NEW UTRECHT AVENUE,11219.0,40.622765123659,-73.997961115377
UMA'S,Queens,92-07,ROCKAWAY BEACH BOULEVARD,11693.0,40.586355312114,-73.815650198394
OCEAN VIEW CAFE,Brooklyn,290,BRIGHTON BEACH AVENUE,11235.0,40.576940905098,-73.964480884059
THE RUSSIAN TEA ROOM,Manhattan,150,WEST   57 STREET,10019.0,40.76516752914,-73.979249711961
ANYWAY CAFE & BAR,Brooklyn,1602,GRAVESEND NECK ROAD,11229.0,40.595053025776,-73.95462310848501
DEJAVU RESTAURANT,Brooklyn,262,KINGS HIGHWAY,11223.0,40.605251832989,-73.980981423324
RUSSIAN SAMOVAR,Manhattan,256,WEST   52 STREET,10019.0,40.763104258677004,-73.984192295536
SKAZKA,Brooklyn,2334,CONEY ISLAND AVENUE,11223.0,40.599916503298004,-73.96132131211
ANYWAY CAFE,Manhattan,34,EAST    2 STREET,10003.0,40.725111977320005,-73.990767580428
COFFEE SPOT CAFE,Brooklyn,1617,JEROME AVENUE,11235.0,40.587207614012,-73.952630268544
B66 CLUB,Brooklyn,6612,NEW UTRECHT AVENUE,11219.0,40.622765123659,-73.997961115377
THE LIGHTS OF BAKU,Brooklyn,2707,86 STREET,11223.0,40.594640615253,-73.981769420041
GURMAN RESTAURANT,Brooklyn,2402,CONEY ISLAND AVENUE,11223.0,40.598684061231,-73.961224802721
5 STAR VILLAGE CAFE,Brooklyn,1968,CONEY ISLAND AVENUE,11223.0,40.609180462632,-73.962234315309
COFFEE SPOT CAFE,Brooklyn,1617,JEROME AVENUE,11235.0,40.587207614012,-73.952630268544
CHINAR ON THE ISLAND,Staten Island,283,SAND LANE,10305.0,40.592596091025,-74.068210453189
UMA'S,Queens,92-07,ROCKAWAY BEACH BOULEVARD,11693.0,40.586355312114,-73.815650198394
HOME MADE COOKING CAFE,Brooklyn,504,BRIGHTON BEACH AVENUE,11235.0,40.577431490011,-73.962194739292
TETE-A-TETE,Brooklyn,2601,EAST   14 STREET,11235.0,40.587828989353,-73.955247301157
CASPIY,Brooklyn,1309,AVENUE Z,11235.0,40.587870378001,-73.95580533230199
COFFEE SPOT CAFE,Brooklyn,1617,JEROME AVENUE,11235.0,40.587207614012,-73.952630268544
CATS ON THE BAY,Brooklyn,2027,EMMONS AVENUE,11235.0,40.583719371089,-73.947232518173
ANYWAY CAFE & BAR,Brooklyn,1602,GRAVESEND NECK ROAD,11229.0,40.595053025776,-73.95462310848501
Z FANCY FOODZ,Brooklyn,1212,AVENUE Z,11235.0,40.587580159348995,-73.957735320661
B66 CLUB,Brooklyn,6612,NEW UTRECHT AVENUE,11219.0,40.622765123659,-73.997961115377
B66 CLUB,Brooklyn,6612,NEW UTRECHT AVENUE,11219.0,40.622765123659,-73.997961115377
ANYWAY CAFE & BAR,Brooklyn,1602,GRAVESEND NECK ROAD,11229.0,40.595053025776,-73.95462310848501
UMA'S,Queens,92-07,ROCKAWAY BEACH BOULEVARD,11693.0,40.586355312114,-73.815650198394
CHILLAX MANHATTAN BEACH CAFE,Brooklyn,184,OXFORD STREET,11235.0,40.578527066455,-73.93795615768501
BAKU PALACE,Brooklyn,2001,EMMONS AVENUE,11235.0,40.583684087202,-73.948103783475
5 STAR VILLAGE CAFE,Brooklyn,1968,CONEY ISLAND AVENUE,11223.0,40.609180462632,-73.962234315309
CAFE VOLNA,Brooklyn,3145,BRIGHTON    4 STREET,11235.0,40.575579011727,-73.96297333036101
BAKU PALACE,Brooklyn,2001,EMMONS AVENUE,11235.0,40.583684087202,-73.948103783475
TATIANA GRILL AND CAFE,Brooklyn,3145,BRIGHTON    4 STREET,11235.0,40.575579011727,-73.96297333036101
SKOVORODKA RESTAURANT,Brooklyn,615,BRIGHTON BEACH AVENUE,11235.0,40.577658983497,-73.961226256328
CAFE VOLNA,Brooklyn,3145,BRIGHTON    4 STREET,11235.0,40.575579011727,-73.96297333036101
RUSSIAN SAMOVAR,Manhattan,256,WEST   52 STREET,10019.0,40.763104258677004,-73.984192295536
DARINA CAFE,Staten Island,315,SAND LANE,10305.0,40.592170781884,-74.067986779005
COFFEE SPOT CAFE,Brooklyn,1617,JEROME AVENUE,11235.0,40.587207614012,-73.952630268544
BELARUSSIAN XATA,Brooklyn,1655,SHEEPSHEAD BAY ROAD,11235.0,40.586529534874,-73.952349927343
SKOVORODKA RESTAURANT,Brooklyn,615,BRIGHTON BEACH AVENUE,11235.0,40.577658983497,-73.961226256328
HOME MADE COOKING CAFE,Brooklyn,504,BRIGHTON BEACH AVENUE,11235.0,40.577431490011,-73.962194739292
SHERDOR RESTAURANT,Brooklyn,1917,AVENUE U,11229.0,40.599287284428,-73.952290373641
TATIANA GRILL AND CAFE,Brooklyn,3145,BRIGHTON    4 STREET,11235.0,40.575579011727,-73.96297333036101
TSOB-TSOBE CAFE LOUNGE BAR,Brooklyn,2817,CONEY ISLAND AVENUE,11235.0,40.587828136795004,-73.960381441103
ALMAZ RESTAURANT,Brooklyn,238,KINGS HIGHWAY,11223.0,40.605342559227,-73.981896134198
FOTEH'S TANDOORI,Brooklyn,2650,CONEY ISLAND AVENUE,11223.0,40.592115616554,-73.96073174732899
RUSSIAN SAMOVAR,Manhattan,256,WEST   52 STREET,10019.0,40.763104258677004,-73.984192295536
EL TIMBIRICHI RESTAURANT,Bronx,168,EAST  174 STREET,10457.0,40.844805209289,-73.909102951764
SHERDOR RESTAURANT,Brooklyn,1917,AVENUE U,11229.0,40.599287284428,-73.952290373641
THE LIGHTS OF BAKU,Brooklyn,2707,86 STREET,11223.0,40.594640615253,-73.981769420041
CHINAR RESTAURANT,Brooklyn,2775,CONEY ISLAND AVENUE,11235.0,40.588904122216,-73.960463610326
CASPIY,Brooklyn,1309,AVENUE Z,11235.0,40.587870378001,-73.95580533230199
CAFE BORABORA,Queens,9708,QUEENS BLVD,11374.0,40.729209804938,-73.85989230109101
HOME MADE COOKING CAFE,Brooklyn,504,BRIGHTON BEACH AVENUE,11235.0,40.577431490011,-73.962194739292
RUSSIAN TURKISH BATHS,Manhattan,268,EAST   10 STREET,10009.0,40.728344489977005,-73.983453717052
RESTAURANT TATIANA,Brooklyn,3152,BRIGHTON    6 STREET,11235.0,40.575721132043,-73.961137392526
CAFE VOLNA,Brooklyn,3145,BRIGHTON    4 STREET,11235.0,40.575579011727,-73.96297333036101
OLEANDR RESTAURANT,Brooklyn,410,BRIGHTON BEACH AVENUE,11235.0,40.577242386369,-73.963073199241
THE RUSSIAN TEA ROOM,Manhattan,150,WEST   57 STREET,10019.0,40.76516752914,-73.979249711961
CAFE VOLNA,Brooklyn,3145,BRIGHTON    4 STREET,11235.0,40.575579011727,-73.96297333036101
5 STAR VILLAGE CAFE,Brooklyn,1968,CONEY ISLAND AVENUE,11223.0,40.609180462632,-73.962234315309
CMOLOVAR,Brooklyn,813,AVENUE U,11223.0,40.598127397561996,-73.962816740796
SKAZKA,Brooklyn,2334,CONEY ISLAND AVENUE,11223.0,40.599916503298004,-73.96132131211
DEJAVU RESTAURANT,Brooklyn,262,KINGS HIGHWAY,11223.0,40.605251832989,-73.980981423324
CMOLOVAR,Brooklyn,813,AVENUE U,11223.0,40.598127397561996,-73.962816740796
SKOVORODKA RESTAURANT,Brooklyn,615,BRIGHTON BEACH AVENUE,11235.0,40.577658983497,-73.961226256328
CAFE VOLNA,Brooklyn,3145,BRIGHTON    4 STREET,11235.0,40.575579011727,-73.96297333036101
VESELKA ESSEX,Manhattan,115,DELANCEY STREET,10002.0,40.718502330547,-73.988084546292
OLEANDR RESTAURANT,Brooklyn,410,BRIGHTON BEACH AVENUE,11235.0,40.577242386369,-73.963073199241
ATLAS STEAKHOUSE,Brooklyn,943,CONEY ISLAND AVENUE,11230.0,40.634348966634995,-73.967361352111
VIS-A-VIS,Brooklyn,3100,OCEAN PARKWAY,11235.0,40.575860673145,-73.968639149456
SHERDOR RESTAURANT,Brooklyn,1917,AVENUE U,11229.0,40.599287284428,-73.952290373641
TETE-A-TETE,Brooklyn,2601,EAST   14 STREET,11235.0,40.587828989353,-73.955247301157
GOLDEN LEO RESTAURANT,Brooklyn,1794,SHEEPSHEAD BAY ROAD,11235.0,40.584042075768,-73.95074243141799
ROXY'S,Queens,2279,STEINWAY ST,11105.0,40.771590607643,-73.90757861032
OLEANDR RESTAURANT,Brooklyn,410,BRIGHTON BEACH AVENUE,11235.0,40.577242386369,-73.963073199241
VARENICHNAYA - PELMINI VARENICHKY,Brooklyn,3086,BRIGHTON    2 STREET,11235.0,40.576548577596995,-73.96505705633899
RESTAURANT TATIANA,Brooklyn,3152,BRIGHTON    6 STREET,11235.0,40.575721132043,-73.961137392526
SIGNATURE RESTAURANT/FALADA,Brooklyn,2007,EMMONS AVENUE,11235.0,40.583692239804,-73.947923769384
EL TIMBIRICHI RESTAURANT,Bronx,168,EAST  174 STREET,10457.0,40.844805209289,-73.909102951764
ALMAZ RESTAURANT,Brooklyn,238,KINGS HIGHWAY,11223.0,40.605342559227,-73.981896134198
BELARUSSIAN XATA,Brooklyn,1655,SHEEPSHEAD BAY ROAD,11235.0,40.586529534874,-73.952349927343
MATRYOSHKA (SPA 88),Manhattan,88,FULTON STREET,10038.0,40.709291351284,-74.005944276042
CATS ON THE BAY,Brooklyn,2027,EMMONS AVENUE,11235.0,40.583719371089,-73.947232518173
OCEAN VIEW CAFE,Brooklyn,290,BRIGHTON BEACH AVENUE,11235.0,40.576940905098,-73.964480884059
EL TIMBIRICHI RESTAURANT,Bronx,168,EAST  174 STREET,10457.0,40.844805209289,-73.909102951764
ANYWAY CAFE & BAR,Brooklyn,1602,GRAVESEND NECK ROAD,11229.0,40.595053025776,-73.95462310848501
CHINAR ON THE ISLAND,Staten Island,283,SAND LANE,10305.0,40.592596091025,-74.068210453189
EL TIMBIRICHI RESTAURANT,Bronx,168,EAST  174 STREET,10457.0,40.844805209289,-73.909102951764
OCEAN VIEW CAFE,Brooklyn,290,BRIGHTON BEACH AVENUE,11235.0,40.576940905098,-73.964480884059
ALMAZ RESTAURANT,Brooklyn,238,KINGS HIGHWAY,11223.0,40.605342559227,-73.981896134198
CASPIY,Brooklyn,1309,AVENUE Z,11235.0,40.587870378001,-73.95580533230199
TATIANA GRILL AND CAFE,Brooklyn,3145,BRIGHTON    4 STREET,11235.0,40.575579011727,-73.96297333036101
CAFE VOLNA,Brooklyn,3145,BRIGHTON    4 STREET,11235.0,40.575579011727,-73.96297333036101
GURMAN RESTAURANT,Brooklyn,2402,CONEY ISLAND AVENUE,11223.0,40.598684061231,-73.961224802721
HOME MADE COOKING CAFE,Brooklyn,504,BRIGHTON BEACH AVENUE,11235.0,40.577431490011,-73.962194739292
GOLDEN LEO RESTAURANT,Brooklyn,1794,SHEEPSHEAD BAY ROAD,11235.0,40.584042075768,-73.95074243141799
CHINAR RESTAURANT,Brooklyn,2775,CONEY ISLAND AVENUE,11235.0,40.588904122216,-73.960463610326
CAFE VOLNA,Brooklyn,3145,BRIGHTON    4 STREET,11235.0,40.575579011727,-73.96297333036101
CAFE LILY,Brooklyn,42,AVENUE O,11204.0,40.61024500136,-73.983583946027
SHERDOR RESTAURANT,Brooklyn,1917,AVENUE U,11229.0,40.599287284428,-73.952290373641
FOTEH'S TANDOORI,Brooklyn,2650,CONEY ISLAND AVENUE,11223.0,40.592115616554,-73.96073174732899
SKAZKA,Brooklyn,2334,CONEY ISLAND AVENUE,11223.0,40.599916503298004,-73.96132131211
CAFE EUROASIA,Brooklyn,602,BRIGHTON BEACH AVENUE,11235.0,40.577626069185,-73.961294672205
TETE-A-TETE,Brooklyn,2601,EAST   14 STREET,11235.0,40.587828989353,-73.955247301157
BAKU PALACE,Brooklyn,2001,EMMONS AVENUE,11235.0,40.583684087202,-73.948103783475
COFFEE SPOT CAFE,Brooklyn,1617,JEROME AVENUE,11235.0,40.587207614012,-73.952630268544
MATRYOSHKA (SPA 88),Manhattan,88,FULTON STREET,10038.0,40.709291351284,-74.005944276042
BAKU PALACE,Brooklyn,2001,EMMONS AVENUE,11235.0,40.583684087202,-73.948103783475
ANYWAY CAFE & BAR,Brooklyn,1602,GRAVESEND NECK ROAD,11229.0,40.595053025776,-73.95462310848501
SKOVORODKA RESTAURANT,Brooklyn,615,BRIGHTON BEACH AVENUE,11235.0,40.577658983497,-73.961226256328
ATLAS STEAKHOUSE,Brooklyn,943,CONEY ISLAND AVENUE,11230.0,40.634348966634995,-73.967361352111
EL TIMBIRICHI RESTAURANT,Bronx,168,EAST  174 STREET,10457.0,40.844805209289,-73.909102951764
FOTEH'S TANDOORI,Brooklyn,2650,CONEY ISLAND AVENUE,11223.0,40.592115616554,-73.96073174732899
TETE-A-TETE,Brooklyn,2601,EAST   14 STREET,11235.0,40.587828989353,-73.955247301157
B66 CLUB,Brooklyn,6612,NEW UTRECHT AVENUE,11219.0,40.622765123659,-73.997961115377
UMA'S,Queens,92-07,ROCKAWAY BEACH BOULEVARD,11693.0,40.586355312114,-73.815650198394
SIGNATURE RESTAURANT/FALADA,Brooklyn,2007,EMMONS AVENUE,11235.0,40.583692239804,-73.947923769384
SIGNATURE RESTAURANT/FALADA,Brooklyn,2007,EMMONS AVENUE,11235.0,40.583692239804,-73.947923769384
EL TIMBIRICHI RESTAURANT,Bronx,168,EAST  174 STREET,10457.0,40.844805209289,-73.909102951764
CAFE VOLNA,Brooklyn,3145,BRIGHTON    4 STREET,11235.0,40.575579011727,-73.96297333036101
VAN'KA VSTAN'KA,Brooklyn,3810,NOSTRAND AVENUE,11235.0,40.590816601488,-73.940047410947
CHINAR ON THE ISLAND,Staten Island,283,SAND LANE,10305.0,40.592596091025,-74.068210453189
UMA'S,Queens,92-07,ROCKAWAY BEACH BOULEVARD,11693.0,40.586355312114,-73.815650198394
RUSSIAN TURKISH BATHS,Manhattan,268,EAST   10 STREET,10009.0,40.728344489977005,-73.983453717052
BELARUSSIAN XATA,Brooklyn,1655,SHEEPSHEAD BAY ROAD,11235.0,40.586529534874,-73.952349927343
COFFEE SPOT CAFE,Brooklyn,1617,JEROME AVENUE,11235.0,40.587207614012,-73.952630268544
MATRYOSHKA (SPA 88),Manhattan,88,FULTON STREET,10038.0,40.709291351284,-74.005944276042
SIGNATURE RESTAURANT/FALADA,Brooklyn,2007,EMMONS AVENUE,11235.0,40.583692239804,-73.947923769384
HOME MADE COOKING CAFE,Brooklyn,504,BRIGHTON BEACH AVENUE,11235.0,40.577431490011,-73.962194739292
5 STAR VILLAGE CAFE,Brooklyn,1968,CONEY ISLAND AVENUE,11223.0,40.609180462632,-73.962234315309
ALMAZ RESTAURANT,Brooklyn,238,KINGS HIGHWAY,11223.0,40.605342559227,-73.981896134198
CARAVAN,Brooklyn,1797,MCDONALD AVENUE,11230.0,40.609452521682,-73.973107236612
VESELKA ESSEX,Manhattan,115,DELANCEY STREET,10002.0,40.718502330547,-73.988084546292
TSOB-TSOBE CAFE LOUNGE BAR,Brooklyn,2817,CONEY ISLAND AVENUE,11235.0,40.587828136795004,-73.960381441103
VARENICHNAYA - PELMINI VARENICHKY,Brooklyn,3086,BRIGHTON    2 STREET,11235.0,40.576548577596995,-73.96505705633899
GOLDEN LEO RESTAURANT,Brooklyn,1794,SHEEPSHEAD BAY ROAD,11235.0,40.584042075768,-73.95074243141799
SHERDOR RESTAURANT,Brooklyn,1917,AVENUE U,11229.0,40.599287284428,-73.952290373641
OLEANDR RESTAURANT,Brooklyn,410,BRIGHTON BEACH AVENUE,11235.0,40.577242386369,-73.963073199241
ATLAS STEAKHOUSE,Brooklyn,943,CONEY ISLAND AVENUE,11230.0,40.634348966634995,-73.967361352111
TSOB-TSOBE CAFE LOUNGE BAR,Brooklyn,2817,CONEY ISLAND AVENUE,11235.0,40.587828136795004,-73.960381441103
UMA'S,Queens,92-07,ROCKAWAY BEACH BOULEVARD,11693.0,40.586355312114,-73.815650198394
Z FANCY FOODZ,Brooklyn,1212,AVENUE Z,11235.0,40.587580159348995,-73.957735320661
TATIANA GRILL AND CAFE,Brooklyn,3145,BRIGHTON    4 STREET,11235.0,40.575579011727,-73.96297333036101
VIS-A-VIS,Brooklyn,3100,OCEAN PARKWAY,11235.0,40.575860673145,-73.968639149456
CAFE TABU,Brooklyn,2205,AVENUE X,11235.0,40.592988885852,-73.948028111643
COFFEE SPOT CAFE,Brooklyn,1617,JEROME AVENUE,11235.0,40.587207614012,-73.952630268544
EL TIMBIRICHI RESTAURANT,Bronx,168,EAST  174 STREET,10457.0,40.844805209289,-73.909102951764
DARINA CAFE,Staten Island,315,SAND LANE,10305.0,40.592170781884,-74.067986779005
RESTAURANT TATIANA,Brooklyn,3152,BRIGHTON    6 STREET,11235.0,40.575721132043,-73.961137392526
CAFE VOLNA,Brooklyn,3145,BRIGHTON    4 STREET,11235.0,40.575579011727,-73.96297333036101
HOME MADE COOKING CAFE,Brooklyn,504,BRIGHTON BEACH AVENUE,11235.0,40.577431490011,-73.962194739292
CAFE VOLNA,Brooklyn,3145,BRIGHTON    4 STREET,11235.0,40.575579011727,-73.96297333036101
ATLAS STEAKHOUSE,Brooklyn,943,CONEY ISLAND AVENUE,11230.0,40.634348966634995,-73.967361352111
GURMAN RESTAURANT,Brooklyn,2402,CONEY ISLAND AVENUE,11223.0,40.598684061231,-73.961224802721
FOTEH'S TANDOORI,Brooklyn,2650,CONEY ISLAND AVENUE,11223.0,40.592115616554,-73.96073174732899
ALMAZ RESTAURANT,Brooklyn,238,KINGS HIGHWAY,11223.0,40.605342559227,-73.981896134198
URGUT TANDIR EXPRESS,Brooklyn,3915,18 AVENUE,11218.0,40.632777635863,-73.97283839843
ANYWAY CAFE & BAR,Brooklyn,1602,GRAVESEND NECK ROAD,11229.0,40.595053025776,-73.95462310848501
HOME MADE COOKING CAFE,Brooklyn,504,BRIGHTON BEACH AVENUE,11235.0,40.577431490011,-73.962194739292
SHERDOR RESTAURANT,Brooklyn,1917,AVENUE U,11229.0,40.599287284428,-73.952290373641
TETE-A-TETE,Brooklyn,2601,EAST   14 STREET,11235.0,40.587828989353,-73.955247301157
TSOB-TSOBE CAFE LOUNGE BAR,Brooklyn,2817,CONEY ISLAND AVENUE,11235.0,40.587828136795004,-73.960381441103
SHERDOR RESTAURANT,Brooklyn,1917,AVENUE U,11229.0,40.599287284428,-73.952290373641
CAFE VOLNA,Brooklyn,3145,BRIGHTON    4 STREET,11235.0,40.575579011727,-73.96297333036101
UMA'S,Queens,92-07,ROCKAWAY BEACH BOULEVARD,11693.0,40.586355312114,-73.815650198394
ATLAS STEAKHOUSE,Brooklyn,943,CONEY ISLAND AVENUE,11230.0,40.634348966634995,-73.967361352111
SKAZKA,Brooklyn,2334,CONEY ISLAND AVENUE,11223.0,40.599916503298004,-73.96132131211
TETE-A-TETE,Brooklyn,2601,EAST   14 STREET,11235.0,40.587828989353,-73.955247301157
DOLMA RESTAURANT,Brooklyn,311,AVENUE X,11223.0,40.590406054254,-73.971491103146
UMA'S,Queens,92-07,ROCKAWAY BEACH BOULEVARD,11693.0,40.586355312114,-73.815650198394
RESTAURANT TATIANA,Brooklyn,3152,BRIGHTON    6 STREET,11235.0,40.575721132043,-73.961137392526
ANYWAY CAFE & BAR,Brooklyn,1602,GRAVESEND NECK ROAD,11229.0,40.595053025776,-73.95462310848501
RESTAURANT TATIANA,Brooklyn,3152,BRIGHTON    6 STREET,11235.0,40.575721132043,-73.961137392526
TSOB-TSOBE CAFE LOUNGE BAR,Brooklyn,2817,CONEY ISLAND AVENUE,11235.0,40.587828136795004,-73.960381441103
FOTEH'S TANDOORI,Brooklyn,2650,CONEY ISLAND AVENUE,11223.0,40.592115616554,-73.96073174732899
SKOVORODKA RESTAURANT,Brooklyn,615,BRIGHTON BEACH AVENUE,11235.0,40.577658983497,-73.961226256328
CAFE VOLNA,Brooklyn,3145,BRIGHTON    4 STREET,11235.0,40.575579011727,-73.96297333036101
MARI VANNA,Manhattan,41,EAST   20 STREET,10003.0,40.738874077713,-73.98904798618901
CAFE LILY,Brooklyn,42,AVENUE O,11204.0,40.61024500136,-73.983583946027
ZA ZABOROM,Brooklyn,3701,MERMAID AVENUE,11224.0,40.574767004214,-74.00339089015199
DARINA CAFE,Staten Island,315,SAND LANE,10305.0,40.592170781884,-74.067986779005
RUSSIAN SAMOVAR,Manhattan,256,WEST   52 STREET,10019.0,40.763104258677004,-73.984192295536
CHINAR ON THE ISLAND,Staten Island,283,SAND LANE,10305.0,40.592596091025,-74.068210453189
MATRYOSHKA (SPA 88),Manhattan,88,FULTON STREET,10038.0,40.709291351284,-74.005944276042
CAFE VOLNA,Brooklyn,3145,BRIGHTON    4 STREET,11235.0,40.575579011727,-73.96297333036101
TATIANA GRILL AND CAFE,Brooklyn,3145,BRIGHTON    4 STREET,11235.0,40.575579011727,-73.96297333036101
DOLMA RESTAURANT,Brooklyn,311,AVENUE X,11223.0,40.590406054254,-73.971491103146
DOLMA RESTAURANT,Brooklyn,311,AVENUE X,11223.0,40.590406054254,-73.971491103146
DARINA CAFE,Staten Island,315,SAND LANE,10305.0,40.592170781884,-74.067986779005
TETE-A-TETE,Brooklyn,2601,EAST   14 STREET,11235.0,40.587828989353,-73.955247301157
DARINA CAFE,Staten Island,315,SAND LANE,10305.0,40.592170781884,-74.067986779005
CAFE EUROASIA,Brooklyn,602,BRIGHTON BEACH AVENUE,11235.0,40.577626069185,-73.961294672205
GURMAN RESTAURANT,Brooklyn,2402,CONEY ISLAND AVENUE,11223.0,40.598684061231,-73.961224802721
SKAZKA,Brooklyn,2334,CONEY ISLAND AVENUE,11223.0,40.599916503298004,-73.96132131211
UMA'S,Queens,92-07,ROCKAWAY BEACH BOULEVARD,11693.0,40.586355312114,-73.815650198394
RUSSIAN SAMOVAR,Manhattan,256,WEST   52 STREET,10019.0,40.763104258677004,-73.984192295536
THE RUSSIAN TEA ROOM,Manhattan,150,WEST   57 STREET,10019.0,40.76516752914,-73.979249711961
BAKU PALACE,Brooklyn,2001,EMMONS AVENUE,11235.0,40.583684087202,-73.948103783475
5 STAR VILLAGE CAFE,Brooklyn,1968,CONEY ISLAND AVENUE,11223.0,40.609180462632,-73.962234315309
FOTEH'S TANDOORI,Brooklyn,2650,CONEY ISLAND AVENUE,11223.0,40.592115616554,-73.96073174732899
ANYWAY CAFE,Manhattan,34,EAST    2 STREET,10003.0,40.725111977320005,-73.990767580428
CAFE VOLNA,Brooklyn,3145,BRIGHTON    4 STREET,11235.0,40.575579011727,-73.96297333036101
COFFEE SPOT CAFE,Brooklyn,1617,JEROME AVENUE,11235.0,40.587207614012,-73.952630268544
HOME MADE COOKING CAFE,Brooklyn,504,BRIGHTON BEACH AVENUE,11235.0,40.577431490011,-73.962194739292
COFFEE SPOT CAFE,Brooklyn,1617,JEROME AVENUE,11235.0,40.587207614012,-73.952630268544
CMOLOVAR,Brooklyn,813,AVENUE U,11223.0,40.598127397561996,-73.962816740796
CAFE VOLNA,Brooklyn,3145,BRIGHTON    4 STREET,11235.0,40.575579011727,-73.96297333036101
TETE-A-TETE,Brooklyn,2601,EAST   14 STREET,11235.0,40.587828989353,-73.955247301157
SIGNATURE RESTAURANT/FALADA,Brooklyn,2007,EMMONS AVENUE,11235.0,40.583692239804,-73.947923769384
MATRYOSHKA (SPA 88),Manhattan,88,FULTON STREET,10038.0,40.709291351284,-74.005944276042
FOTEH'S TANDOORI,Brooklyn,2650,CONEY ISLAND AVENUE,11223.0,40.592115616554,-73.96073174732899
DARINA CAFE,Staten Island,315,SAND LANE,10305.0,40.592170781884,-74.067986779005
TATIANA GRILL AND CAFE,Brooklyn,3145,BRIGHTON    4 STREET,11235.0,40.575579011727,-73.96297333036101
ANYWAY CAFE,Manhattan,34,EAST    2 STREET,10003.0,40.725111977320005,-73.990767580428
CARAVAN,Brooklyn,1797,MCDONALD AVENUE,11230.0,40.609452521682,-73.973107236612
UMA'S,Queens,92-07,ROCKAWAY BEACH BOULEVARD,11693.0,40.586355312114,-73.815650198394
BAKU PALACE,Brooklyn,2001,EMMONS AVENUE,11235.0,40.583684087202,-73.948103783475
DOLMA RESTAURANT,Brooklyn,311,AVENUE X,11223.0,40.590406054254,-73.971491103146
FOTEH'S TANDOORI,Brooklyn,2650,CONEY ISLAND AVENUE,11223.0,40.592115616554,-73.96073174732899
HOME MADE COOKING CAFE,Brooklyn,504,BRIGHTON BEACH AVENUE,11235.0,40.577431490011,-73.962194739292
CAFE VOLNA,Brooklyn,3145,BRIGHTON    4 STREET,11235.0,40.575579011727,-73.96297333036101
CHAIHANA UZBEKISTAN BAKERY,Brooklyn,14,AVENUE O,11204.0,40.610129865349,-73.984628434181
CMOLOVAR,Brooklyn,813,AVENUE U,11223.0,40.598127397561996,-73.962816740796
ANYWAY CAFE & BAR,Brooklyn,1602,GRAVESEND NECK ROAD,11229.0,40.595053025776,-73.95462310848501
ANYWAY CAFE & BAR,Brooklyn,1602,GRAVESEND NECK ROAD,11229.0,40.595053025776,-73.95462310848501
FOTEH'S TANDOORI,Brooklyn,2650,CONEY ISLAND AVENUE,11223.0,40.592115616554,-73.96073174732899
HOME MADE COOKING CAFE,Brooklyn,504,BRIGHTON BEACH AVENUE,11235.0,40.577431490011,-73.962194739292
COFFEE SPOT CAFE,Brooklyn,1617,JEROME AVENUE,11235.0,40.587207614012,-73.952630268544
TATIANA GRILL AND CAFE,Brooklyn,3145,BRIGHTON    4 STREET,11235.0,40.575579011727,-73.96297333036101
DARINA CAFE,Staten Island,315,SAND LANE,10305.0,40.592170781884,-74.067986779005
EL TIMBIRICHI RESTAURANT,Bronx,168,EAST  174 STREET,10457.0,40.844805209289,-73.909102951764
RESTAURANT TATIANA,Brooklyn,3152,BRIGHTON    6 STREET,11235.0,40.575721132043,-73.961137392526
FOTEH'S TANDOORI,Brooklyn,2650,CONEY ISLAND AVENUE,11223.0,40.592115616554,-73.96073174732899
ANYWAY CAFE & BAR,Brooklyn,1602,GRAVESEND NECK ROAD,11229.0,40.595053025776,-73.95462310848501
SHERDOR RESTAURANT,Brooklyn,1917,AVENUE U,11229.0,40.599287284428,-73.952290373641
CARAVAN,Brooklyn,1797,MCDONALD AVENUE,11230.0,40.609452521682,-73.973107236612
CMOLOVAR,Brooklyn,813,AVENUE U,11223.0,40.598127397561996,-73.962816740796
OCEAN VIEW CAFE,Brooklyn,290,BRIGHTON BEACH AVENUE,11235.0,40.576940905098,-73.964480884059
GOLDEN LEO RESTAURANT,Brooklyn,1794,SHEEPSHEAD BAY ROAD,11235.0,40.584042075768,-73.95074243141799
THE RUSSIAN TEA ROOM,Manhattan,150,WEST   57 STREET,10019.0,40.76516752914,-73.979249711961
SHERDOR RESTAURANT,Brooklyn,1917,AVENUE U,11229.0,40.599287284428,-73.952290373641
BATHHOUSE,Brooklyn,103,NORTH   10 STREET,11249.0,40.720655318805,-73.95780212328
MTSKHETA CAFE,Brooklyn,2568,86 STREET,11214.0,40.596933058142,-73.98559651730099
SHERDOR RESTAURANT,Brooklyn,1917,AVENUE U,11229.0,40.599287284428,-73.952290373641
THE LIGHTS OF BAKU,Brooklyn,2707,86 STREET,11223.0,40.594640615253,-73.981769420041
RUSSIAN SAMOVAR,Manhattan,256,WEST   52 STREET,10019.0,40.763104258677004,-73.984192295536
ANYWAY CAFE,Manhattan,34,EAST    2 STREET,10003.0,40.725111977320005,-73.990767580428
THE LIGHTS OF BAKU,Brooklyn,2707,86 STREET,11223.0,40.594640615253,-73.981769420041
GOLDEN LEO RESTAURANT,Brooklyn,1794,SHEEPSHEAD BAY ROAD,11235.0,40.584042075768,-73.95074243141799
TETE-A-TETE,Brooklyn,2601,EAST   14 STREET,11235.0,40.587828989353,-73.955247301157
SKOVORODKA RESTAURANT,Brooklyn,615,BRIGHTON BEACH AVENUE,11235.0,40.577658983497,-73.961226256328
CAFE VOLNA,Brooklyn,3145,BRIGHTON    4 STREET,11235.0,40.575579011727,-73.96297333036101
SKAZKA,Brooklyn,2334,CONEY ISLAND AVENUE,11223.0,40.599916503298004,-73.96132131211
CASPIY,Brooklyn,1309,AVENUE Z,11235.0,40.587870378001,-73.95580533230199
MTSKHETA CAFE,Brooklyn,2568,86 STREET,11214.0,40.596933058142,-73.98559651730099
VAN'KA VSTAN'KA,Brooklyn,3810,NOSTRAND AVENUE,11235.0,40.590816601488,-73.940047410947
THE RUSSIAN TEA ROOM,Manhattan,150,WEST   57 STREET,10019.0,40.76516752914,-73.979249711961
MATRYOSHKA (SPA 88),Manhattan,88,FULTON STREET,10038.0,40.709291351284,-74.005944276042
MARI VANNA,Manhattan,41,EAST   20 STREET,10003.0,40.738874077713,-73.98904798618901
Z FANCY FOODZ,Brooklyn,1212,AVENUE Z,11235.0,40.587580159348995,-73.957735320661
MARI VANNA,Manhattan,41,EAST   20 STREET,10003.0,40.738874077713,-73.98904798618901
CATS ON THE BAY,Brooklyn,2027,EMMONS AVENUE,11235.0,40.583719371089,-73.947232518173
BELARUSSIAN XATA,Brooklyn,1655,SHEEPSHEAD BAY ROAD,11235.0,40.586529534874,-73.952349927343
TATIANA GRILL AND CAFE,Brooklyn,3145,BRIGHTON    4 STREET,11235.0,40.575579011727,-73.96297333036101
FOTEH'S TANDOORI,Brooklyn,2650,CONEY ISLAND AVENUE,11223.0,40.592115616554,-73.96073174732899
CAFE BORABORA,Queens,9708,QUEENS BLVD,11374.0,40.729209804938,-73.85989230109101
VAN'KA VSTAN'KA,Brooklyn,3810,NOSTRAND AVENUE,11235.0,40.590816601488,-73.940047410947
SKOVORODKA RESTAURANT,Brooklyn,615,BRIGHTON BEACH AVENUE,11235.0,40.577658983497,-73.961226256328
ANYWAY CAFE & BAR,Brooklyn,1602,GRAVESEND NECK ROAD,11229.0,40.595053025776,-73.95462310848501
ALMAZ RESTAURANT,Brooklyn,238,KINGS HIGHWAY,11223.0,40.605342559227,-73.981896134198
CMOLOVAR,Brooklyn,813,AVENUE U,11223.0,40.598127397561996,-73.962816740796
ANYWAY CAFE,Manhattan,34,EAST    2 STREET,10003.0,40.725111977320005,-73.990767580428
B66 CLUB,Brooklyn,6612,NEW UTRECHT AVENUE,11219.0,40.622765123659,-73.997961115377
RESTAURANT TATIANA,Brooklyn,3152,BRIGHTON    6 STREET,11235.0,40.575721132043,-73.961137392526
CAFE VOLNA,Brooklyn,3145,BRIGHTON    4 STREET,11235.0,40.575579011727,-73.96297333036101
OASIS CAFE,Brooklyn,2689,CONEY ISLAND AVENUE,11235.0,40.591053347963,-73.960627958371
VERSAILLES PALACE,Queens,6334,AUSTIN ST,11374.0,40.72772837641,-73.865094512339
COFFEE SPOT CAFE,Brooklyn,1617,JEROME AVENUE,11235.0,40.587207614012,-73.952630268544
CAFE VOLNA,Brooklyn,3145,BRIGHTON    4 STREET,11235.0,40.575579011727,-73.96297333036101
VIS-A-VIS,Brooklyn,3100,OCEAN PARKWAY,11235.0,40.575860673145,-73.968639149456
ANYWAY CAFE & BAR,Brooklyn,1602,GRAVESEND NECK ROAD,11229.0,40.595053025776,-73.95462310848501
ATLAS STEAKHOUSE,Brooklyn,943,CONEY ISLAND AVENUE,11230.0,40.634348966634995,-73.967361352111
SKOVORODKA RESTAURANT,Brooklyn,615,BRIGHTON BEACH AVENUE,11235.0,40.577658983497,-73.961226256328
OASIS CAFE,Brooklyn,2689,CONEY ISLAND AVENUE,11235.0,40.591053347963,-73.960627958371
FOTEH'S TANDOORI,Brooklyn,2650,CONEY ISLAND AVENUE,11223.0,40.592115616554,-73.96073174732899
PARIS,Brooklyn,8421,20 AVENUE,11214.0,40.605593732079,-73.997208961829
CAFE LILY,Brooklyn,42,AVENUE O,11204.0,40.61024500136,-73.983583946027
CARAVAN,Brooklyn,1797,MCDONALD AVENUE,11230.0,40.609452521682,-73.973107236612
SIGNATURE RESTAURANT/FALADA,Brooklyn,2007,EMMONS AVENUE,11235.0,40.583692239804,-73.947923769384
TATIANA GRILL AND CAFE,Brooklyn,3145,BRIGHTON    4 STREET,11235.0,40.575579011727,-73.96297333036101
ATLAS STEAKHOUSE,Brooklyn,943,CONEY ISLAND AVENUE,11230.0,40.634348966634995,-73.967361352111
BELARUSSIAN XATA,Brooklyn,1655,SHEEPSHEAD BAY ROAD,11235.0,40.586529534874,-73.952349927343
CMOLOVAR,Brooklyn,813,AVENUE U,11223.0,40.598127397561996,-73.962816740796
EL TIMBIRICHI RESTAURANT,Bronx,168,EAST  174 STREET,10457.0,40.844805209289,-73.909102951764
CHINAR RESTAURANT,Brooklyn,2775,CONEY ISLAND AVENUE,11235.0,40.588904122216,-73.960463610326
MTSKHETA CAFE,Brooklyn,2568,86 STREET,11214.0,40.596933058142,-73.98559651730099
HOME MADE COOKING CAFE,Brooklyn,504,BRIGHTON BEACH AVENUE,11235.0,40.577431490011,-73.962194739292
DARINA CAFE,Staten Island,315,SAND LANE,10305.0,40.592170781884,-74.067986779005
TSOB-TSOBE CAFE LOUNGE BAR,Brooklyn,2817,CONEY ISLAND AVENUE,11235.0,40.587828136795004,-73.960381441103
TETE-A-TETE,Brooklyn,2601,EAST   14 STREET,11235.0,40.587828989353,-73.955247301157
CAFE LILY,Brooklyn,42,AVENUE O,11204.0,40.61024500136,-73.983583946027
CHAIHANA UZBEKISTAN BAKERY,Brooklyn,14,AVENUE O,11204.0,40.610129865349,-73.984628434181
SKOVORODKA RESTAURANT,Brooklyn,615,BRIGHTON BEACH AVENUE,11235.0,40.577658983497,-73.961226256328
BAKU PALACE,Brooklyn,2001,EMMONS AVENUE,11235.0,40.583684087202,-73.948103783475
CASPIY,Brooklyn,1309,AVENUE Z,11235.0,40.587870378001,-73.95580533230199
CATS ON THE BAY,Brooklyn,2027,EMMONS AVENUE,11235.0,40.583719371089,-73.947232518173
BELARUSSIAN XATA,Brooklyn,1655,SHEEPSHEAD BAY ROAD,11235.0,40.586529534874,-73.952349927343
CAFE VOLNA,Brooklyn,3145,BRIGHTON    4 STREET,11235.0,40.575579011727,-73.96297333036101
SKAZKA,Brooklyn,2334,CONEY ISLAND AVENUE,11223.0,40.599916503298004,-73.96132131211
CAFE EUROASIA,Brooklyn,602,BRIGHTON BEACH AVENUE,11235.0,40.577626069185,-73.961294672205
DOLMA RESTAURANT,Brooklyn,311,AVENUE X,11223.0,40.590406054254,-73.971491103146
RUSSIAN VODKA ROOM,Manhattan,265,WEST   52 STREET,10019.0,40.763175639217,-73.98431501489199
CMOLOVAR,Brooklyn,813,AVENUE U,11223.0,40.598127397561996,-73.962816740796
Z FANCY FOODZ,Brooklyn,1212,AVENUE Z,11235.0,40.587580159348995,-73.957735320661
UMA'S,Queens,92-07,ROCKAWAY BEACH BOULEVARD,11693.0,40.586355312114,-73.815650198394
CHAIHANA UZBEKISTAN BAKERY,Brooklyn,14,AVENUE O,11204.0,40.610129865349,-73.984628434181
TATIANA GRILL AND CAFE,Brooklyn,3145,BRIGHTON    4 STREET,11235.0,40.575579011727,-73.96297333036101
ANYWAY CAFE,Manhattan,34,EAST    2 STREET,10003.0,40.725111977320005,-73.990767580428
CAFE VOLNA,Brooklyn,3145,BRIGHTON    4 STREET,11235.0,40.575579011727,-73.96297333036101
CAFE VOLNA,Brooklyn,3145,BRIGHTON    4 STREET,11235.0,40.575579011727,-73.96297333036101
TSOB-TSOBE CAFE LOUNGE BAR,Brooklyn,2817,CONEY ISLAND AVENUE,11235.0,40.587828136795004,-73.960381441103
CAFE VOLNA,Brooklyn,3145,BRIGHTON    4 STREET,11235.0,40.575579011727,-73.96297333036101
BELARUSSIAN XATA,Brooklyn,1655,SHEEPSHEAD BAY ROAD,11235.0,40.586529534874,-73.952349927343
ATLAS STEAKHOUSE,Brooklyn,943,CONEY ISLAND AVENUE,11230.0,40.634348966634995,-73.967361352111
CAFE LILY,Brooklyn,42,AVENUE O,11204.0,40.61024500136,-73.983583946027
CMOLOVAR,Brooklyn,813,AVENUE U,11223.0,40.598127397561996,-73.962816740796
CAFE VOLNA,Brooklyn,3145,BRIGHTON    4 STREET,11235.0,40.575579011727,-73.96297333036101
HOME MADE COOKING CAFE,Brooklyn,504,BRIGHTON BEACH AVENUE,11235.0,40.577431490011,-73.962194739292
SIGNATURE RESTAURANT/FALADA,Brooklyn,2007,EMMONS AVENUE,11235.0,40.583692239804,-73.947923769384
CMOLOVAR,Brooklyn,813,AVENUE U,11223.0,40.598127397561996,-73.962816740796
VAN'KA VSTAN'KA,Brooklyn,3810,NOSTRAND AVENUE,11235.0,40.590816601488,-73.940047410947
SIGNATURE RESTAURANT/FALADA,Brooklyn,2007,EMMONS AVENUE,11235.0,40.583692239804,-73.947923769384
OLEANDR RESTAURANT,Brooklyn,410,BRIGHTON BEACH AVENUE,11235.0,40.577242386369,-73.963073199241
CAFE VOLNA,Brooklyn,3145,BRIGHTON    4 STREET,11235.0,40.575579011727,-73.96297333036101
CARAVAN,Brooklyn,1797,MCDONALD AVENUE,11230.0,40.609452521682,-73.973107236612
CMOLOVAR,Brooklyn,813,AVENUE U,11223.0,40.598127397561996,-73.962816740796
SIGNATURE RESTAURANT/FALADA,Brooklyn,2007,EMMONS AVENUE,11235.0,40.583692239804,-73.947923769384
SKOVORODKA RESTAURANT,Brooklyn,615,BRIGHTON BEACH AVENUE,11235.0,40.577658983497,-73.961226256328
DOLMA RESTAURANT,Brooklyn,311,AVENUE X,11223.0,40.590406054254,-73.971491103146
SIGNATURE RESTAURANT/FALADA,Brooklyn,2007,EMMONS AVENUE,11235.0,40.583692239804,-73.947923769384
ATLAS STEAKHOUSE,Brooklyn,943,CONEY ISLAND AVENUE,11230.0,40.634348966634995,-73.967361352111
CMOLOVAR,Brooklyn,813,AVENUE U,11223.0,40.598127397561996,-73.962816740796
Z FANCY FOODZ,Brooklyn,1212,AVENUE Z,11235.0,40.587580159348995,-73.957735320661
OCEAN VIEW CAFE,Brooklyn,290,BRIGHTON BEACH AVENUE,11235.0,40.576940905098,-73.964480884059
SIGNATURE RESTAURANT/FALADA,Brooklyn,2007,EMMONS AVENUE,11235.0,40.583692239804,-73.947923769384
CAFE VOLNA,Brooklyn,3145,BRIGHTON    4 STREET,11235.0,40.575579011727,-73.96297333036101
TATIANA GRILL AND CAFE,Brooklyn,3145,BRIGHTON    4 STREET,11235.0,40.575579011727,-73.96297333036101
COFFEE SPOT CAFE,Brooklyn,1617,JEROME AVENUE,11235.0,40.587207614012,-73.952630268544
5 STAR VILLAGE CAFE,Brooklyn,1968,CONEY ISLAND AVENUE,11223.0,40.609180462632,-73.962234315309
CAFE VOLNA,Brooklyn,3145,BRIGHTON    4 STREET,11235.0,40.575579011727,-73.96297333036101
ZA ZABOROM,Brooklyn,3701,MERMAID AVENUE,11224.0,40.574767004214,-74.00339089015199
OCEAN VIEW CAFE,Brooklyn,290,BRIGHTON BEACH AVENUE,11235.0,40.576940905098,-73.964480884059
CATS ON THE BAY,Brooklyn,2027,EMMONS AVENUE,11235.0,40.583719371089,-73.947232518173
CMOLOVAR,Brooklyn,813,AVENUE U,11223.0,40.598127397561996,-73.962816740796
CHILLAX MANHATTAN BEACH CAFE,Brooklyn,184,OXFORD STREET,11235.0,40.578527066455,-73.93795615768501
CAFE VOLNA,Brooklyn,3145,BRIGHTON    4 STREET,11235.0,40.575579011727,-73.96297333036101
ANYWAY CAFE,Manhattan,34,EAST    2 STREET,10003.0,40.725111977320005,-73.990767580428
COFFEE SPOT CAFE,Brooklyn,1617,JEROME AVENUE,11235.0,40.587207614012,-73.952630268544
MATRYOSHKA (SPA 88),Manhattan,88,FULTON STREET,10038.0,40.709291351284,-74.005944276042
MUNCHBOX 21,Brooklyn,3100,OCEAN PARKWAY,11235.0,40.575860673145,-73.968639149456
GOLDEN LEO RESTAURANT,Brooklyn,1794,SHEEPSHEAD BAY ROAD,11235.0,40.584042075768,-73.95074243141799
CMOLOVAR,Brooklyn,813,AVENUE U,11223.0,40.598127397561996,-73.962816740796
EL TIMBIRICHI RESTAURANT,Bronx,168,EAST  174 STREET,10457.0,40.844805209289,-73.909102951764
CMOLOVAR,Brooklyn,813,AVENUE U,11223.0,40.598127397561996,-73.962816740796
CMOLOVAR,Brooklyn,813,AVENUE U,11223.0,40.598127397561996,-73.962816740796
ANYWAY CAFE & BAR,Brooklyn,1602,GRAVESEND NECK ROAD,11229.0,40.595053025776,-73.95462310848501
EL TIMBIRICHI RESTAURANT,Bronx,168,EAST  174 STREET,10457.0,40.844805209289,-73.909102951764
SIGNATURE RESTAURANT/FALADA,Brooklyn,2007,EMMONS AVENUE,11235.0,40.583692239804,-73.947923769384
CHINAR ON THE ISLAND,Staten Island,283,SAND LANE,10305.0,40.592596091025,-74.068210453189
MATRYOSHKA (SPA 88),Manhattan,88,FULTON STREET,10038.0,40.709291351284,-74.005944276042
PARIS,Brooklyn,8421,20 AVENUE,11214.0,40.605593732079,-73.997208961829
CAFE POBEDA,Brooklyn,5610,NEW UTRECHT AVENUE,11219.0,40.630612398505995,-73.995734409292
CHINAR ON THE ISLAND,Staten Island,283,SAND LANE,10305.0,40.592596091025,-74.068210453189
VIS-A-VIS,Brooklyn,3100,OCEAN PARKWAY,11235.0,40.575860673145,-73.968639149456
CAFE LILY,Brooklyn,42,AVENUE O,11204.0,40.61024500136,-73.983583946027
VAN'KA VSTAN'KA,Brooklyn,3810,NOSTRAND AVENUE,11235.0,40.590816601488,-73.940047410947
CAFE LILY,Brooklyn,42,AVENUE O,11204.0,40.61024500136,-73.983583946027
TETE-A-TETE,Brooklyn,2601,EAST   14 STREET,11235.0,40.587828989353,-73.955247301157
BELARUSSIAN XATA,Brooklyn,1655,SHEEPSHEAD BAY ROAD,11235.0,40.586529534874,-73.952349927343
CAFE LILY,Brooklyn,42,AVENUE O,11204.0,40.61024500136,-73.983583946027
VERSAILLES PALACE,Queens,6334,AUSTIN ST,11374.0,40.72772837641,-73.865094512339
SHERDOR RESTAURANT,Brooklyn,1917,AVENUE U,11229.0,40.599287284428,-73.952290373641
CAFE VOLNA,Brooklyn,3145,BRIGHTON    4 STREET,11235.0,40.575579011727,-73.96297333036101
SIGNATURE RESTAURANT/FALADA,Brooklyn,2007,EMMONS AVENUE,11235.0,40.583692239804,-73.947923769384
SIGNATURE RESTAURANT/FALADA,Brooklyn,2007,EMMONS AVENUE,11235.0,40.583692239804,-73.947923769384
FOTEH'S TANDOORI,Brooklyn,2650,CONEY ISLAND AVENUE,11223.0,40.592115616554,-73.96073174732899
ATLAS STEAKHOUSE,Brooklyn,943,CONEY ISLAND AVENUE,11230.0,40.634348966634995,-73.967361352111
RUSSIAN TURKISH BATHS,Manhattan,268,EAST   10 STREET,10009.0,40.728344489977005,-73.983453717052
HOME MADE COOKING CAFE,Brooklyn,504,BRIGHTON BEACH AVENUE,11235.0,40.577431490011,-73.962194739292
CAFE VOLNA,Brooklyn,3145,BRIGHTON    4 STREET,11235.0,40.575579011727,-73.96297333036101
ANYWAY CAFE,Manhattan,34,EAST    2 STREET,10003.0,40.725111977320005,-73.990767580428
CHAIHANA UZBEKISTAN BAKERY,Brooklyn,14,AVENUE O,11204.0,40.610129865349,-73.984628434181
GURMAN RESTAURANT,Brooklyn,2402,CONEY ISLAND AVENUE,11223.0,40.598684061231,-73.961224802721
SHERDOR RESTAURANT,Brooklyn,1917,AVENUE U,11229.0,40.599287284428,-73.952290373641
VAN'KA VSTAN'KA,Brooklyn,3810,NOSTRAND AVENUE,11235.0,40.590816601488,-73.940047410947
CMOLOVAR,Brooklyn,813,AVENUE U,11223.0,40.598127397561996,-73.962816740796
DAA! DUMPLINGS,Manhattan,1000S,8 AVENUE,10019.0,40.766812226924,-73.982808747226
FOTEH'S TANDOORI,Brooklyn,2650,CONEY ISLAND AVENUE,11223.0,40.592115616554,-73.96073174732899
CAFE VOLNA,Brooklyn,3145,BRIGHTON    4 STREET,11235.0,40.575579011727,-73.96297333036101
COFFEE SPOT CAFE,Brooklyn,1617,JEROME AVENUE,11235.0,40.587207614012,-73.952630268544
MATRYOSHKA (SPA 88),Manhattan,88,FULTON STREET,10038.0,40.709291351284,-74.005944276042
SIGNATURE RESTAURANT/FALADA,Brooklyn,2007,EMMONS AVENUE,11235.0,40.583692239804,-73.947923769384
5 STAR VILLAGE CAFE,Brooklyn,1968,CONEY ISLAND AVENUE,11223.0,40.609180462632,-73.962234315309
THE BOMOND RESTAURANT,Staten Island,4072,HYLAN BOULEVARD,10308.0,40.540317940614,-74.147661320466
CAFE VOLNA,Brooklyn,3145,BRIGHTON    4 STREET,11235.0,40.575579011727,-73.96297333036101
BELARUSSIAN XATA,Brooklyn,1655,SHEEPSHEAD BAY ROAD,11235.0,40.586529534874,-73.952349927343
VERSAILLES PALACE,Queens,6334,AUSTIN ST,11374.0,40.72772837641,-73.865094512339
TATIANA GRILL AND CAFE,Brooklyn,3145,BRIGHTON    4 STREET,11235.0,40.575579011727,-73.96297333036101
SHERDOR RESTAURANT,Brooklyn,1917,AVENUE U,11229.0,40.599287284428,-73.952290373641
CAFE VOLNA,Brooklyn,3145,BRIGHTON    4 STREET,11235.0,40.575579011727,-73.96297333036101
FOTEH'S TANDOORI,Brooklyn,2650,CONEY ISLAND AVENUE,11223.0,40.592115616554,-73.96073174732899
BELARUSSIAN XATA,Brooklyn,1655,SHEEPSHEAD BAY ROAD,11235.0,40.586529534874,-73.952349927343
GOLDEN LEO RESTAURANT,Brooklyn,1794,SHEEPSHEAD BAY ROAD,11235.0,40.584042075768,-73.95074243141799
TATIANA GRILL AND CAFE,Brooklyn,3145,BRIGHTON    4 STREET,11235.0,40.575579011727,-73.96297333036101
EL TIMBIRICHI RESTAURANT,Bronx,168,EAST  174 STREET,10457.0,40.844805209289,-73.909102951764
ZA ZABOROM,Brooklyn,3701,MERMAID AVENUE,11224.0,40.574767004214,-74.00339089015199
SHERDOR RESTAURANT,Brooklyn,1917,AVENUE U,11229.0,40.599287284428,-73.952290373641
OCEAN VIEW CAFE,Brooklyn,290,BRIGHTON BEACH AVENUE,11235.0,40.576940905098,-73.964480884059
GOLDEN LEO RESTAURANT,Brooklyn,1794,SHEEPSHEAD BAY ROAD,11235.0,40.584042075768,-73.95074243141799
MARI VANNA,Manhattan,41,EAST   20 STREET,10003.0,40.738874077713,-73.98904798618901
SHERDOR RESTAURANT,Brooklyn,1917,AVENUE U,11229.0,40.599287284428,-73.952290373641
RUSSIAN TURKISH BATHS,Manhattan,268,EAST   10 STREET,10009.0,40.728344489977005,-73.983453717052
CAFE LILY,Brooklyn,42,AVENUE O,11204.0,40.61024500136,-73.983583946027
ROYAL GARDEN TBILISI,Brooklyn,230,KINGS HIGHWAY,11223.0,40.605397529131,-73.982371494666
CHILLAX MANHATTAN BEACH CAFE,Brooklyn,184,OXFORD STREET,11235.0,40.578527066455,-73.93795615768501
FOTEH'S TANDOORI,Brooklyn,2650,CONEY ISLAND AVENUE,11223.0,40.592115616554,-73.96073174732899
CAFE VOLNA,Brooklyn,3145,BRIGHTON    4 STREET,11235.0,40.575579011727,-73.96297333036101
CAFE VOLNA,Brooklyn,3145,BRIGHTON    4 STREET,11235.0,40.575579011727,-73.96297333036101
VERSAILLES PALACE,Queens,6334,AUSTIN ST,11374.0,40.72772837641,-73.865094512339
ATLAS STEAKHOUSE,Brooklyn,943,CONEY ISLAND AVENUE,11230.0,40.634348966634995,-73.967361352111
CAFE TABU,Brooklyn,2205,AVENUE X,11235.0,40.592988885852,-73.948028111643
TSOB-TSOBE CAFE LOUNGE BAR,Brooklyn,2817,CONEY ISLAND AVENUE,11235.0,40.587828136795004,-73.960381441103
CAFE LILY,Brooklyn,42,AVENUE O,11204.0,40.61024500136,-73.983583946027
GURMAN RESTAURANT,Brooklyn,2402,CONEY ISLAND AVENUE,11223.0,40.598684061231,-73.961224802721
Z FANCY FOODZ,Brooklyn,1212,AVENUE Z,11235.0,40.587580159348995,-73.957735320661
ANYWAY CAFE,Manhattan,34,EAST    2 STREET,10003.0,40.725111977320005,-73.990767580428
SIGNATURE RESTAURANT/FALADA,Brooklyn,2007,EMMONS AVENUE,11235.0,40.583692239804,-73.947923769384
SKAZKA,Brooklyn,2334,CONEY ISLAND AVENUE,11223.0,40.599916503298004,-73.96132131211
SKOVORODKA RESTAURANT,Brooklyn,615,BRIGHTON BEACH AVENUE,11235.0,40.577658983497,-73.961226256328
ATLAS STEAKHOUSE,Brooklyn,943,CONEY ISLAND AVENUE,11230.0,40.634348966634995,-73.967361352111
DOLMA RESTAURANT,Brooklyn,311,AVENUE X,11223.0,40.590406054254,-73.971491103146
MATRYOSHKA (SPA 88),Manhattan,88,FULTON STREET,10038.0,40.709291351284,-74.005944276042
OCEAN VIEW CAFE,Brooklyn,290,BRIGHTON BEACH AVENUE,11235.0,40.576940905098,-73.964480884059
COFFEE SPOT CAFE,Brooklyn,1617,JEROME AVENUE,11235.0,40.587207614012,-73.952630268544
TRIO RESTAURANT,Queens,18134,UNION TPKE,11365.0,40.727455230203,-73.786459625901
B66 CLUB,Brooklyn,6612,NEW UTRECHT AVENUE,11219.0,40.622765123659,-73.997961115377
UMA'S,Queens,92-07,ROCKAWAY BEACH BOULEVARD,11693.0,40.586355312114,-73.815650198394
TATIANA GRILL AND CAFE,Brooklyn,3145,BRIGHTON    4 STREET,11235.0,40.575579011727,-73.96297333036101
SIGNATURE RESTAURANT/FALADA,Brooklyn,2007,EMMONS AVENUE,11235.0,40.583692239804,-73.947923769384
BATHHOUSE,Brooklyn,103,NORTH   10 STREET,11249.0,40.720655318805,-73.95780212328
UMA'S,Queens,92-07,ROCKAWAY BEACH BOULEVARD,11693.0,40.586355312114,-73.815650198394
RUSSIAN VODKA ROOM,Manhattan,265,WEST   52 STREET,10019.0,40.763175639217,-73.98431501489199
UMA'S,Queens,92-07,ROCKAWAY BEACH BOULEVARD,11693.0,40.586355312114,-73.815650198394
URGUT TANDIR EXPRESS,Brooklyn,3915,18 AVENUE,11218.0,40.632777635863,-73.97283839843
SKAZKA,Brooklyn,2334,CONEY ISLAND AVENUE,11223.0,40.599916503298004,-73.96132131211
OASIS CAFE,Brooklyn,2689,CONEY ISLAND AVENUE,11235.0,40.591053347963,-73.960627958371
ALMAZ RESTAURANT,Brooklyn,238,KINGS HIGHWAY,11223.0,40.605342559227,-73.981896134198
SIGNATURE RESTAURANT/FALADA,Brooklyn,2007,EMMONS AVENUE,11235.0,40.583692239804,-73.947923769384
CARAVAN,Brooklyn,1797,MCDONALD AVENUE,11230.0,40.609452521682,-73.973107236612
SHERDOR RESTAURANT,Brooklyn,1917,AVENUE U,11229.0,40.599287284428,-73.952290373641
FOTEH'S TANDOORI,Brooklyn,2650,CONEY ISLAND AVENUE,11223.0,40.592115616554,-73.96073174732899
ANYWAY CAFE & BAR,Brooklyn,1602,GRAVESEND NECK ROAD,11229.0,40.595053025776,-73.95462310848501
ANYWAY CAFE & BAR,Brooklyn,1602,GRAVESEND NECK ROAD,11229.0,40.595053025776,-73.95462310848501
TETE-A-TETE,Brooklyn,2601,EAST   14 STREET,11235.0,40.587828989353,-73.955247301157
VIS-A-VIS,Brooklyn,3100,OCEAN PARKWAY,11235.0,40.575860673145,-73.968639149456
VESELKA ESSEX,Manhattan,115,DELANCEY STREET,10002.0,40.718502330547,-73.988084546292
EL TIMBIRICHI RESTAURANT,Bronx,168,EAST  174 STREET,10457.0,40.844805209289,-73.909102951764
CHILLAX MANHATTAN BEACH CAFE,Brooklyn,184,OXFORD STREET,11235.0,40.578527066455,-73.93795615768501
ANYWAY CAFE & BAR,Brooklyn,1602,GRAVESEND NECK ROAD,11229.0,40.595053025776,-73.95462310848501
CMOLOVAR,Brooklyn,813,AVENUE U,11223.0,40.598127397561996,-73.962816740796
FOTEH'S TANDOORI,Brooklyn,2650,CONEY ISLAND AVENUE,11223.0,40.592115616554,-73.96073174732899
SKAZKA,Brooklyn,2334,CONEY ISLAND AVENUE,11223.0,40.599916503298004,-73.96132131211
RUSSIAN VODKA ROOM,Manhattan,265,WEST   52 STREET,10019.0,40.763175639217,-73.98431501489199
UMA'S,Queens,92-07,ROCKAWAY BEACH BOULEVARD,11693.0,40.586355312114,-73.815650198394
HOME MADE COOKING CAFE,Brooklyn,504,BRIGHTON BEACH AVENUE,11235.0,40.577431490011,-73.962194739292
CAFE VOLNA,Brooklyn,3145,BRIGHTON    4 STREET,11235.0,40.575579011727,-73.96297333036101
CAFE LILY,Brooklyn,42,AVENUE O,11204.0,40.61024500136,-73.983583946027
CAFE LILY,Brooklyn,42,AVENUE O,11204.0,40.61024500136,-73.983583946027
MATRYOSHKA (SPA 88),Manhattan,88,FULTON STREET,10038.0,40.709291351284,-74.005944276042
SKAZKA,Brooklyn,2334,CONEY ISLAND AVENUE,11223.0,40.599916503298004,-73.96132131211
RESTAURANT TATIANA,Brooklyn,3152,BRIGHTON    6 STREET,11235.0,40.575721132043,-73.961137392526
THE RUSSIAN TEA ROOM,Manhattan,150,WEST   57 STREET,10019.0,40.76516752914,-73.979249711961
TSOB-TSOBE CAFE LOUNGE BAR,Brooklyn,2817,CONEY ISLAND AVENUE,11235.0,40.587828136795004,-73.960381441103
GOLDEN LEO RESTAURANT,Brooklyn,1794,SHEEPSHEAD BAY ROAD,11235.0,40.584042075768,-73.95074243141799
VARENICHNAYA - PELMINI VARENICHKY,Brooklyn,3086,BRIGHTON    2 STREET,11235.0,40.576548577596995,-73.96505705633899
SHERDOR RESTAURANT,Brooklyn,1917,AVENUE U,11229.0,40.599287284428,-73.952290373641
ALMAZ RESTAURANT,Brooklyn,238,KINGS HIGHWAY,11223.0,40.605342559227,-73.981896134198
SIGNATURE RESTAURANT/FALADA,Brooklyn,2007,EMMONS AVENUE,11235.0,40.583692239804,-73.947923769384
TATIANA GRILL AND CAFE,Brooklyn,3145,BRIGHTON    4 STREET,11235.0,40.575579011727,-73.96297333036101
BATHHOUSE,Brooklyn,103,NORTH   10 STREET,11249.0,40.720655318805,-73.95780212328
TSOB-TSOBE CAFE LOUNGE BAR,Brooklyn,2817,CONEY ISLAND AVENUE,11235.0,40.587828136795004,-73.960381441103
BELARUSSIAN XATA,Brooklyn,1655,SHEEPSHEAD BAY ROAD,11235.0,40.586529534874,-73.952349927343
SKOVORODKA RESTAURANT,Brooklyn,615,BRIGHTON BEACH AVENUE,11235.0,40.577658983497,-73.961226256328
ROXY'S,Queens,2279,STEINWAY ST,11105.0,40.771590607643,-73.90757861032
MATRYOSHKA (SPA 88),Manhattan,88,FULTON STREET,10038.0,40.709291351284,-74.005944276042
UMA'S,Queens,92-07,ROCKAWAY BEACH BOULEVARD,11693.0,40.586355312114,-73.815650198394
CAFE VOLNA,Brooklyn,3145,BRIGHTON    4 STREET,11235.0,40.575579011727,-73.96297333036101
COFFEE SPOT CAFE,Brooklyn,1617,JEROME AVENUE,11235.0,40.587207614012,-73.952630268544
RESTAURANT TATIANA,Brooklyn,3152,BRIGHTON    6 STREET,11235.0,40.575721132043,-73.961137392526
FOTEH'S TANDOORI,Brooklyn,2650,CONEY ISLAND AVENUE,11223.0,40.592115616554,-73.96073174732899
CAFE VOLNA,Brooklyn,3145,BRIGHTON    4 STREET,11235.0,40.575579011727,-73.96297333036101
VARENICHNAYA - PELMINI VARENICHKY,Brooklyn,3086,BRIGHTON    2 STREET,11235.0,40.576548577596995,-73.96505705633899
RIVEL GRILL & BAR,Brooklyn,1809,EMMONS AVENUE,11235.0,40.583470937139,-73.950228033896
CAFE VOLNA,Brooklyn,3145,BRIGHTON    4 STREET,11235.0,40.575579011727,-73.96297333036101
CAFE VOLNA,Brooklyn,3145,BRIGHTON    4 STREET,11235.0,40.575579011727,-73.96297333036101
BELARUSSIAN XATA,Brooklyn,1655,SHEEPSHEAD BAY ROAD,11235.0,40.586529534874,-73.952349927343
EL TIMBIRICHI RESTAURANT,Bronx,168,EAST  174 STREET,10457.0,40.844805209289,-73.909102951764
B66 CLUB,Brooklyn,6612,NEW UTRECHT AVENUE,11219.0,40.622765123659,-73.997961115377
ZA ZABOROM,Brooklyn,3701,MERMAID AVENUE,11224.0,40.574767004214,-74.00339089015199
THE LIGHTS OF BAKU,Brooklyn,2707,86 STREET,11223.0,40.594640615253,-73.981769420041
URGUT TANDIR EXPRESS,Brooklyn,3915,18 AVENUE,11218.0,40.632777635863,-73.97283839843
CHILLAX MANHATTAN BEACH CAFE,Brooklyn,184,OXFORD STREET,11235.0,40.578527066455,-73.93795615768501
GURMAN RESTAURANT,Brooklyn,2402,CONEY ISLAND AVENUE,11223.0,40.598684061231,-73.961224802721
CAFE LILY,Brooklyn,42,AVENUE O,11204.0,40.61024500136,-73.983583946027
VIS-A-VIS,Brooklyn,3100,OCEAN PARKWAY,11235.0,40.575860673145,-73.968639149456
BELARUSSIAN XATA,Brooklyn,1655,SHEEPSHEAD BAY ROAD,11235.0,40.586529534874,-73.952349927343
TAP BEER,Brooklyn,1781,SHEEPSHEAD BAY ROAD,11235.0,40.584171102484,-73.950792738413
SHERDOR RESTAURANT,Brooklyn,1917,AVENUE U,11229.0,40.599287284428,-73.952290373641
RUSSIAN VODKA ROOM,Manhattan,265,WEST   52 STREET,10019.0,40.763175639217,-73.98431501489199
ROYAL GARDEN TBILISI,Brooklyn,230,KINGS HIGHWAY,11223.0,40.605397529131,-73.982371494666
CAFE VOLNA,Brooklyn,3145,BRIGHTON    4 STREET,11235.0,40.575579011727,-73.96297333036101
CAFE VOLNA,Brooklyn,3145,BRIGHTON    4 STREET,11235.0,40.575579011727,-73.96297333036101
ALMAZ RESTAURANT,Brooklyn,238,KINGS HIGHWAY,11223.0,40.605342559227,-73.981896134198
SKAZKA,Brooklyn,2334,CONEY ISLAND AVENUE,11223.0,40.599916503298004,-73.96132131211
BAKU PALACE,Brooklyn,2001,EMMONS AVENUE,11235.0,40.583684087202,-73.948103783475
FOTEH'S TANDOORI,Brooklyn,2650,CONEY ISLAND AVENUE,11223.0,40.592115616554,-73.96073174732899
Z FANCY FOODZ,Brooklyn,1212,AVENUE Z,11235.0,40.587580159348995,-73.957735320661
CHAIHANA UZBEKISTAN BAKERY,Brooklyn,14,AVENUE O,11204.0,40.610129865349,-73.984628434181
SHERDOR RESTAURANT,Brooklyn,1917,AVENUE U,11229.0,40.599287284428,-73.952290373641
SHERDOR RESTAURANT,Brooklyn,1917,AVENUE U,11229.0,40.599287284428,-73.952290373641
MATRYOSHKA (SPA 88),Manhattan,88,FULTON STREET,10038.0,40.709291351284,-74.005944276042
FOTEH'S TANDOORI,Brooklyn,2650,CONEY ISLAND AVENUE,11223.0,40.592115616554,-73.96073174732899
CAFE BORABORA,Queens,9708,QUEENS BLVD,11374.0,40.729209804938,-73.85989230109101
UMA'S,Queens,92-07,ROCKAWAY BEACH BOULEVARD,11693.0,40.586355312114,-73.815650198394
VIS-A-VIS,Brooklyn,3100,OCEAN PARKWAY,11235.0,40.575860673145,-73.968639149456
FOTEH'S TANDOORI,Brooklyn,2650,CONEY ISLAND AVENUE,11223.0,40.592115616554,-73.96073174732899
SHERDOR RESTAURANT,Brooklyn,1917,AVENUE U,11229.0,40.599287284428,-73.952290373641
SKOVORODKA RESTAURANT,Brooklyn,615,BRIGHTON BEACH AVENUE,11235.0,40.577658983497,-73.961226256328
ATLAS STEAKHOUSE,Brooklyn,943,CONEY ISLAND AVENUE,11230.0,40.634348966634995,-73.967361352111
BAKU PALACE,Brooklyn,2001,EMMONS AVENUE,11235.0,40.583684087202,-73.948103783475
CAFE VOLNA,Brooklyn,3145,BRIGHTON    4 STREET,11235.0,40.575579011727,-73.96297333036101
OASIS CAFE,Brooklyn,2689,CONEY ISLAND AVENUE,11235.0,40.591053347963,-73.960627958371
OLEANDR RESTAURANT,Brooklyn,410,BRIGHTON BEACH AVENUE,11235.0,40.577242386369,-73.963073199241
ALMAZ RESTAURANT,Brooklyn,238,KINGS HIGHWAY,11223.0,40.605342559227,-73.981896134198
MATRYOSHKA (SPA 88),Manhattan,88,FULTON STREET,10038.0,40.709291351284,-74.005944276042
SKAZKA,Brooklyn,2334,CONEY ISLAND AVENUE,11223.0,40.599916503298004,-73.96132131211
CAFE VOLNA,Brooklyn,3145,BRIGHTON    4 STREET,11235.0,40.575579011727,-73.96297333036101
OCEAN VIEW CAFE,Brooklyn,290,BRIGHTON BEACH AVENUE,11235.0,40.576940905098,-73.964480884059
OCEAN VIEW CAFE,Brooklyn,290,BRIGHTON BEACH AVENUE,11235.0,40.576940905098,-73.964480884059
SKAZKA,Brooklyn,2334,CONEY ISLAND AVENUE,11223.0,40.599916503298004,-73.96132131211
GOLDEN LEO RESTAURANT,Brooklyn,1794,SHEEPSHEAD BAY ROAD,11235.0,40.584042075768,-73.95074243141799
CAFE VOLNA,Brooklyn,3145,BRIGHTON    4 STREET,11235.0,40.575579011727,-73.96297333036101
RESTAURANT TATIANA,Brooklyn,3152,BRIGHTON    6 STREET,11235.0,40.575721132043,-73.961137392526
SKAZKA,Brooklyn,2334,CONEY ISLAND AVENUE,11223.0,40.599916503298004,-73.96132131211
SIGNATURE RESTAURANT/FALADA,Brooklyn,2007,EMMONS AVENUE,11235.0,40.583692239804,-73.947923769384
SKAZKA,Brooklyn,2334,CONEY ISLAND AVENUE,11223.0,40.599916503298004,-73.96132131211
CAFE LILY,Brooklyn,42,AVENUE O,11204.0,40.61024500136,-73.983583946027
CMOLOVAR,Brooklyn,813,AVENUE U,11223.0,40.598127397561996,-73.962816740796
MATRYOSHKA (SPA 88),Manhattan,88,FULTON STREET,10038.0,40.709291351284,-74.005944276042
THE RUSSIAN TEA ROOM,Manhattan,150,WEST   57 STREET,10019.0,40.76516752914,-73.979249711961
ALMAZ RESTAURANT,Brooklyn,238,KINGS HIGHWAY,11223.0,40.605342559227,-73.981896134198
URGUT TANDIR EXPRESS,Brooklyn,3915,18 AVENUE,11218.0,40.632777635863,-73.97283839843
CHILLAX MANHATTAN BEACH CAFE,Brooklyn,184,OXFORD STREET,11235.0,40.578527066455,-73.93795615768501
Z FANCY FOODZ,Brooklyn,1212,AVENUE Z,11235.0,40.587580159348995,-73.957735320661
SHERDOR RESTAURANT,Brooklyn,1917,AVENUE U,11229.0,40.599287284428,-73.952290373641
FOTEH'S TANDOORI,Brooklyn,2650,CONEY ISLAND AVENUE,11223.0,40.592115616554,-73.96073174732899
SKAZKA,Brooklyn,2334,CONEY ISLAND AVENUE,11223.0,40.599916503298004,-73.96132131211
ATLAS STEAKHOUSE,Brooklyn,943,CONEY ISLAND AVENUE,11230.0,40.634348966634995,-73.967361352111
BELARUSSIAN XATA,Brooklyn,1655,SHEEPSHEAD BAY ROAD,11235.0,40.586529534874,-73.952349927343
GOLDEN LEO RESTAURANT,Brooklyn,1794,SHEEPSHEAD BAY ROAD,11235.0,40.584042075768,-73.95074243141799
RIVEL GRILL & BAR,Brooklyn,1809,EMMONS AVENUE,11235.0,40.583470937139,-73.950228033896
HOME MADE COOKING CAFE,Brooklyn,504,BRIGHTON BEACH AVENUE,11235.0,40.577431490011,-73.962194739292
HOME MADE COOKING CAFE,Brooklyn,504,BRIGHTON BEACH AVENUE,11235.0,40.577431490011,-73.962194739292
5 STAR VILLAGE CAFE,Brooklyn,1968,CONEY ISLAND AVENUE,11223.0,40.609180462632,-73.962234315309
ATLAS STEAKHOUSE,Brooklyn,943,CONEY ISLAND AVENUE,11230.0,40.634348966634995,-73.967361352111
ROYAL GARDEN TBILISI,Brooklyn,230,KINGS HIGHWAY,11223.0,40.605397529131,-73.982371494666
ATLAS STEAKHOUSE,Brooklyn,943,CONEY ISLAND AVENUE,11230.0,40.634348966634995,-73.967361352111
5 STAR VILLAGE CAFE,Brooklyn,1968,CONEY ISLAND AVENUE,11223.0,40.609180462632,-73.962234315309
GURMAN RESTAURANT,Brooklyn,2402,CONEY ISLAND AVENUE,11223.0,40.598684061231,-73.961224802721
CAFE VOLNA,Brooklyn,3145,BRIGHTON    4 STREET,11235.0,40.575579011727,-73.96297333036101
5 STAR VILLAGE CAFE,Brooklyn,1968,CONEY ISLAND AVENUE,11223.0,40.609180462632,-73.962234315309
CAFE VOLNA,Brooklyn,3145,BRIGHTON    4 STREET,11235.0,40.575579011727,-73.96297333036101
SIGNATURE RESTAURANT/FALADA,Brooklyn,2007,EMMONS AVENUE,11235.0,40.583692239804,-73.947923769384
SHERDOR RESTAURANT,Brooklyn,1917,AVENUE U,11229.0,40.599287284428,-73.952290373641
B66 CLUB,Brooklyn,6612,NEW UTRECHT AVENUE,11219.0,40.622765123659,-73.997961115377
TAP BEER,Brooklyn,1781,SHEEPSHEAD BAY ROAD,11235.0,40.584171102484,-73.950792738413
CHILLAX MANHATTAN BEACH CAFE,Brooklyn,184,OXFORD STREET,11235.0,40.578527066455,-73.93795615768501
CAFE LILY,Brooklyn,42,AVENUE O,11204.0,40.61024500136,-73.983583946027
TRIO RESTAURANT,Queens,18134,UNION TPKE,11365.0,40.727455230203,-73.786459625901
CASPIY,Brooklyn,1309,AVENUE Z,11235.0,40.587870378001,-73.95580533230199
UMA'S,Queens,92-07,ROCKAWAY BEACH BOULEVARD,11693.0,40.586355312114,-73.815650198394
5 STAR VILLAGE CAFE,Brooklyn,1968,CONEY ISLAND AVENUE,11223.0,40.609180462632,-73.962234315309
RUSSIAN VODKA ROOM,Manhattan,265,WEST   52 STREET,10019.0,40.763175639217,-73.98431501489199
CAFE VOLNA,Brooklyn,3145,BRIGHTON    4 STREET,11235.0,40.575579011727,-73.96297333036101
VIS-A-VIS,Brooklyn,3100,OCEAN PARKWAY,11235.0,40.575860673145,-73.968639149456
ANYWAY CAFE & BAR,Brooklyn,1602,GRAVESEND NECK ROAD,11229.0,40.595053025776,-73.95462310848501
DARINA CAFE,Staten Island,315,SAND LANE,10305.0,40.592170781884,-74.067986779005
CHINAR RESTAURANT,Brooklyn,2775,CONEY ISLAND AVENUE,11235.0,40.588904122216,-73.960463610326
MUNCHBOX 21,Brooklyn,3100,OCEAN PARKWAY,11235.0,40.575860673145,-73.968639149456
5 STAR VILLAGE CAFE,Brooklyn,1968,CONEY ISLAND AVENUE,11223.0,40.609180462632,-73.962234315309
ANYWAY CAFE,Manhattan,34,EAST    2 STREET,10003.0,40.725111977320005,-73.990767580428
GOLDEN LEO RESTAURANT,Brooklyn,1794,SHEEPSHEAD BAY ROAD,11235.0,40.584042075768,-73.95074243141799
ROXY'S,Queens,2279,STEINWAY ST,11105.0,40.771590607643,-73.90757861032
OCEAN VIEW CAFE,Brooklyn,290,BRIGHTON BEACH AVENUE,11235.0,40.576940905098,-73.964480884059
DOLMA RESTAURANT,Brooklyn,311,AVENUE X,11223.0,40.590406054254,-73.971491103146
SHERDOR RESTAURANT,Brooklyn,1917,AVENUE U,11229.0,40.599287284428,-73.952290373641
TRIO RESTAURANT,Queens,18134,UNION TPKE,11365.0,40.727455230203,-73.786459625901
VIS-A-VIS,Brooklyn,3100,OCEAN PARKWAY,11235.0,40.575860673145,-73.968639149456
UMA'S,Queens,92-07,ROCKAWAY BEACH BOULEVARD,11693.0,40.586355312114,-73.815650198394
SHERDOR RESTAURANT,Brooklyn,1917,AVENUE U,11229.0,40.599287284428,-73.952290373641
DOLMA RESTAURANT,Brooklyn,311,AVENUE X,11223.0,40.590406054254,-73.971491103146
HOME MADE COOKING CAFE,Brooklyn,504,BRIGHTON BEACH AVENUE,11235.0,40.577431490011,-73.962194739292
HOME MADE COOKING CAFE,Brooklyn,504,BRIGHTON BEACH AVENUE,11235.0,40.577431490011,-73.962194739292
CMOLOVAR,Brooklyn,813,AVENUE U,11223.0,40.598127397561996,-73.962816740796
RUSSIAN TURKISH BATHS,Manhattan,268,EAST   10 STREET,10009.0,40.728344489977005,-73.983453717052
SHERDOR RESTAURANT,Brooklyn,1917,AVENUE U,11229.0,40.599287284428,-73.952290373641
CMOLOVAR,Brooklyn,813,AVENUE U,11223.0,40.598127397561996,-73.962816740796
EL TIMBIRICHI RESTAURANT,Bronx,168,EAST  174 STREET,10457.0,40.844805209289,-73.909102951764
VAN'KA VSTAN'KA,Brooklyn,3810,NOSTRAND AVENUE,11235.0,40.590816601488,-73.940047410947
CAFE VOLNA,Brooklyn,3145,BRIGHTON    4 STREET,11235.0,40.575579011727,-73.96297333036101
TETE-A-TETE,Brooklyn,2601,EAST   14 STREET,11235.0,40.587828989353,-73.955247301157
CHILLAX MANHATTAN BEACH CAFE,Brooklyn,184,OXFORD STREET,11235.0,40.578527066455,-73.93795615768501
RUSSIAN VODKA ROOM,Manhattan,265,WEST   52 STREET,10019.0,40.763175639217,-73.98431501489199
TSOB-TSOBE CAFE LOUNGE BAR,Brooklyn,2817,CONEY ISLAND AVENUE,11235.0,40.587828136795004,-73.960381441103
MATRYOSHKA (SPA 88),Manhattan,88,FULTON STREET,10038.0,40.709291351284,-74.005944276042
THE RUSSIAN TEA ROOM,Manhattan,150,WEST   57 STREET,10019.0,40.76516752914,-73.979249711961
CATS ON THE BAY,Brooklyn,2027,EMMONS AVENUE,11235.0,40.583719371089,-73.947232518173
THE RUSSIAN TEA ROOM,Manhattan,150,WEST   57 STREET,10019.0,40.76516752914,-73.979249711961
GURMAN RESTAURANT,Brooklyn,2402,CONEY ISLAND AVENUE,11223.0,40.598684061231,-73.961224802721
MUNCHBOX 21,Brooklyn,3100,OCEAN PARKWAY,11235.0,40.575860673145,-73.968639149456
RESTAURANT TATIANA,Brooklyn,3152,BRIGHTON    6 STREET,11235.0,40.575721132043,-73.961137392526
UMA'S,Queens,92-07,ROCKAWAY BEACH BOULEVARD,11693.0,40.586355312114,-73.815650198394
COFFEE SPOT CAFE,Brooklyn,1617,JEROME AVENUE,11235.0,40.587207614012,-73.952630268544
ANYWAY CAFE & BAR,Brooklyn,1602,GRAVESEND NECK ROAD,11229.0,40.595053025776,-73.95462310848501
TAP BEER,Brooklyn,1781,SHEEPSHEAD BAY ROAD,11235.0,40.584171102484,-73.950792738413
CAFE LILY,Brooklyn,42,AVENUE O,11204.0,40.61024500136,-73.983583946027
VIS-A-VIS,Brooklyn,3100,OCEAN PARKWAY,11235.0,40.575860673145,-73.968639149456
TETE-A-TETE,Brooklyn,2601,EAST   14 STREET,11235.0,40.587828989353,-73.955247301157
CATS ON THE BAY,Brooklyn,2027,EMMONS AVENUE,11235.0,40.583719371089,-73.947232518173
ZA ZABOROM,Brooklyn,3701,MERMAID AVENUE,11224.0,40.574767004214,-74.00339089015199
SKAZKA,Brooklyn,2334,CONEY ISLAND AVENUE,11223.0,40.599916503298004,-73.96132131211
CMOLOVAR,Brooklyn,813,AVENUE U,11223.0,40.598127397561996,-73.962816740796
COFFEE SPOT CAFE,Brooklyn,1617,JEROME AVENUE,11235.0,40.587207614012,-73.952630268544
SIGNATURE RESTAURANT/FALADA,Brooklyn,2007,EMMONS AVENUE,11235.0,40.583692239804,-73.947923769384
SHERDOR RESTAURANT,Brooklyn,1917,AVENUE U,11229.0,40.599287284428,-73.952290373641
CAFE VOLNA,Brooklyn,3145,BRIGHTON    4 STREET,11235.0,40.575579011727,-73.96297333036101
RUSSIAN TURKISH BATHS,Manhattan,268,EAST   10 STREET,10009.0,40.728344489977005,-73.983453717052
ATLAS STEAKHOUSE,Brooklyn,943,CONEY ISLAND AVENUE,11230.0,40.634348966634995,-73.967361352111
CAFE POBEDA,Brooklyn,5610,NEW UTRECHT AVENUE,11219.0,40.630612398505995,-73.995734409292
FOTEH'S TANDOORI,Brooklyn,2650,CONEY ISLAND AVENUE,11223.0,40.592115616554,-73.96073174732899
SKOVORODKA RESTAURANT,Brooklyn,615,BRIGHTON BEACH AVENUE,11235.0,40.577658983497,-73.961226256328
CHINAR ON THE ISLAND,Staten Island,283,SAND LANE,10305.0,40.592596091025,-74.068210453189
ANYWAY CAFE,Manhattan,34,EAST    2 STREET,10003.0,40.725111977320005,-73.990767580428
CARAVAN,Brooklyn,1797,MCDONALD AVENUE,11230.0,40.609452521682,-73.973107236612
CHAIHANA UZBEKISTAN BAKERY,Brooklyn,14,AVENUE O,11204.0,40.610129865349,-73.984628434181
MARI VANNA,Manhattan,41,EAST   20 STREET,10003.0,40.738874077713,-73.98904798618901
THE LIGHTS OF BAKU,Brooklyn,2707,86 STREET,11223.0,40.594640615253,-73.981769420041
DARINA CAFE,Staten Island,315,SAND LANE,10305.0,40.592170781884,-74.067986779005
DOLMA RESTAURANT,Brooklyn,311,AVENUE X,11223.0,40.590406054254,-73.971491103146
SHERDOR RESTAURANT,Brooklyn,1917,AVENUE U,11229.0,40.599287284428,-73.952290373641
TAP BEER,Brooklyn,1781,SHEEPSHEAD BAY ROAD,11235.0,40.584171102484,-73.950792738413
VESELKA ESSEX,Manhattan,115,DELANCEY STREET,10002.0,40.718502330547,-73.988084546292
CAFE BORABORA,Queens,9708,QUEENS BLVD,11374.0,40.729209804938,-73.85989230109101
RUSSIAN TURKISH BATHS,Manhattan,268,EAST   10 STREET,10009.0,40.728344489977005,-73.983453717052
SHERDOR RESTAURANT,Brooklyn,1917,AVENUE U,11229.0,40.599287284428,-73.952290373641
5 STAR VILLAGE CAFE,Brooklyn,1968,CONEY ISLAND AVENUE,11223.0,40.609180462632,-73.962234315309
THE RUSSIAN TEA ROOM,Manhattan,150,WEST   57 STREET,10019.0,40.76516752914,-73.979249711961
MARI VANNA,Manhattan,41,EAST   20 STREET,10003.0,40.738874077713,-73.98904798618901
HOME MADE COOKING CAFE,Brooklyn,504,BRIGHTON BEACH AVENUE,11235.0,40.577431490011,-73.962194739292
GOLDEN LEO RESTAURANT,Brooklyn,1794,SHEEPSHEAD BAY ROAD,11235.0,40.584042075768,-73.95074243141799
FOTEH'S TANDOORI,Brooklyn,2650,CONEY ISLAND AVENUE,11223.0,40.592115616554,-73.96073174732899
CAFE EUROASIA,Brooklyn,602,BRIGHTON BEACH AVENUE,11235.0,40.577626069185,-73.961294672205
RESTAURANT TATIANA,Brooklyn,3152,BRIGHTON    6 STREET,11235.0,40.575721132043,-73.961137392526
CAFE LILY,Brooklyn,42,AVENUE O,11204.0,40.61024500136,-73.983583946027
SHERDOR RESTAURANT,Brooklyn,1917,AVENUE U,11229.0,40.599287284428,-73.952290373641
B66 CLUB,Brooklyn,6612,NEW UTRECHT AVENUE,11219.0,40.622765123659,-73.997961115377
FOTEH'S TANDOORI,Brooklyn,2650,CONEY ISLAND AVENUE,11223.0,40.592115616554,-73.96073174732899
THE LIGHTS OF BAKU,Brooklyn,2707,86 STREET,11223.0,40.594640615253,-73.981769420041
GURMAN RESTAURANT,Brooklyn,2402,CONEY ISLAND AVENUE,11223.0,40.598684061231,-73.961224802721
SKAZKA,Brooklyn,2334,CONEY ISLAND AVENUE,11223.0,40.599916503298004,-73.96132131211
VAN'KA VSTAN'KA,Brooklyn,3810,NOSTRAND AVENUE,11235.0,40.590816601488,-73.940047410947
RUSSIAN TURKISH BATHS,Manhattan,268,EAST   10 STREET,10009.0,40.728344489977005,-73.983453717052
RIVEL GRILL & BAR,Brooklyn,1809,EMMONS AVENUE,11235.0,40.583470937139,-73.950228033896
CAFE TABU,Brooklyn,2205,AVENUE X,11235.0,40.592988885852,-73.948028111643
CHILLAX MANHATTAN BEACH CAFE,Brooklyn,184,OXFORD STREET,11235.0,40.578527066455,-73.93795615768501
VAN'KA VSTAN'KA,Brooklyn,3810,NOSTRAND AVENUE,11235.0,40.590816601488,-73.940047410947
UMA'S,Queens,92-07,ROCKAWAY BEACH BOULEVARD,11693.0,40.586355312114,-73.815650198394
RUSSIAN TURKISH BATHS,Manhattan,268,EAST   10 STREET,10009.0,40.728344489977005,-73.983453717052
UMA'S,Queens,92-07,ROCKAWAY BEACH BOULEVARD,11693.0,40.586355312114,-73.815650198394
RESTAURANT TATIANA,Brooklyn,3152,BRIGHTON    6 STREET,11235.0,40.575721132043,-73.961137392526
TATIANA GRILL AND CAFE,Brooklyn,3145,BRIGHTON    4 STREET,11235.0,40.575579011727,-73.96297333036101
DOLMA RESTAURANT,Brooklyn,311,AVENUE X,11223.0,40.590406054254,-73.971491103146
DARINA CAFE,Staten Island,315,SAND LANE,10305.0,40.592170781884,-74.067986779005
VAN'KA VSTAN'KA,Brooklyn,3810,NOSTRAND AVENUE,11235.0,40.590816601488,-73.940047410947
UMA'S,Queens,92-07,ROCKAWAY BEACH BOULEVARD,11693.0,40.586355312114,-73.815650198394
CMOLOVAR,Brooklyn,813,AVENUE U,11223.0,40.598127397561996,-73.962816740796
RESTAURANT TATIANA,Brooklyn,3152,BRIGHTON    6 STREET,11235.0,40.575721132043,-73.961137392526
CHINAR RESTAURANT,Brooklyn,2775,CONEY ISLAND AVENUE,11235.0,40.588904122216,-73.960463610326
FOTEH'S TANDOORI,Brooklyn,2650,CONEY ISLAND AVENUE,11223.0,40.592115616554,-73.96073174732899
RESTAURANT TATIANA,Brooklyn,3152,BRIGHTON    6 STREET,11235.0,40.575721132043,-73.961137392526
ANYWAY CAFE & BAR,Brooklyn,1602,GRAVESEND NECK ROAD,11229.0,40.595053025776,-73.95462310848501
GOLDEN LEO RESTAURANT,Brooklyn,1794,SHEEPSHEAD BAY ROAD,11235.0,40.584042075768,-73.95074243141799
COFFEE SPOT CAFE,Brooklyn,1617,JEROME AVENUE,11235.0,40.587207614012,-73.952630268544
CAFE VOLNA,Brooklyn,3145,BRIGHTON    4 STREET,11235.0,40.575579011727,-73.96297333036101
CHINAR ON THE ISLAND,Staten Island,283,SAND LANE,10305.0,40.592596091025,-74.068210453189
BELARUSSIAN XATA,Brooklyn,1655,SHEEPSHEAD BAY ROAD,11235.0,40.586529534874,-73.952349927343
OLEANDR RESTAURANT,Brooklyn,410,BRIGHTON BEACH AVENUE,11235.0,40.577242386369,-73.963073199241
ANYWAY CAFE & BAR,Brooklyn,1602,GRAVESEND NECK ROAD,11229.0,40.595053025776,-73.95462310848501
RUSSIAN TURKISH BATHS,Manhattan,268,EAST   10 STREET,10009.0,40.728344489977005,-73.983453717052
GOLDEN LEO RESTAURANT,Brooklyn,1794,SHEEPSHEAD BAY ROAD,11235.0,40.584042075768,-73.95074243141799
PARIS,Brooklyn,8421,20 AVENUE,11214.0,40.605593732079,-73.997208961829
GOLDEN LEO RESTAURANT,Brooklyn,1794,SHEEPSHEAD BAY ROAD,11235.0,40.584042075768,-73.95074243141799
ANYWAY CAFE & BAR,Brooklyn,1602,GRAVESEND NECK ROAD,11229.0,40.595053025776,-73.95462310848501
SKAZKA,Brooklyn,2334,CONEY ISLAND AVENUE,11223.0,40.599916503298004,-73.96132131211
THE RUSSIAN TEA ROOM,Manhattan,150,WEST   57 STREET,10019.0,40.76516752914,-73.979249711961
CAFE VOLNA,Brooklyn,3145,BRIGHTON    4 STREET,11235.0,40.575579011727,-73.96297333036101
OASIS CAFE,Brooklyn,2689,CONEY ISLAND AVENUE,11235.0,40.591053347963,-73.960627958371
CHAIHANA UZBEKISTAN BAKERY,Brooklyn,14,AVENUE O,11204.0,40.610129865349,-73.984628434181
OASIS CAFE,Brooklyn,2689,CONEY ISLAND AVENUE,11235.0,40.591053347963,-73.960627958371
CAFE VOLNA,Brooklyn,3145,BRIGHTON    4 STREET,11235.0,40.575579011727,-73.96297333036101
DOLMA RESTAURANT,Brooklyn,311,AVENUE X,11223.0,40.590406054254,-73.971491103146
CHINAR RESTAURANT,Brooklyn,2775,CONEY ISLAND AVENUE,11235.0,40.588904122216,-73.960463610326
TSOB-TSOBE CAFE LOUNGE BAR,Brooklyn,2817,CONEY ISLAND AVENUE,11235.0,40.587828136795004,-73.960381441103
BELARUSSIAN XATA,Brooklyn,1655,SHEEPSHEAD BAY ROAD,11235.0,40.586529534874,-73.952349927343
CHINAR RESTAURANT,Brooklyn,2775,CONEY ISLAND AVENUE,11235.0,40.588904122216,-73.960463610326
SHERDOR RESTAURANT,Brooklyn,1917,AVENUE U,11229.0,40.599287284428,-73.952290373641
ALMAZ RESTAURANT,Brooklyn,238,KINGS HIGHWAY,11223.0,40.605342559227,-73.981896134198
MATRYOSHKA (SPA 88),Manhattan,88,FULTON STREET,10038.0,40.709291351284,-74.005944276042
ALMAZ RESTAURANT,Brooklyn,238,KINGS HIGHWAY,11223.0,40.605342559227,-73.981896134198
CHINAR ON THE ISLAND,Staten Island,283,SAND LANE,10305.0,40.592596091025,-74.068210453189
ANYWAY CAFE & BAR,Brooklyn,1602,GRAVESEND NECK ROAD,11229.0,40.595053025776,-73.95462310848501
5 STAR VILLAGE CAFE,Brooklyn,1968,CONEY ISLAND AVENUE,11223.0,40.609180462632,-73.962234315309
SKAZKA,Brooklyn,2334,CONEY ISLAND AVENUE,11223.0,40.599916503298004,-73.96132131211
HOME MADE COOKING CAFE,Brooklyn,504,BRIGHTON BEACH AVENUE,11235.0,40.577431490011,-73.962194739292
SIGNATURE RESTAURANT/FALADA,Brooklyn,2007,EMMONS AVENUE,11235.0,40.583692239804,-73.947923769384
CMOLOVAR,Brooklyn,813,AVENUE U,11223.0,40.598127397561996,-73.962816740796
RESTAURANT TATIANA,Brooklyn,3152,BRIGHTON    6 STREET,11235.0,40.575721132043,-73.961137392526
SKOVORODKA RESTAURANT,Brooklyn,615,BRIGHTON BEACH AVENUE,11235.0,40.577658983497,-73.961226256328
CAFE VOLNA,Brooklyn,3145,BRIGHTON    4 STREET,11235.0,40.575579011727,-73.96297333036101
CARAVAN,Brooklyn,1797,MCDONALD AVENUE,11230.0,40.609452521682,-73.973107236612
MTSKHETA CAFE,Brooklyn,2568,86 STREET,11214.0,40.596933058142,-73.98559651730099
RESTAURANT TATIANA,Brooklyn,3152,BRIGHTON    6 STREET,11235.0,40.575721132043,-73.961137392526
5 STAR VILLAGE CAFE,Brooklyn,1968,CONEY ISLAND AVENUE,11223.0,40.609180462632,-73.962234315309
ALMAZ RESTAURANT,Brooklyn,238,KINGS HIGHWAY,11223.0,40.605342559227,-73.981896134198
SIGNATURE RESTAURANT/FALADA,Brooklyn,2007,EMMONS AVENUE,11235.0,40.583692239804,-73.947923769384
ANYWAY CAFE,Manhattan,34,EAST    2 STREET,10003.0,40.725111977320005,-73.990767580428
BAKU PALACE,Brooklyn,2001,EMMONS AVENUE,11235.0,40.583684087202,-73.948103783475
SKAZKA,Brooklyn,2334,CONEY ISLAND AVENUE,11223.0,40.599916503298004,-73.96132131211
CAFE VOLNA,Brooklyn,3145,BRIGHTON    4 STREET,11235.0,40.575579011727,-73.96297333036101
OASIS CAFE,Brooklyn,2689,CONEY ISLAND AVENUE,11235.0,40.591053347963,-73.960627958371
TSOB-TSOBE CAFE LOUNGE BAR,Brooklyn,2817,CONEY ISLAND AVENUE,11235.0,40.587828136795004,-73.960381441103
SHERDOR RESTAURANT,Brooklyn,1917,AVENUE U,11229.0,40.599287284428,-73.952290373641
CAFE VOLNA,Brooklyn,3145,BRIGHTON    4 STREET,11235.0,40.575579011727,-73.96297333036101
B66 CLUB,Brooklyn,6612,NEW UTRECHT AVENUE,11219.0,40.622765123659,-73.997961115377
RUSSIAN VODKA ROOM,Manhattan,265,WEST   52 STREET,10019.0,40.763175639217,-73.98431501489199
RESTAURANT TATIANA,Brooklyn,3152,BRIGHTON    6 STREET,11235.0,40.575721132043,-73.961137392526
GURMAN RESTAURANT,Brooklyn,2402,CONEY ISLAND AVENUE,11223.0,40.598684061231,-73.961224802721
CAFE VOLNA,Brooklyn,3145,BRIGHTON    4 STREET,11235.0,40.575579011727,-73.96297333036101
SKOVORODKA RESTAURANT,Brooklyn,615,BRIGHTON BEACH AVENUE,11235.0,40.577658983497,-73.961226256328
B66 CLUB,Brooklyn,6612,NEW UTRECHT AVENUE,11219.0,40.622765123659,-73.997961115377
B66 CLUB,Brooklyn,6612,NEW UTRECHT AVENUE,11219.0,40.622765123659,-73.997961115377
SIGNATURE RESTAURANT/FALADA,Brooklyn,2007,EMMONS AVENUE,11235.0,40.583692239804,-73.947923769384
TETE-A-TETE,Brooklyn,2601,EAST   14 STREET,11235.0,40.587828989353,-73.955247301157
ANYWAY CAFE & BAR,Brooklyn,1602,GRAVESEND NECK ROAD,11229.0,40.595053025776,-73.95462310848501
CAFE VOLNA,Brooklyn,3145,BRIGHTON    4 STREET,11235.0,40.575579011727,-73.96297333036101
RUSSIAN VODKA ROOM,Manhattan,265,WEST   52 STREET,10019.0,40.763175639217,-73.98431501489199
SKAZKA,Brooklyn,2334,CONEY ISLAND AVENUE,11223.0,40.599916503298004,-73.96132131211
ROXY'S,Queens,2279,STEINWAY ST,11105.0,40.771590607643,-73.90757861032
RUSSIAN VODKA ROOM,Manhattan,265,WEST   52 STREET,10019.0,40.763175639217,-73.98431501489199
SKAZKA,Brooklyn,2334,CONEY ISLAND AVENUE,11223.0,40.599916503298004,-73.96132131211
CAFE VOLNA,Brooklyn,3145,BRIGHTON    4 STREET,11235.0,40.575579011727,-73.96297333036101
Z FANCY FOODZ,Brooklyn,1212,AVENUE Z,11235.0,40.587580159348995,-73.957735320661
CAFE BORABORA,Queens,9708,QUEENS BLVD,11374.0,40.729209804938,-73.85989230109101
DOLMA RESTAURANT,Brooklyn,311,AVENUE X,11223.0,40.590406054254,-73.971491103146
DAA! DUMPLINGS,Manhattan,1000S,8 AVENUE,10019.0,40.766812226924,-73.982808747226
CMOLOVAR,Brooklyn,813,AVENUE U,11223.0,40.598127397561996,-73.962816740796
CAFE VOLNA,Brooklyn,3145,BRIGHTON    4 STREET,11235.0,40.575579011727,-73.96297333036101
ANYWAY CAFE & BAR,Brooklyn,1602,GRAVESEND NECK ROAD,11229.0,40.595053025776,-73.95462310848501
DOLMA RESTAURANT,Brooklyn,311,AVENUE X,11223.0,40.590406054254,-73.971491103146
RUSSIAN TURKISH BATHS,Manhattan,268,EAST   10 STREET,10009.0,40.728344489977005,-73.983453717052
SIGNATURE RESTAURANT/FALADA,Brooklyn,2007,EMMONS AVENUE,11235.0,40.583692239804,-73.947923769384
RIVEL GRILL & BAR,Brooklyn,1809,EMMONS AVENUE,11235.0,40.583470937139,-73.950228033896
CAFE VOLNA,Brooklyn,3145,BRIGHTON    4 STREET,11235.0,40.575579011727,-73.96297333036101
HOME MADE COOKING CAFE,Brooklyn,504,BRIGHTON BEACH AVENUE,11235.0,40.577431490011,-73.962194739292
SKOVORODKA RESTAURANT,Brooklyn,615,BRIGHTON BEACH AVENUE,11235.0,40.577658983497,-73.961226256328
COFFEE SPOT CAFE,Brooklyn,1617,JEROME AVENUE,11235.0,40.587207614012,-73.952630268544
ANYWAY CAFE & BAR,Brooklyn,1602,GRAVESEND NECK ROAD,11229.0,40.595053025776,-73.95462310848501
VARENICHNAYA - PELMINI VARENICHKY,Brooklyn,3086,BRIGHTON    2 STREET,11235.0,40.576548577596995,-73.96505705633899
VAN'KA VSTAN'KA,Brooklyn,3810,NOSTRAND AVENUE,11235.0,40.590816601488,-73.940047410947
5 STAR VILLAGE CAFE,Brooklyn,1968,CONEY ISLAND AVENUE,11223.0,40.609180462632,-73.962234315309
ROYAL GARDEN TBILISI,Brooklyn,230,KINGS HIGHWAY,11223.0,40.605397529131,-73.982371494666
CHINAR RESTAURANT,Brooklyn,2775,CONEY ISLAND AVENUE,11235.0,40.588904122216,-73.960463610326
HOME MADE COOKING CAFE,Brooklyn,504,BRIGHTON BEACH AVENUE,11235.0,40.577431490011,-73.962194739292
CHINAR RESTAURANT,Brooklyn,2775,CONEY ISLAND AVENUE,11235.0,40.588904122216,-73.960463610326
CAFE VOLNA,Brooklyn,3145,BRIGHTON    4 STREET,11235.0,40.575579011727,-73.96297333036101
BAKU PALACE,Brooklyn,2001,EMMONS AVENUE,11235.0,40.583684087202,-73.948103783475
CAFE VOLNA,Brooklyn,3145,BRIGHTON    4 STREET,11235.0,40.575579011727,-73.96297333036101
CMOLOVAR,Brooklyn,813,AVENUE U,11223.0,40.598127397561996,-73.962816740796
ATLAS STEAKHOUSE,Brooklyn,943,CONEY ISLAND AVENUE,11230.0,40.634348966634995,-73.967361352111
MUNCHBOX 21,Brooklyn,3100,OCEAN PARKWAY,11235.0,40.575860673145,-73.968639149456
CHINAR ON THE ISLAND,Staten Island,283,SAND LANE,10305.0,40.592596091025,-74.068210453189
RESTAURANT TATIANA,Brooklyn,3152,BRIGHTON    6 STREET,11235.0,40.575721132043,-73.961137392526
Z FANCY FOODZ,Brooklyn,1212,AVENUE Z,11235.0,40.587580159348995,-73.957735320661
GOLDEN LEO RESTAURANT,Brooklyn,1794,SHEEPSHEAD BAY ROAD,11235.0,40.584042075768,-73.95074243141799
VIS-A-VIS,Brooklyn,3100,OCEAN PARKWAY,11235.0,40.575860673145,-73.968639149456
SKAZKA,Brooklyn,2334,CONEY ISLAND AVENUE,11223.0,40.599916503298004,-73.96132131211
UMA'S,Queens,92-07,ROCKAWAY BEACH BOULEVARD,11693.0,40.586355312114,-73.815650198394
VARENICHNAYA - PELMINI VARENICHKY,Brooklyn,3086,BRIGHTON    2 STREET,11235.0,40.576548577596995,-73.96505705633899
RUSSIAN TURKISH BATHS,Manhattan,268,EAST   10 STREET,10009.0,40.728344489977005,-73.983453717052
ALMAZ RESTAURANT,Brooklyn,238,KINGS HIGHWAY,11223.0,40.605342559227,-73.981896134198
COFFEE SPOT CAFE,Brooklyn,1617,JEROME AVENUE,11235.0,40.587207614012,-73.952630268544
MATRYOSHKA (SPA 88),Manhattan,88,FULTON STREET,10038.0,40.709291351284,-74.005944276042
RUSSIAN TURKISH BATHS,Manhattan,268,EAST   10 STREET,10009.0,40.728344489977005,-73.983453717052
ANYWAY CAFE,Manhattan,34,EAST    2 STREET,10003.0,40.725111977320005,-73.990767580428
SIGNATURE RESTAURANT/FALADA,Brooklyn,2007,EMMONS AVENUE,11235.0,40.583692239804,-73.947923769384
OASIS CAFE,Brooklyn,2689,CONEY ISLAND AVENUE,11235.0,40.591053347963,-73.960627958371
ANYWAY CAFE,Manhattan,34,EAST    2 STREET,10003.0,40.725111977320005,-73.990767580428
5 STAR VILLAGE CAFE,Brooklyn,1968,CONEY ISLAND AVENUE,11223.0,40.609180462632,-73.962234315309
SKAZKA,Brooklyn,2334,CONEY ISLAND AVENUE,11223.0,40.599916503298004,-73.96132131211
THE BOMOND RESTAURANT,Staten Island,4072,HYLAN BOULEVARD,10308.0,40.540317940614,-74.147661320466
RUSSIAN TURKISH BATHS,Manhattan,268,EAST   10 STREET,10009.0,40.728344489977005,-73.983453717052
VERSAILLES PALACE,Queens,6334,AUSTIN ST,11374.0,40.72772837641,-73.865094512339
B66 CLUB,Brooklyn,6612,NEW UTRECHT AVENUE,11219.0,40.622765123659,-73.997961115377
ANYWAY CAFE,Manhattan,34,EAST    2 STREET,10003.0,40.725111977320005,-73.990767580428
